{
"type": "FeatureCollection",
"name": "DATIC_homicidios_2023_2026T1_poligono_Barrio_Obrero",
"crs": { "type": "name", "properties": { "name": "urn:ogc:def:crs:OGC:1.3:CRS84" } },
"features": [
{ "type": "Feature", "properties": { "no": 52222, "semana": 1, "identifica": 78665, "spoa": "25-00110", "spoa_compl": "760016000193202000000", "direccion": "CL 22 A 13 A", "barrio": "BARRIO OBRERO", "comuna": "9", "idcombar": 910.0, "cuadrante": "9.0", "tipo_de_ar": "ARMA DE FUEGO", "tipo_ident": "CEDULA DE CIUDADANIA", "ocupacion": "SIN OCUPACION", "sexo": "M", "edad": 25, "horah": "19:33", "fechao": 2025, "fechah": "01/04/2025", "diasem": "SABADO", "jornadarh8": "18:00-20:59", "est28xrang": 7, "fh8": "NOCHE", "est32xdian": 5.0, "diasanio": 4, "horam": "19:58", "fecham": "01/04/2025", "horai": "20:23", "fechai": "01/04/2025", "lugar_hech": "VIA PUBLICA", "nom_lugar_": "VIA PUBLICA", "inspeccion": "HOSPITAL UNIVERSITARIO DEL VALLE", "direcion_d": "K39 CL 54", "barrio_res": "SIN DATO", "comuna_res": 99, "levantamie": "H.U.V", "estado_civ": "UNION LIBRE", "escolarida": "SECUNDARIA", "tipo_viole": "DELINCUENCIA", "categoria_": "HOMICIDIOS POR VENGANZA CON Y SIN ANTECEDENTES DE ATENTADOS Y AMENAZAS", "categori_1": null, "subcategor": "HOMICIDIO ATRIBUIDO A VENGANZA SIN CONTEXTO NI ATECEDENTES DE NINGUN TIPO", "tipo_agres": "SIN DATO", "jornada": "NOCHE", "fec_especi": null, "x": -76.520249146110004, "y": 3.44551417545, "feminicidi": "N", "procedimie": "N", "poblacion_": "N", "clasificac": "'00000000", "barrioplan": "Barrio Obrero", "estratopla": 2.0, "semanaexce": 1.0, "semanalund": 1.0, "semanacons": 1671.0, "semanaco_1": 1671.0, "finsemanac": 1671.0, "multiples": "SIMPLE", "agresor_en": "NO APLICA", "genero": null, "orientacio": "POR ESTABLECER", "manera_mue": "VIOLENTA HOMICIDA", "nacionalid": null, "sector": null, "otra_nacio": null, "ancestro": "SIN INFORMACIÓN", "licor": 0, "drogas": 0, "bandas": 0, "pandillas": 0, "habitantes": 0, "barras": 0, "lgtbi": 0, "com_hecho": "Comuna 9", "comparendo": "N", "antecedent": "NO", "anotacione": "SIN DATOS", "movil": "VENGANZAS SIN ANTECEDENTES", "sicariato": "S", "desc_habca": "NO APLICA", "desc_droga": "NO APLICA", "Id": 0, "area": 136572.15568900001 }, "geometry": { "type": "Point", "coordinates": [ -76.520249146110004, 3.44551417545 ] } },
{ "type": "Feature", "properties": { "no": 52266, "semana": 4, "identifica": 78169, "spoa": "25-00689", "spoa_compl": "760016000193202000000", "direccion": "CL 25 KR 11", "barrio": "BARRIO OBRERO", "comuna": "9", "idcombar": 910.0, "cuadrante": "9.0", "tipo_de_ar": "ARMA DE FUEGO", "tipo_ident": "CEDULA DE CIUDADANIA", "ocupacion": "SIN OCUPACION", "sexo": "M", "edad": 24, "horah": "06:40", "fechao": 2025, "fechah": "01/19/2025", "diasem": "DOMINGO", "jornadarh8": "06:00-08:59", "est28xrang": 3, "fh8": "MAÑANA", "est32xdian": 1.0, "diasanio": 19, "horam": "07:05", "fecham": "01/19/2025", "horai": "07:30", "fechai": "01/19/2025", "lugar_hech": "VIA PUBLICA", "nom_lugar_": "VIA PUBLICA", "inspeccion": "L.HECHOS", "direcion_d": "K39 CL 54", "barrio_res": "SIN DATO", "comuna_res": 99, "levantamie": "L.HECHOS", "estado_civ": "SIN ESTABLECER", "escolarida": "PRIMARIA", "tipo_viole": "DELINCUENCIA", "categoria_": "HOMICIDIOS POR VENGANZA CON Y SIN ANTECEDENTES DE ATENTADOS Y AMENAZAS", "categori_1": null, "subcategor": "HOMICIDIO ATRIBUIDO A VENGANZA SIN CONTEXTO NI ATECEDENTES DE NINGUN TIPO", "tipo_agres": "SIN DATO", "jornada": "MAÑANA", "fec_especi": null, "x": -76.518414932189998, "y": 3.4494286704900001, "feminicidi": "N", "procedimie": "N", "poblacion_": "N", "clasificac": "'00000000", "barrioplan": "Barrio Obrero", "estratopla": 2.0, "semanaexce": 4.0, "semanalund": 3.0, "semanacons": 1674.0, "semanaco_1": 1673.0, "finsemanac": 1673.0, "multiples": "SIMPLE", "agresor_en": "NO APLICA", "genero": null, "orientacio": "POR ESTABLECER", "manera_mue": "VIOLENTA HOMICIDA", "nacionalid": null, "sector": null, "otra_nacio": null, "ancestro": "SIN INFORMACIÓN", "licor": 0, "drogas": 0, "bandas": 0, "pandillas": 0, "habitantes": 0, "barras": 0, "lgtbi": 0, "com_hecho": "Comuna 9", "comparendo": "S", "antecedent": "NO", "anotacione": "SIN DATOS", "movil": "VENGANZAS SIN ANTECEDENTES", "sicariato": "N", "desc_habca": "NO APLICA", "desc_droga": "NO APLICA", "Id": 0, "area": 136572.15568900001 }, "geometry": { "type": "Point", "coordinates": [ -76.518414932189998, 3.44942867049 ] } },
{ "type": "Feature", "properties": { "no": 50316, "semana": 5, "identifica": 75368, "spoa": "23-00803", "spoa_compl": "760016000193202000000", "direccion": "CL 21 8 45", "barrio": "BARRIO OBRERO", "comuna": "9", "idcombar": 910.0, "cuadrante": "E9", "tipo_de_ar": "ARMA DE FUEGO", "tipo_ident": "CEDULA DE CIUDADANIA", "ocupacion": "MECANICO", "sexo": "M", "edad": 28, "horah": "03:03", "fechao": 2023, "fechah": "01/29/2023", "diasem": "DOMINGO", "jornadarh8": "03:00-05:59", "est28xrang": 2, "fh8": "MADRUGADA", "est32xdian": 8.0, "diasanio": 29, "horam": "03:28", "fecham": "01/29/2023", "horai": "03:53", "fechai": "01/29/2023", "lugar_hech": "VIA PUBLICA", "nom_lugar_": "VIA PUBLICA", "inspeccion": "HOSPITAL UNIVERSITARIO DEL VALLE", "direcion_d": "K39 CL 54", "barrio_res": "BARRIO OBRERO", "comuna_res": 9, "levantamie": "H.U.V", "estado_civ": "SOLTERO", "escolarida": "PRIMARIA", "tipo_viole": "CONVIVENCIA", "categoria_": "HOMICIDIOS POR INTOLERANCIA", "categori_1": null, "subcategor": "HOMICIDIOS POR INTOLERANCIA SIN RIÑA PREVIA", "tipo_agres": "SIN DATO", "jornada": "MADRUGADA", "fec_especi": null, "x": -76.523028970919995, "y": 3.4515102423899999, "feminicidi": "N", "procedimie": "N", "poblacion_": "N", "clasificac": "'00000000", "barrioplan": "Barrio Obrero", "estratopla": 2.0, "semanaexce": 5.0, "semanalund": 5.0, "semanacons": 1571.0, "semanaco_1": 1570.0, "finsemanac": 1570.0, "multiples": "SIMPLE", "agresor_en": "NO APLICA", "genero": null, "orientacio": "POR ESTABLECER", "manera_mue": "VIOLENTA HOMICIDA", "nacionalid": null, "sector": null, "otra_nacio": null, "ancestro": "SIN INFORMACIÓN", "licor": 0, "drogas": 0, "bandas": 0, "pandillas": 0, "habitantes": 0, "barras": 0, "lgtbi": 0, "com_hecho": "Comuna 9", "comparendo": "N", "antecedent": "SIN DATOS", "anotacione": "SIN DATOS", "movil": "INTOLERANCIA SIN RIÑA", "sicariato": "N", "desc_habca": "NO APLICA", "desc_droga": "NO APLICA", "Id": 0, "area": 136572.15568900001 }, "geometry": { "type": "Point", "coordinates": [ -76.523028970919995, 3.45151024239 ] } },
{ "type": "Feature", "properties": { "no": 52320, "semana": 6, "identifica": 78232, "spoa": "25-01783", "spoa_compl": "760016000193202000000", "direccion": "KR 10 CL 22 A", "barrio": "BARRIO OBRERO", "comuna": "9", "idcombar": 910.0, "cuadrante": "9.0", "tipo_de_ar": "ARMA DE FUEGO", "tipo_ident": "CEDULA DE CIUDADANIA", "ocupacion": "SIN OCUPACION", "sexo": "M", "edad": 25, "horah": "22:11", "fechao": 2025, "fechah": "02/07/2025", "diasem": "VIERNES", "jornadarh8": "21:00-23:59", "est28xrang": 8, "fh8": "NOCHE", "est32xdian": 6.0, "diasanio": 38, "horam": "22:36", "fecham": "02/07/2025", "horai": "23:01", "fechai": "02/07/2025", "lugar_hech": "VIA PUBLICA", "nom_lugar_": "VIA PUBLICA", "inspeccion": "L.HECHOS", "direcion_d": "K39 CL 54", "barrio_res": "SIN DATO", "comuna_res": 99, "levantamie": "L.HECHOS", "estado_civ": "SOLTERO", "escolarida": "SIN ESTABLECER", "tipo_viole": "DELINCUENCIA", "categoria_": "HOMICIDIOS POR VENGANZA CON Y SIN ANTECEDENTES DE ATENTADOS Y AMENAZAS", "categori_1": null, "subcategor": "HOMICIDIO ATRIBUIDO A VENGANZA SIN CONTEXTO NI ATECEDENTES DE NINGUN TIPO", "tipo_agres": "SIN DATO", "jornada": "NOCHE", "fec_especi": null, "x": -76.521040571170005, "y": 3.4496242349699999, "feminicidi": "N", "procedimie": "N", "poblacion_": "N", "clasificac": "'00000001", "barrioplan": "Barrio Obrero", "estratopla": 2.0, "semanaexce": 6.0, "semanalund": 6.0, "semanacons": 1676.0, "semanaco_1": 1676.0, "finsemanac": 1676.0, "multiples": "SIMPLE", "agresor_en": "NO APLICA", "genero": null, "orientacio": "POR ESTABLECER", "manera_mue": "VIOLENTA HOMICIDA", "nacionalid": null, "sector": null, "otra_nacio": null, "ancestro": "SIN INFORMACIÓN", "licor": 0, "drogas": 0, "bandas": 0, "pandillas": 0, "habitantes": 0, "barras": 0, "lgtbi": 0, "com_hecho": "Comuna 9", "comparendo": "N", "antecedent": "NO", "anotacione": "SIN DATOS", "movil": "VENGANZAS SIN ANTECEDENTES", "sicariato": "N", "desc_habca": "NO APLICA", "desc_droga": "NO APLICA", "Id": 0, "area": 136572.15568900001 }, "geometry": { "type": "Point", "coordinates": [ -76.521040571170005, 3.44962423497 ] } },
{ "type": "Feature", "properties": { "no": 51375, "semana": 7, "identifica": 76977, "spoa": "24-01548", "spoa_compl": "760016000193202000000", "direccion": "CL 25 KR 13A", "barrio": "BARRIO OBRERO", "comuna": "9", "idcombar": 910.0, "cuadrante": "E9", "tipo_de_ar": "ARMA DE FUEGO", "tipo_ident": "DOCUMENTO DE EXTRANJERIA", "ocupacion": "INDIGENTE", "sexo": "M", "edad": 35, "horah": "00:45", "fechao": 2024, "fechah": "02/16/2024", "diasem": "VIERNES", "jornadarh8": "00:00-02:59", "est28xrang": 1, "fh8": "MADRUGADA", "est32xdian": 7.0, "diasanio": 47, "horam": "01:10", "fecham": "02/16/2024", "horai": "01:35", "fechai": "02/16/2024", "lugar_hech": "VIA PUBLICA", "nom_lugar_": "VIA PUBLICA", "inspeccion": "L.HECHOS", "direcion_d": "K39 CL 54", "barrio_res": "SIN DATO", "comuna_res": 99, "levantamie": "L.HECHOS", "estado_civ": "SIN ESTABLECER", "escolarida": "SIN ESTABLECER", "tipo_viole": "DELINCUENCIA", "categoria_": "HOMICIDIOS POR VENGANZA CON Y SIN ANTECEDENTES DE ATENTADOS Y AMENAZAS", "categori_1": null, "subcategor": "HOMICIDIO ATRIBUIDO A VENGANZA CON ANTECEDENTES PREVIOS DE ATENTADOS, AMENAZAS O DISPUTAS", "tipo_agres": "SIN DATO", "jornada": "MADRUGADA", "fec_especi": null, "x": -76.518703723309997, "y": 3.4452553232200001, "feminicidi": "N", "procedimie": "N", "poblacion_": "N", "clasificac": "'10000001", "barrioplan": "Barrio Obrero", "estratopla": 2.0, "semanaexce": 7.0, "semanalund": 7.0, "semanacons": 1625.0, "semanaco_1": 1625.0, "finsemanac": 1625.0, "multiples": "SIMPLE", "agresor_en": "NO APLICA", "genero": null, "orientacio": "POR ESTABLECER", "manera_mue": "VIOLENTA HOMICIDA", "nacionalid": null, "sector": null, "otra_nacio": null, "ancestro": "SIN INFORMACIÓN", "licor": 0, "drogas": 0, "bandas": 0, "pandillas": 0, "habitantes": 0, "barras": 0, "lgtbi": 0, "com_hecho": "Comuna 9", "comparendo": "N", "antecedent": "SIN DATOS", "anotacione": "SIN DATOS", "movil": "VENGANZAS CON ANTECEDENTES", "sicariato": "N", "desc_habca": "VÍCTIMA", "desc_droga": "VÍCTIMA CONSUMIDOR", "Id": 0, "area": 136572.15568900001 }, "geometry": { "type": "Point", "coordinates": [ -76.518703723309997, 3.44525532322 ] } },
{ "type": "Feature", "properties": { "no": 51385, "semana": 8, "identifica": 76990, "spoa": "24-01734", "spoa_compl": "760016000193202000000", "direccion": "CL 24 KR 11D", "barrio": "BARRIO OBRERO", "comuna": "9", "idcombar": 910.0, "cuadrante": "E9", "tipo_de_ar": "ARMA DE FUEGO", "tipo_ident": "CEDULA DE CIUDADANIA", "ocupacion": "EMPLEADO", "sexo": "M", "edad": 37, "horah": "17:40", "fechao": 2024, "fechah": "02/20/2024", "diasem": "MARTES", "jornadarh8": "15:00-17:59", "est28xrang": 6, "fh8": "TARDE", "est32xdian": 4.0, "diasanio": 51, "horam": "18:05", "fecham": "02/20/2024", "horai": "18:30", "fechai": "02/20/2024", "lugar_hech": "VIA PUBLICA", "nom_lugar_": "VIA PUBLICA", "inspeccion": "CLINICA NUESTRA", "direcion_d": "K39 CL 54", "barrio_res": "SIN DATO", "comuna_res": 99, "levantamie": "C.NUESTRA", "estado_civ": "SIN ESTABLECER", "escolarida": "SIN ESTABLECER", "tipo_viole": "DELINCUENCIA", "categoria_": "HOMICIDIOS POR VENGANZA CON Y SIN ANTECEDENTES DE ATENTADOS Y AMENAZAS", "categori_1": null, "subcategor": "HOMICIDIO ATRIBUIDO A VENGANZA SIN CONTEXTO NI ATECEDENTES DE NINGUN TIPO", "tipo_agres": "SIN DATO", "jornada": "TARDE", "fec_especi": null, "x": -76.51892581813, "y": 3.4475409354900002, "feminicidi": "N", "procedimie": "N", "poblacion_": "N", "clasificac": "'00000000", "barrioplan": "Barrio Obrero", "estratopla": 2.0, "semanaexce": 8.0, "semanalund": 8.0, "semanacons": 1626.0, "semanaco_1": 1626.0, "finsemanac": null, "multiples": "SIMPLE", "agresor_en": "NO APLICA", "genero": null, "orientacio": "POR ESTABLECER", "manera_mue": "VIOLENTA HOMICIDA", "nacionalid": null, "sector": null, "otra_nacio": null, "ancestro": "SIN INFORMACIÓN", "licor": 0, "drogas": 0, "bandas": 0, "pandillas": 0, "habitantes": 0, "barras": 0, "lgtbi": 0, "com_hecho": "Comuna 9", "comparendo": "N", "antecedent": "SIN DATOS", "anotacione": "SIN DATOS", "movil": "VENGANZAS SIN ANTECEDENTES", "sicariato": "N", "desc_habca": "NO APLICA", "desc_droga": "NO APLICA", "Id": 0, "area": 136572.15568900001 }, "geometry": { "type": "Point", "coordinates": [ -76.51892581813, 3.44754093549 ] } },
{ "type": "Feature", "properties": { "no": 53702, "semana": 9, "identifica": 80013, "spoa": "26-02832", "spoa_compl": "760016000193202602832", "direccion": "KR 10 CL 24", "barrio": "BARRIO OBRERO", "comuna": "9", "idcombar": 910.0, "cuadrante": "E9", "tipo_de_ar": "CORTOPUNZANTE", "tipo_ident": "CÉDULA DE CIUDADANÍA", "ocupacion": "SIN INFORMACIÓN", "sexo": "M", "edad": 30, "horah": "05:00", "fechao": 2026, "fechah": "03/01/2026", "diasem": "DOMINGO", "jornadarh8": "03:00-05:59", "est28xrang": 2, "fh8": "MADRUGADA", "est32xdian": null, "diasanio": 435, "horam": "05:25", "fecham": "03/01/2026", "horai": "05:50", "fechai": "03/01/2026", "lugar_hech": "VIA PUBLICA", "nom_lugar_": "VIA PUBLICA", "inspeccion": "HOSPITAL SAN JUAN DE DIOS", "direcion_d": "SIN DATOS", "barrio_res": "SIN DATOS", "comuna_res": 99, "levantamie": "VÍA PÚBLICA", "estado_civ": "SOLTERO", "escolarida": "SIN ESTABLECER", "tipo_viole": "DELINCUENCIA", "categoria_": "HOMICIDIOS POR VENGANZA CON Y SIN ANTECEDENTES  DE ATENTADOS Y AMENAZAS", "categori_1": null, "subcategor": "HOMICIDIO ATRIBUIDO A VENGANZA CON ANTECEDENTES PREVIOS DE ATENTADOS, AMENAZAS O DISPUTAS", "tipo_agres": "DESCONOCIDO", "jornada": "MADRUGADA", "fec_especi": null, "x": -76.519352121400004, "y": 3.4499728442599999, "feminicidi": "N", "procedimie": "N", "poblacion_": "N", "clasificac": "'00000000", "barrioplan": "Barrio Obrero", "estratopla": 2.0, "semanaexce": 10.0, "semanalund": 9.0, "semanacons": 10.0, "semanaco_1": 9.0, "finsemanac": 1731.0, "multiples": "SIMPLE", "agresor_en": "N", "genero": "MASCULINO", "orientacio": "HETEROSEXUAL", "manera_mue": "VIOLENTA HOMICIDA", "nacionalid": "COLOMBIANO(A)", "sector": "NO APLICA", "otra_nacio": "NO APLICA", "ancestro": "SIN INFORMACIÓN", "licor": 0, "drogas": 0, "bandas": 0, "pandillas": 0, "habitantes": 0, "barras": 0, "lgtbi": 0, "com_hecho": "Comuna 9", "comparendo": "S", "antecedent": "PRESUNTO", "anotacione": "S", "movil": "VENGANZAS CON ANTECEDENTES", "sicariato": "S", "desc_habca": "NO APLICA", "desc_droga": "NO APLICA", "Id": 0, "area": 136572.15568900001 }, "geometry": { "type": "Point", "coordinates": [ -76.519352121400004, 3.44997284426 ] } },
{ "type": "Feature", "properties": { "no": 51419, "semana": 10, "identifica": 77034, "spoa": "24-02492", "spoa_compl": "760016000193202000000", "direccion": "CL 11 B KR 24", "barrio": "BARRIO OBRERO", "comuna": "9", "idcombar": 910.0, "cuadrante": "E9", "tipo_de_ar": "CORTOPUNZANTE", "tipo_ident": "CEDULA DE CIUDADANIA", "ocupacion": "VENDEDOR AMBULANTE", "sexo": "M", "edad": 18, "horah": "20:15", "fechao": 2024, "fechah": "03/09/2024", "diasem": "SABADO", "jornadarh8": "18:00-20:59", "est28xrang": 7, "fh8": "NOCHE", "est32xdian": 5.0, "diasanio": 69, "horam": "20:40", "fecham": "03/09/2024", "horai": "21:05", "fechai": "03/09/2024", "lugar_hech": "VIA PUBLICA", "nom_lugar_": "VIA PUBLICA", "inspeccion": "HOSPITAL SAN JUAN DE DIOS", "direcion_d": "K39 CL 54", "barrio_res": "BARRIO OBRERO", "comuna_res": 9, "levantamie": "H.SAN JUAN DE DIOS", "estado_civ": "SOLTERO", "escolarida": "SECUNDARIA", "tipo_viole": "DELINCUENCIA", "categoria_": "HOMICIDIOS ASOCIADOS A PROBLEMAS CON EL PATRIMONIO", "categori_1": null, "subcategor": "HOMICIDIO POR HURTAR CUALQUIER MODALIDAD DE HURTO", "tipo_agres": "SIN DATO", "jornada": "NOCHE", "fec_especi": null, "x": -76.518828273600008, "y": 3.44837096911, "feminicidi": "N", "procedimie": "N", "poblacion_": "N", "clasificac": "'00000000", "barrioplan": "Barrio Obrero", "estratopla": 2.0, "semanaexce": 10.0, "semanalund": 10.0, "semanacons": 1628.0, "semanaco_1": 1628.0, "finsemanac": 1628.0, "multiples": "SIMPLE", "agresor_en": "NO APLICA", "genero": null, "orientacio": "POR ESTABLECER", "manera_mue": "VIOLENTA HOMICIDA", "nacionalid": null, "sector": null, "otra_nacio": null, "ancestro": "SIN INFORMACIÓN", "licor": 0, "drogas": 0, "bandas": 0, "pandillas": 0, "habitantes": 0, "barras": 0, "lgtbi": 0, "com_hecho": "Comuna 9", "comparendo": "N", "antecedent": "SIN DATOS", "anotacione": "SIN DATOS", "movil": "POR HURTAR", "sicariato": "N", "desc_habca": "NO APLICA", "desc_droga": "NO APLICA", "Id": 0, "area": 136572.15568900001 }, "geometry": { "type": "Point", "coordinates": [ -76.518828273600008, 3.44837096911 ] } },
{ "type": "Feature", "properties": { "no": 52430, "semana": 12, "identifica": 78365, "spoa": "25-03706", "spoa_compl": "760016000193202000000", "direccion": "KR 10 CL 25", "barrio": "BARRIO OBRERO", "comuna": "9", "idcombar": 910.0, "cuadrante": "8.0", "tipo_de_ar": "ARMA DE FUEGO", "tipo_ident": "CEDULA DE CIUDADANIA", "ocupacion": "EMPLEADO", "sexo": "M", "edad": 33, "horah": "23:19", "fechao": 2025, "fechah": "03/19/2025", "diasem": "MIERCOLES", "jornadarh8": "21:00-23:59", "est28xrang": 8, "fh8": "NOCHE", "est32xdian": 6.0, "diasanio": 78, "horam": "23:44", "fecham": "03/19/2025", "horai": "00:06", "fechai": "03/20/2025", "lugar_hech": "VIA PUBLICA", "nom_lugar_": "VIA PUBLICA", "inspeccion": "L.HECHOS", "direcion_d": "K39 CL 54", "barrio_res": "SIN DATO", "comuna_res": 99, "levantamie": "L.HECHOS", "estado_civ": "UNION LIBRE", "escolarida": "SECUNDARIA", "tipo_viole": "DELINCUENCIA", "categoria_": "HOMICIDIOS ASOCIADOS A PROBLEMAS CON EL PATRIMONIO", "categori_1": null, "subcategor": "HOMICIDIO POR HURTAR CUALQUIER MODALIDAD DE HURTO", "tipo_agres": "SIN DATO", "jornada": "NOCHE", "fec_especi": null, "x": -76.51935, "y": 3.45074, "feminicidi": "N", "procedimie": "N", "poblacion_": "N", "clasificac": "'00000001", "barrioplan": "Barrio Obrero", "estratopla": 2.0, "semanaexce": 12.0, "semanalund": 12.0, "semanacons": 1682.0, "semanaco_1": 1682.0, "finsemanac": null, "multiples": "SIMPLE", "agresor_en": "NO APLICA", "genero": null, "orientacio": "POR ESTABLECER", "manera_mue": "VIOLENTA HOMICIDA", "nacionalid": null, "sector": null, "otra_nacio": null, "ancestro": "SIN INFORMACIÓN", "licor": 0, "drogas": 0, "bandas": 0, "pandillas": 0, "habitantes": 0, "barras": 0, "lgtbi": 0, "com_hecho": "Comuna 9", "comparendo": "N", "antecedent": "NO", "anotacione": "SIN DATOS", "movil": "POR HURTAR", "sicariato": "N", "desc_habca": "NO APLICA", "desc_droga": "NO APLICA", "Id": 0, "area": 136572.15568900001 }, "geometry": { "type": "Point", "coordinates": [ -76.51935, 3.45074 ] } },
{ "type": "Feature", "properties": { "no": 52531, "semana": 18, "identifica": 78522, "spoa": "25-05450", "spoa_compl": "760016000193202000000", "direccion": "CL 24 KR 12 38", "barrio": "BARRIO OBRERO", "comuna": "9", "idcombar": 910.0, "cuadrante": "9.0", "tipo_de_ar": "ARMA DE FUEGO", "tipo_ident": "CEDULA DE CIUDADANIA", "ocupacion": "CARPINTERO", "sexo": "M", "edad": 18, "horah": "12:45", "fechao": 2025, "fechah": "04/27/2025", "diasem": "DOMINGO", "jornadarh8": "12:00-14:59", "est28xrang": 5, "fh8": "TARDE", "est32xdian": 3.0, "diasanio": 117, "horam": "13:10", "fecham": "04/27/2025", "horai": "13:35", "fechai": "04/27/2025", "lugar_hech": "VIA PUBLICA", "nom_lugar_": "VIA PUBLICA", "inspeccion": "L.HECHOS", "direcion_d": "Calle 10 Carrera 11 B 14", "barrio_res": "SIN DATO", "comuna_res": 99, "levantamie": "L.HECHOS", "estado_civ": "SOLTERO", "escolarida": "SECUNDARIA", "tipo_viole": "DELINCUENCIA", "categoria_": "HOMICIDIOS POR VENGANZA CON Y SIN ANTECEDENTES DE ATENTADOS Y AMENAZAS", "categori_1": null, "subcategor": "HOMICIDIO ATRIBUIDO A VENGANZA SIN CONTEXTO NI ATECEDENTES DE NINGUN TIPO", "tipo_agres": "SIN DATO", "jornada": "TARDE", "fec_especi": null, "x": -76.518699275820012, "y": 3.4464289987100001, "feminicidi": "N", "procedimie": "N", "poblacion_": "N", "clasificac": "'00001011", "barrioplan": "Barrio Obrero", "estratopla": 2.0, "semanaexce": 18.0, "semanalund": 17.0, "semanacons": 1688.0, "semanaco_1": 1687.0, "finsemanac": 1687.0, "multiples": "SIMPLE", "agresor_en": "NO APLICA", "genero": null, "orientacio": "POR ESTABLECER", "manera_mue": "VIOLENTA HOMICIDA", "nacionalid": null, "sector": null, "otra_nacio": null, "ancestro": "SIN INFORMACIÓN", "licor": 0, "drogas": 0, "bandas": 0, "pandillas": 0, "habitantes": 0, "barras": 0, "lgtbi": 0, "com_hecho": "Comuna 9", "comparendo": "S", "antecedent": "NO", "anotacione": "SIN DATOS", "movil": "VENGANZAS SIN ANTECEDENTES", "sicariato": "S", "desc_habca": "NO APLICA", "desc_droga": "NO APLICA", "Id": 0, "area": 136572.15568900001 }, "geometry": { "type": "Point", "coordinates": [ -76.518699275820012, 3.44642899871 ] } },
{ "type": "Feature", "properties": { "no": 52543, "semana": 18, "identifica": 78518, "spoa": "25-05695", "spoa_compl": "760016000193202000000", "direccion": "CL 24 KR 9 51", "barrio": "BARRIO OBRERO", "comuna": "9", "idcombar": 910.0, "cuadrante": "9.0", "tipo_de_ar": "ARMA DE FUEGO", "tipo_ident": "CEDULA DE CIUDADANIA", "ocupacion": "MOTORISTA", "sexo": "M", "edad": 47, "horah": "20:03", "fechao": 2025, "fechah": "05/02/2025", "diasem": "VIERNES", "jornadarh8": "18:00-20:59", "est28xrang": 7, "fh8": "NOCHE", "est32xdian": 5.0, "diasanio": 122, "horam": "20:28", "fecham": "05/02/2025", "horai": "20:53", "fechai": "05/02/2025", "lugar_hech": "VIA PUBLICA", "nom_lugar_": "VIA PUBLICA", "inspeccion": "L.HECHOS", "direcion_d": "K39 CL 54", "barrio_res": "SIN DATO", "comuna_res": 99, "levantamie": "L.HECHOS", "estado_civ": "CASADO", "escolarida": "SECUNDARIA", "tipo_viole": "DELINCUENCIA", "categoria_": "HOMICIDIOS POR VENGANZA CON Y SIN ANTECEDENTES DE ATENTADOS Y AMENAZAS", "categori_1": null, "subcategor": "HOMICIDIO ATRIBUIDO A VENGANZA SIN CONTEXTO NI ATECEDENTES DE NINGUN TIPO", "tipo_agres": "SIN DATO", "jornada": "NOCHE", "fec_especi": null, "x": -76.519421495619994, "y": 3.45047958362, "feminicidi": "N", "procedimie": "N", "poblacion_": "N", "clasificac": "'00000000", "barrioplan": "Barrio Obrero", "estratopla": 2.0, "semanaexce": 18.0, "semanalund": 18.0, "semanacons": 1688.0, "semanaco_1": 1688.0, "finsemanac": 1688.0, "multiples": "DOBLE", "agresor_en": "NO APLICA", "genero": null, "orientacio": "POR ESTABLECER", "manera_mue": "VIOLENTA HOMICIDA", "nacionalid": null, "sector": null, "otra_nacio": null, "ancestro": "SIN INFORMACIÓN", "licor": 0, "drogas": 0, "bandas": 0, "pandillas": 0, "habitantes": 0, "barras": 0, "lgtbi": 0, "com_hecho": "Comuna 9", "comparendo": "N", "antecedent": "NO", "anotacione": "SIN DATOS", "movil": "VENGANZAS SIN ANTECEDENTES", "sicariato": "N", "desc_habca": "NO APLICA", "desc_droga": "NO APLICA", "Id": 0, "area": 136572.15568900001 }, "geometry": { "type": "Point", "coordinates": [ -76.519421495619994, 3.45047958362 ] } },
{ "type": "Feature", "properties": { "no": 52545, "semana": 18, "identifica": 78517, "spoa": "25-05695", "spoa_compl": "760016000193202000000", "direccion": "CL 24 KR 9 51", "barrio": "BARRIO OBRERO", "comuna": "9", "idcombar": 910.0, "cuadrante": "9.0", "tipo_de_ar": "ARMA DE FUEGO", "tipo_ident": "CEDULA DE CIUDADANIA", "ocupacion": "MOTORISTA", "sexo": "M", "edad": 39, "horah": "20:03", "fechao": 2025, "fechah": "05/02/2025", "diasem": "VIERNES", "jornadarh8": "18:00-20:59", "est28xrang": 7, "fh8": "NOCHE", "est32xdian": 5.0, "diasanio": 122, "horam": "20:28", "fecham": "05/02/2025", "horai": "20:53", "fechai": "05/02/2025", "lugar_hech": "VIA PUBLICA", "nom_lugar_": "VIA PUBLICA", "inspeccion": "L.HECHOS", "direcion_d": "K39 CL 54", "barrio_res": "SIN DATO", "comuna_res": 99, "levantamie": "L.HECHOS", "estado_civ": "UNION LIBRE", "escolarida": "SECUNDARIA", "tipo_viole": "DELINCUENCIA", "categoria_": "HOMICIDIOS POR VENGANZA CON Y SIN ANTECEDENTES DE ATENTADOS Y AMENAZAS", "categori_1": null, "subcategor": "HOMICIDIO ATRIBUIDO A VENGANZA SIN CONTEXTO NI ATECEDENTES DE NINGUN TIPO", "tipo_agres": "SIN DATO", "jornada": "NOCHE", "fec_especi": null, "x": -76.519421495619994, "y": 3.45047958362, "feminicidi": "N", "procedimie": "N", "poblacion_": "N", "clasificac": "'00000000", "barrioplan": "Barrio Obrero", "estratopla": 2.0, "semanaexce": 18.0, "semanalund": 18.0, "semanacons": 1688.0, "semanaco_1": 1688.0, "finsemanac": 1688.0, "multiples": "DOBLE", "agresor_en": "NO APLICA", "genero": null, "orientacio": "POR ESTABLECER", "manera_mue": "VIOLENTA HOMICIDA", "nacionalid": null, "sector": null, "otra_nacio": null, "ancestro": "SIN INFORMACIÓN", "licor": 0, "drogas": 0, "bandas": 0, "pandillas": 0, "habitantes": 0, "barras": 0, "lgtbi": 0, "com_hecho": "Comuna 9", "comparendo": "N", "antecedent": "NO", "anotacione": "SIN DATOS", "movil": "VENGANZAS SIN ANTECEDENTES", "sicariato": "S", "desc_habca": "NO APLICA", "desc_droga": "NO APLICA", "Id": 0, "area": 136572.15568900001 }, "geometry": { "type": "Point", "coordinates": [ -76.519421495619994, 3.45047958362 ] } },
{ "type": "Feature", "properties": { "no": 50629, "semana": 19, "identifica": 75806, "spoa": "23-04534", "spoa_compl": "760016000193202000000", "direccion": "KR 10 CL 21", "barrio": "BARRIO OBRERO", "comuna": "9", "idcombar": 910.0, "cuadrante": "E9", "tipo_de_ar": "ARMA DE FUEGO", "tipo_ident": "DOCUMENTO DE EXTRANJERIA", "ocupacion": "OFICIOS VARIOS", "sexo": "M", "edad": 45, "horah": "21:43", "fechao": 2023, "fechah": "05/13/2023", "diasem": "SABADO", "jornadarh8": "21:00-23:59", "est28xrang": 8, "fh8": "NOCHE", "est32xdian": 6.0, "diasanio": 133, "horam": "22:08", "fecham": "05/13/2023", "horai": "22:33", "fechai": "05/13/2023", "lugar_hech": "VIA PUBLICA", "nom_lugar_": "VIA PUBLICA", "inspeccion": "HOSPITAL SAN JUAN DE DIOS", "direcion_d": "K39 CL 54", "barrio_res": "SIN BARRIO", "comuna_res": 0, "levantamie": "H.SAN JUAN DE DIOS", "estado_civ": "SIN ESTABLECER", "escolarida": "SIN ESTABLECER", "tipo_viole": "DELINCUENCIA", "categoria_": "HOMICIDIOS POR VENGANZA CON Y SIN ANTECEDENTES DE ATENTADOS Y AMENAZAS", "categori_1": null, "subcategor": "HOMICIDIO ATRIBUIDO A VENGANZA SIN CONTEXTO NI ATECEDENTES DE NINGUN TIPO", "tipo_agres": "SIN DATO", "jornada": "NOCHE", "fec_especi": null, "x": -76.522621877899994, "y": 3.4492346335900002, "feminicidi": "N", "procedimie": "N", "poblacion_": "N", "clasificac": "'00000000", "barrioplan": "Barrio Obrero", "estratopla": 2.0, "semanaexce": 19.0, "semanalund": 20.0, "semanacons": 1585.0, "semanaco_1": 1585.0, "finsemanac": 1585.0, "multiples": "DOBLE", "agresor_en": "NO APLICA", "genero": null, "orientacio": "POR ESTABLECER", "manera_mue": "VIOLENTA HOMICIDA", "nacionalid": null, "sector": null, "otra_nacio": null, "ancestro": "SIN INFORMACIÓN", "licor": 0, "drogas": 0, "bandas": 0, "pandillas": 0, "habitantes": 0, "barras": 0, "lgtbi": 0, "com_hecho": "Comuna 9", "comparendo": "N", "antecedent": "SIN DATOS", "anotacione": "SIN DATOS", "movil": "VENGANZAS SIN ANTECEDENTES", "sicariato": "N", "desc_habca": "NO APLICA", "desc_droga": "NO APLICA", "Id": 0, "area": 136572.15568900001 }, "geometry": { "type": "Point", "coordinates": [ -76.522621877899994, 3.44923463359 ] } },
{ "type": "Feature", "properties": { "no": 50627, "semana": 19, "identifica": 75807, "spoa": "23-04534", "spoa_compl": "760016000193202000000", "direccion": "KR 10 CL 21", "barrio": "BARRIO OBRERO", "comuna": "9", "idcombar": 910.0, "cuadrante": "E9", "tipo_de_ar": "ARMA DE FUEGO", "tipo_ident": "DOCUMENTO DE EXTRANJERIA", "ocupacion": "OFICIOS VARIOS", "sexo": "M", "edad": 25, "horah": "21:43", "fechao": 2023, "fechah": "05/13/2023", "diasem": "SABADO", "jornadarh8": "21:00-23:59", "est28xrang": 8, "fh8": "NOCHE", "est32xdian": 6.0, "diasanio": 133, "horam": "22:08", "fecham": "05/13/2023", "horai": "22:33", "fechai": "05/13/2023", "lugar_hech": "VIA PUBLICA", "nom_lugar_": "VIA PUBLICA", "inspeccion": "HOSPITAL SAN JUAN DE DIOS", "direcion_d": "K39 CL 54", "barrio_res": "SIN BARRIO", "comuna_res": 0, "levantamie": "H.SAN JUAN DE DIOS", "estado_civ": "SIN ESTABLECER", "escolarida": "SIN ESTABLECER", "tipo_viole": "DELINCUENCIA", "categoria_": "HOMICIDIOS POR VENGANZA CON Y SIN ANTECEDENTES DE ATENTADOS Y AMENAZAS", "categori_1": null, "subcategor": "HOMICIDIO ATRIBUIDO A VENGANZA SIN CONTEXTO NI ATECEDENTES DE NINGUN TIPO", "tipo_agres": "SIN DATO", "jornada": "NOCHE", "fec_especi": null, "x": -76.522621877899994, "y": 3.4492346335900002, "feminicidi": "N", "procedimie": "N", "poblacion_": "N", "clasificac": "'00000000", "barrioplan": "Barrio Obrero", "estratopla": 2.0, "semanaexce": 19.0, "semanalund": 20.0, "semanacons": 1585.0, "semanaco_1": 1585.0, "finsemanac": 1585.0, "multiples": "DOBLE", "agresor_en": "NO APLICA", "genero": null, "orientacio": "POR ESTABLECER", "manera_mue": "VIOLENTA HOMICIDA", "nacionalid": null, "sector": null, "otra_nacio": null, "ancestro": "SIN INFORMACIÓN", "licor": 0, "drogas": 0, "bandas": 0, "pandillas": 0, "habitantes": 0, "barras": 0, "lgtbi": 0, "com_hecho": "Comuna 9", "comparendo": "N", "antecedent": "SIN DATOS", "anotacione": "SIN DATOS", "movil": "VENGANZAS SIN ANTECEDENTES", "sicariato": "N", "desc_habca": "NO APLICA", "desc_droga": "NO APLICA", "Id": 0, "area": 136572.15568900001 }, "geometry": { "type": "Point", "coordinates": [ -76.522621877899994, 3.44923463359 ] } },
{ "type": "Feature", "properties": { "no": 50701, "semana": 24, "identifica": 75965, "spoa": "23-05582", "spoa_compl": "760016000193202000000", "direccion": "CL 21 KR 10", "barrio": "BARRIO OBRERO", "comuna": "9", "idcombar": 910.0, "cuadrante": "E9", "tipo_de_ar": "ARMA DE FUEGO", "tipo_ident": "CEDULA DE CIUDADANIA", "ocupacion": "OBRERO", "sexo": "M", "edad": 36, "horah": "19:23", "fechao": 2023, "fechah": "06/11/2023", "diasem": "DOMINGO", "jornadarh8": "18:00-20:59", "est28xrang": 7, "fh8": "NOCHE", "est32xdian": 5.0, "diasanio": 162, "horam": "19:48", "fecham": "06/11/2023", "horai": "20:13", "fechai": "06/11/2023", "lugar_hech": "EST.COMERCIAL", "nom_lugar_": "NEGOCIOS DE BARRIO", "inspeccion": "HOSPITAL PRIMITIVO IGLESIAS", "direcion_d": "K39 CL 54", "barrio_res": "SIN DATO", "comuna_res": 99, "levantamie": "H.PRIMITIVO IGLESIAS", "estado_civ": "SIN ESTABLECER", "escolarida": "SIN ESTABLECER", "tipo_viole": "DELINCUENCIA", "categoria_": "HOMICIDIOS POR VENGANZA CON Y SIN ANTECEDENTES DE ATENTADOS Y AMENAZAS", "categori_1": null, "subcategor": "HOMICIDIO ATRIBUIDO A VENGANZA SIN CONTEXTO NI ATECEDENTES DE NINGUN TIPO", "tipo_agres": "SIN DATO", "jornada": "NOCHE", "fec_especi": null, "x": -76.522534637999598, "y": 3.4493275990004091, "feminicidi": "N", "procedimie": "N", "poblacion_": "N", "clasificac": "'00000000", "barrioplan": "Barrio Obrero", "estratopla": 2.0, "semanaexce": 24.0, "semanalund": 24.0, "semanacons": 1590.0, "semanaco_1": 1589.0, "finsemanac": 1589.0, "multiples": "SIMPLE", "agresor_en": "NO APLICA", "genero": null, "orientacio": "POR ESTABLECER", "manera_mue": "VIOLENTA HOMICIDA", "nacionalid": null, "sector": null, "otra_nacio": null, "ancestro": "SIN INFORMACIÓN", "licor": 0, "drogas": 0, "bandas": 0, "pandillas": 0, "habitantes": 0, "barras": 0, "lgtbi": 0, "com_hecho": "Comuna 9", "comparendo": "N", "antecedent": "SIN DATOS", "anotacione": "SIN DATOS", "movil": "VENGANZAS SIN ANTECEDENTES", "sicariato": "N", "desc_habca": "NO APLICA", "desc_droga": "NO APLICA", "Id": 0, "area": 136572.15568900001 }, "geometry": { "type": "Point", "coordinates": [ -76.522534637999598, 3.449327599000409 ] } },
{ "type": "Feature", "properties": { "no": 52672, "semana": 25, "identifica": 78709, "spoa": "25-07897", "spoa_compl": "760016000193202000000", "direccion": "CL 25 KR 8", "barrio": "BARRIO OBRERO", "comuna": "9", "idcombar": 910.0, "cuadrante": "8.0", "tipo_de_ar": "CORTOPUNZANTE", "tipo_ident": "CEDULA DE CIUDADANIA", "ocupacion": "INDIGENTE", "sexo": "M", "edad": 35, "horah": "01:57", "fechao": 2025, "fechah": "06/19/2025", "diasem": "JUEVES", "jornadarh8": "00:00-02:59", "est28xrang": 1, "fh8": "MADRUGADA", "est32xdian": 7.0, "diasanio": 170, "horam": "02:30", "fecham": "06/19/2025", "horai": "03:00", "fechai": "06/19/2025", "lugar_hech": "VIA PUBLICA", "nom_lugar_": "VIA PUBLICA", "inspeccion": "L.HECHOS", "direcion_d": "K39 CL 54", "barrio_res": "SIN DATO", "comuna_res": 99, "levantamie": "L.HECHOS", "estado_civ": "SIN ESTABLECER", "escolarida": "SIN ESTABLECER", "tipo_viole": "DELINCUENCIA", "categoria_": "HOMICIDIOS POR VENGANZA CON Y SIN ANTECEDENTES DE ATENTADOS Y AMENAZAS", "categori_1": null, "subcategor": "HOMICIDIO ATRIBUIDO A VENGANZA SIN CONTEXTO NI ATECEDENTES DE NINGUN TIPO", "tipo_agres": "SIN DATO", "jornada": "MADRUGADA", "fec_especi": null, "x": -76.51935, "y": 3.45074, "feminicidi": "N", "procedimie": "N", "poblacion_": "N", "clasificac": "'00000110", "barrioplan": "Barrio Obrero", "estratopla": 2.0, "semanaexce": 25.0, "semanalund": 25.0, "semanacons": 1695.0, "semanaco_1": 1695.0, "finsemanac": null, "multiples": "SIMPLE", "agresor_en": "NO APLICA", "genero": null, "orientacio": "POR ESTABLECER", "manera_mue": "VIOLENTA HOMICIDA", "nacionalid": null, "sector": null, "otra_nacio": null, "ancestro": "SIN INFORMACIÓN", "licor": 0, "drogas": 0, "bandas": 0, "pandillas": 0, "habitantes": 0, "barras": 0, "lgtbi": 0, "com_hecho": "Comuna 9", "comparendo": "N", "antecedent": "NO", "anotacione": "SIN DATOS", "movil": "VENGANZAS SIN ANTECEDENTES", "sicariato": "N", "desc_habca": "NO APLICA", "desc_droga": "NO APLICA", "Id": 0, "area": 136572.15568900001 }, "geometry": { "type": "Point", "coordinates": [ -76.51935, 3.45074 ] } },
{ "type": "Feature", "properties": { "no": 52779, "semana": 31, "identifica": 78855, "spoa": "25-09819", "spoa_compl": "760016000193202000000", "direccion": "KR 10 CL 25", "barrio": "BARRIO OBRERO", "comuna": "9", "idcombar": 910.0, "cuadrante": "9.0", "tipo_de_ar": "ARMA DE FUEGO", "tipo_ident": "CEDULA DE CIUDADANIA", "ocupacion": "SIN OCUPACION", "sexo": "M", "edad": 47, "horah": "10:50", "fechao": 2025, "fechah": "07/29/2025", "diasem": "MARTES", "jornadarh8": "09:00-11:59", "est28xrang": 4, "fh8": "MAÑANA", "est32xdian": 2.0, "diasanio": 210, "horam": "11:15", "fecham": "07/29/2025", "horai": "11:40", "fechai": "07/29/2025", "lugar_hech": "VIA PUBLICA", "nom_lugar_": "VIA PUBLICA", "inspeccion": "L.HECHOS", "direcion_d": "K39 CL 54", "barrio_res": "SIN DATO", "comuna_res": 99, "levantamie": "L.HECHOS", "estado_civ": "SOLTERO", "escolarida": "SIN ESTABLECER", "tipo_viole": "DELINCUENCIA", "categoria_": "HOMICIDIOS ASOCIADOS A PROBLEMAS CON EL PATRIMONIO", "categori_1": null, "subcategor": "HOMICIDIO POR HURTARLE", "tipo_agres": "SIN DATO", "jornada": "MAÑANA", "fec_especi": null, "x": -76.518536304890006, "y": 3.4501732343300011, "feminicidi": "N", "procedimie": "N", "poblacion_": "N", "clasificac": "'00000000", "barrioplan": "Barrio Obrero", "estratopla": 2.0, "semanaexce": 31.0, "semanalund": 31.0, "semanacons": 1701.0, "semanaco_1": 1701.0, "finsemanac": null, "multiples": "SIMPLE", "agresor_en": "NO APLICA", "genero": null, "orientacio": "POR ESTABLECER", "manera_mue": "VIOLENTA HOMICIDA", "nacionalid": null, "sector": null, "otra_nacio": null, "ancestro": "SIN INFORMACIÓN", "licor": 0, "drogas": 0, "bandas": 0, "pandillas": 0, "habitantes": 0, "barras": 0, "lgtbi": 0, "com_hecho": "Comuna 9", "comparendo": "N", "antecedent": "NO", "anotacione": "SIN DATOS", "movil": "POR HURTARLE", "sicariato": "N", "desc_habca": "NO APLICA", "desc_droga": "NO APLICA", "Id": 0, "area": 136572.15568900001 }, "geometry": { "type": "Point", "coordinates": [ -76.518536304890006, 3.450173234330001 ] } },
{ "type": "Feature", "properties": { "no": 51873, "semana": 36, "identifica": 77656, "spoa": "24-30632", "spoa_compl": "760016000193202000000", "direccion": "KR 13 CL 22 A", "barrio": "BARRIO OBRERO", "comuna": "9", "idcombar": 910.0, "cuadrante": "E9", "tipo_de_ar": "ARMA DE FUEGO", "tipo_ident": "CEDULA DE CIUDADANIA", "ocupacion": "MECANICO", "sexo": "M", "edad": 35, "horah": "11:30", "fechao": 2024, "fechah": "09/01/2024", "diasem": "DOMINGO", "jornadarh8": "09:00-11:59", "est28xrang": 4, "fh8": "MAÑANA", "est32xdian": 2.0, "diasanio": 245, "horam": "11:55", "fecham": "09/01/2024", "horai": "12:20", "fechai": "09/01/2024", "lugar_hech": "ESTABLECIMIENTO", "nom_lugar_": "SITIO DE EXPENDIO DE LICOR", "inspeccion": "L.HECHOS", "direcion_d": "K39 CL 54", "barrio_res": "SIN DATO", "comuna_res": 99, "levantamie": "L.HECHOS", "estado_civ": "CASADO", "escolarida": "SECUNDARIA", "tipo_viole": "DELINCUENCIA", "categoria_": "HOMICIDIOS POR VENGANZA CON Y SIN ANTECEDENTES DE ATENTADOS Y AMENAZAS", "categori_1": null, "subcategor": "HOMICIDIO ATRIBUIDO A VENGANZA SIN CONTEXTO NI ATECEDENTES DE NINGUN TIPO", "tipo_agres": "SIN DATO", "jornada": "MAÑANA", "fec_especi": null, "x": -76.520339487000001, "y": 3.446358848, "feminicidi": "N", "procedimie": "N", "poblacion_": "N", "clasificac": "'00000001", "barrioplan": "Barrio Obrero", "estratopla": 2.0, "semanaexce": 36.0, "semanalund": 35.0, "semanacons": 1654.0, "semanaco_1": 1653.0, "finsemanac": 1653.0, "multiples": "SIMPLE", "agresor_en": "NO APLICA", "genero": null, "orientacio": "POR ESTABLECER", "manera_mue": "VIOLENTA HOMICIDA", "nacionalid": null, "sector": null, "otra_nacio": null, "ancestro": "SIN INFORMACIÓN", "licor": 0, "drogas": 0, "bandas": 0, "pandillas": 0, "habitantes": 0, "barras": 0, "lgtbi": 0, "com_hecho": "Comuna 9", "comparendo": "N", "antecedent": "SIN DATOS", "anotacione": "SIN DATOS", "movil": "VENGANZAS SIN ANTECEDENTES", "sicariato": "N", "desc_habca": "NO APLICA", "desc_droga": "NO APLICA", "Id": 0, "area": 136572.15568900001 }, "geometry": { "type": "Point", "coordinates": [ -76.520339487, 3.446358848 ] } },
{ "type": "Feature", "properties": { "no": 51900, "semana": 37, "identifica": 77694, "spoa": "24-31202", "spoa_compl": "760016000193202000000", "direccion": "KR 11D Cl 22", "barrio": "BARRIO OBRERO", "comuna": "9", "idcombar": 910.0, "cuadrante": "E9", "tipo_de_ar": "ARMA DE FUEGO", "tipo_ident": "CEDULA DE CIUDADANIA", "ocupacion": "VENDEDOR AMBULANTE", "sexo": "F", "edad": 51, "horah": "07:10", "fechao": 2024, "fechah": "09/13/2024", "diasem": "VIERNES", "jornadarh8": "06:00-08:59", "est28xrang": 3, "fh8": "MAÑANA", "est32xdian": 1.0, "diasanio": 257, "horam": "07:35", "fecham": "09/13/2024", "horai": "08:00", "fechai": "09/13/2024", "lugar_hech": "VIA PUBLICA", "nom_lugar_": "VIA PUBLICA", "inspeccion": "L.HECHOS", "direcion_d": "K39 CL 54", "barrio_res": "SIN DATO", "comuna_res": 99, "levantamie": "L.HECHOS", "estado_civ": "SOLTERO", "escolarida": "PRIMARIA", "tipo_viole": "DELINCUENCIA", "categoria_": "HOMICIDIOS POR VENGANZA CON Y SIN ANTECEDENTES DE ATENTADOS Y AMENAZAS", "categori_1": null, "subcategor": "HOMICIDIO ATRIBUIDO A VENGANZA CON ANTECEDENTES PREVIOS DE ATENTADOS, AMENAZAS O DISPUTAS", "tipo_agres": "SIN DATO", "jornada": "MAÑANA", "fec_especi": null, "x": -76.521309141800003, "y": 3.4469558559600002, "feminicidi": "N", "procedimie": "N", "poblacion_": "N", "clasificac": "'00000000", "barrioplan": "Barrio Obrero", "estratopla": 2.0, "semanaexce": 37.0, "semanalund": 37.0, "semanacons": 1655.0, "semanaco_1": 1655.0, "finsemanac": 1655.0, "multiples": "SIMPLE", "agresor_en": "NO APLICA", "genero": null, "orientacio": "POR ESTABLECER", "manera_mue": "VIOLENTA HOMICIDA", "nacionalid": null, "sector": null, "otra_nacio": null, "ancestro": "SIN INFORMACIÓN", "licor": 0, "drogas": 0, "bandas": 0, "pandillas": 0, "habitantes": 0, "barras": 0, "lgtbi": 0, "com_hecho": "Comuna 9", "comparendo": "N", "antecedent": "SIN DATOS", "anotacione": "SIN DATOS", "movil": "VENGANZAS CON ANTECEDENTES", "sicariato": "N", "desc_habca": "NO APLICA", "desc_droga": "NO APLICA", "Id": 0, "area": 136572.15568900001 }, "geometry": { "type": "Point", "coordinates": [ -76.521309141800003, 3.44695585596 ] } },
{ "type": "Feature", "properties": { "no": 52907, "semana": 38, "identifica": 79045, "spoa": "25-32036", "spoa_compl": "760016000193202000000", "direccion": "KR 12 CL 21", "barrio": "BARRIO OBRERO", "comuna": "9", "idcombar": 910.0, "cuadrante": "9.0", "tipo_de_ar": "ARMA DE FUEGO", "tipo_ident": "CEDULA DE CIUDADANIA", "ocupacion": "ALBAÑIL", "sexo": "M", "edad": 25, "horah": "17:40", "fechao": 2025, "fechah": "09/14/2025", "diasem": "DOMINGO", "jornadarh8": "15:00-17:59", "est28xrang": 6, "fh8": "TARDE", "est32xdian": 4.0, "diasanio": 257, "horam": "18:05", "fecham": "09/14/2025", "horai": "18:30", "fechai": "09/14/2025", "lugar_hech": "VIA PUBLICA", "nom_lugar_": "VIA PUBLICA", "inspeccion": "HOSPITAL UNIVERSITARIO DEL VALLE", "direcion_d": "K39 CL 54", "barrio_res": "SIN DATO", "comuna_res": 99, "levantamie": "H.U.V", "estado_civ": "CASADO", "escolarida": "PRIMARIA", "tipo_viole": "DELINCUENCIA", "categoria_": "HOMICIDIOS POR VENGANZA CON Y SIN ANTECEDENTES DE ATENTADOS Y AMENAZAS", "categori_1": null, "subcategor": "HOMICIDIO ATRIBUIDO A VENGANZA SIN CONTEXTO NI ATECEDENTES DE NINGUN TIPO", "tipo_agres": "SIN DATO", "jornada": "TARDE", "fec_especi": null, "x": -76.521691935929994, "y": 3.4458611162700001, "feminicidi": "N", "procedimie": "N", "poblacion_": "N", "clasificac": "'00000000", "barrioplan": "Barrio Obrero", "estratopla": 2.0, "semanaexce": 38.0, "semanalund": 37.0, "semanacons": 1708.0, "semanaco_1": 1707.0, "finsemanac": 1707.0, "multiples": "SIMPLE", "agresor_en": "NO APLICA", "genero": null, "orientacio": "POR ESTABLECER", "manera_mue": "VIOLENTA HOMICIDA", "nacionalid": null, "sector": null, "otra_nacio": null, "ancestro": "SIN INFORMACIÓN", "licor": 0, "drogas": 0, "bandas": 0, "pandillas": 0, "habitantes": 0, "barras": 0, "lgtbi": 0, "com_hecho": "Comuna 9", "comparendo": "S", "antecedent": "NO", "anotacione": "SIN DATOS", "movil": "VENGANZAS SIN ANTECEDENTES", "sicariato": "S", "desc_habca": "NO APLICA", "desc_droga": "NO APLICA", "Id": 0, "area": 136572.15568900001 }, "geometry": { "type": "Point", "coordinates": [ -76.521691935929994, 3.44586111627 ] } },
{ "type": "Feature", "properties": { "no": 52956, "semana": 40, "identifica": 79133, "spoa": "25-32694", "spoa_compl": "760016000193202000000", "direccion": "KR 10 CL 25", "barrio": "BARRIO OBRERO", "comuna": "9", "idcombar": 910.0, "cuadrante": "9.0", "tipo_de_ar": "ARMA DE FUEGO", "tipo_ident": "CEDULA DE CIUDADANIA", "ocupacion": "SIN OCUPACION", "sexo": "M", "edad": 23, "horah": "12:45", "fechao": 2025, "fechah": "09/28/2025", "diasem": "DOMINGO", "jornadarh8": "12:00-14:59", "est28xrang": 5, "fh8": "TARDE", "est32xdian": 3.0, "diasanio": 271, "horam": "13:10", "fecham": "09/28/2025", "horai": "13:35", "fechai": "09/28/2025", "lugar_hech": "VIA PUBLICA", "nom_lugar_": "VIA PUBLICA", "inspeccion": "L.HECHOS", "direcion_d": "K39 CL 54", "barrio_res": "SIN DATO", "comuna_res": 99, "levantamie": "L.HECHOS", "estado_civ": "UNION LIBRE", "escolarida": "SECUNDARIA", "tipo_viole": "OTRO", "categoria_": "HOMICIDIOS CON MOVIL POR ESTABLECER", "categori_1": null, "subcategor": "HOMICIDIO EN LOS QUE SE DESCONOCE EL CONTEXTO QUE MOTIVO LOS HECHOS", "tipo_agres": "SIN DATO", "jornada": "TARDE", "fec_especi": null, "x": -76.51854727573, "y": 3.4502016636900001, "feminicidi": "N", "procedimie": "N", "poblacion_": "N", "clasificac": "'00000000", "barrioplan": "Barrio Obrero", "estratopla": 2.0, "semanaexce": 40.0, "semanalund": 39.0, "semanacons": 1710.0, "semanaco_1": 1709.0, "finsemanac": 1709.0, "multiples": "SIMPLE", "agresor_en": "NO APLICA", "genero": null, "orientacio": "POR ESTABLECER", "manera_mue": "VIOLENTA HOMICIDA", "nacionalid": null, "sector": null, "otra_nacio": null, "ancestro": "SIN INFORMACIÓN", "licor": 0, "drogas": 0, "bandas": 0, "pandillas": 0, "habitantes": 0, "barras": 0, "lgtbi": 0, "com_hecho": "Comuna 9", "comparendo": "S", "antecedent": "NO", "anotacione": "SIN DATOS", "movil": "POR ESTABLECER", "sicariato": "S", "desc_habca": "NO APLICA", "desc_droga": "NO APLICA", "Id": 0, "area": 136572.15568900001 }, "geometry": { "type": "Point", "coordinates": [ -76.51854727573, 3.45020166369 ] } },
{ "type": "Feature", "properties": { "no": 51966, "semana": 40, "identifica": 77787, "spoa": "24-32335", "spoa_compl": "760016000193202000000", "direccion": "KR 12 CL 23", "barrio": "BARRIO OBRERO", "comuna": "9", "idcombar": 910.0, "cuadrante": "E9", "tipo_de_ar": "ARMA DE FUEGO", "tipo_ident": "CEDULA DE CIUDADANIA", "ocupacion": "ESCOLTA", "sexo": "M", "edad": 31, "horah": "14:15", "fechao": 2024, "fechah": "10/05/2024", "diasem": "SABADO", "jornadarh8": "12:00-14:59", "est28xrang": 5, "fh8": "TARDE", "est32xdian": 3.0, "diasanio": 279, "horam": "14:40", "fecham": "10/05/2024", "horai": "15:05", "fechai": "10/05/2024", "lugar_hech": "VIA PUBLICA", "nom_lugar_": "VIA PUBLICA", "inspeccion": "L.HECHOS", "direcion_d": "K39 CL 54", "barrio_res": "SIN DATO", "comuna_res": 99, "levantamie": "L.HECHOS", "estado_civ": "CASADO", "escolarida": "SECUNDARIA", "tipo_viole": "DELINCUENCIA", "categoria_": "TRÁFICO ESTUPEFACIENTES EN MENORES CANTIDADES (TEMC)", "categori_1": null, "subcategor": "HOMICIDIO ASOCIADO A DISPUTAS ENTRE REDES DE TRAFICO DE ESTUPEFACIENTES EN MENORES CANTIDADES (TEMC)", "tipo_agres": "SIN DATO", "jornada": "TARDE", "fec_especi": null, "x": -76.51948156280001, "y": 3.44650384975, "feminicidi": "N", "procedimie": "N", "poblacion_": "N", "clasificac": "'10000000", "barrioplan": "Barrio Obrero", "estratopla": 2.0, "semanaexce": 40.0, "semanalund": 40.0, "semanacons": 1658.0, "semanaco_1": 1658.0, "finsemanac": 1658.0, "multiples": "SIMPLE", "agresor_en": "NO APLICA", "genero": null, "orientacio": "POR ESTABLECER", "manera_mue": "VIOLENTA HOMICIDA", "nacionalid": null, "sector": null, "otra_nacio": null, "ancestro": "SIN INFORMACIÓN", "licor": 0, "drogas": 0, "bandas": 0, "pandillas": 0, "habitantes": 0, "barras": 0, "lgtbi": 0, "com_hecho": "Comuna 9", "comparendo": "S", "antecedent": "SIN DATOS", "anotacione": "SIN DATOS", "movil": "POR TESTIGO", "sicariato": "N", "desc_habca": "NO APLICA", "desc_droga": "VÍCTIMA EXPENDEDOR", "Id": 0, "area": 136572.15568900001 }, "geometry": { "type": "Point", "coordinates": [ -76.51948156280001, 3.44650384975 ] } },
{ "type": "Feature", "properties": { "no": 53053, "semana": 44, "identifica": 79263, "spoa": "25-34207", "spoa_compl": "760016000193202000000", "direccion": "KR 11 B 22 62", "barrio": "BARRIO OBRERO", "comuna": "9", "idcombar": 910.0, "cuadrante": "9.0", "tipo_de_ar": "ARMA DE FUEGO", "tipo_ident": "CEDULA DE CIUDADANIA", "ocupacion": "ESTUDIANTE", "sexo": "M", "edad": 25, "horah": "07:45", "fechao": 2025, "fechah": "10/31/2025", "diasem": "VIERNES", "jornadarh8": "06:00-08:59", "est28xrang": 3, "fh8": "MAÑANA", "est32xdian": 1.0, "diasanio": 304, "horam": "08:10", "fecham": "10/31/2025", "horai": "08:35", "fechai": "10/31/2025", "lugar_hech": "VIA PUBLICA", "nom_lugar_": "VIA PUBLICA", "inspeccion": "L.HECHOS", "direcion_d": "K39 CL 54", "barrio_res": "SIN DATO", "comuna_res": 99, "levantamie": "L.HECHOS", "estado_civ": "SOLTERO", "escolarida": "SECUNDARIA", "tipo_viole": "DELINCUENCIA", "categoria_": "HOMICIDIOS ASOCIADOS A PROBLEMAS CON EL PATRIMONIO", "categori_1": null, "subcategor": "HOMICIDIO POR EVITAR HURTO", "tipo_agres": "SIN DATO", "jornada": "MAÑANA", "fec_especi": null, "x": -76.521006120270002, "y": 3.4478897017899999, "feminicidi": "N", "procedimie": "N", "poblacion_": "N", "clasificac": "'00000000", "barrioplan": "Barrio Obrero", "estratopla": 2.0, "semanaexce": 44.0, "semanalund": 44.0, "semanacons": 1714.0, "semanaco_1": 1714.0, "finsemanac": 1714.0, "multiples": "SIMPLE", "agresor_en": "NO APLICA", "genero": null, "orientacio": "POR ESTABLECER", "manera_mue": "VIOLENTA HOMICIDA", "nacionalid": null, "sector": null, "otra_nacio": null, "ancestro": "SIN INFORMACIÓN", "licor": 0, "drogas": 0, "bandas": 0, "pandillas": 0, "habitantes": 0, "barras": 0, "lgtbi": 0, "com_hecho": "Comuna 9", "comparendo": "N", "antecedent": "NO", "anotacione": "SIN DATOS", "movil": "POR EVITAR HURTO", "sicariato": "N", "desc_habca": "NO APLICA", "desc_droga": "NO APLICA", "Id": 0, "area": 136572.15568900001 }, "geometry": { "type": "Point", "coordinates": [ -76.521006120270002, 3.44788970179 ] } },
{ "type": "Feature", "properties": { "no": 52036, "semana": 44, "identifica": 77874, "spoa": "24-33696", "spoa_compl": "760016000193202000000", "direccion": "CL 21 CR 10", "barrio": "BARRIO OBRERO", "comuna": "9", "idcombar": 910.0, "cuadrante": "E9", "tipo_de_ar": "ARMA DE FUEGO", "tipo_ident": "CEDULA DE CIUDADANIA", "ocupacion": "SIN OCUPACION", "sexo": "M", "edad": 30, "horah": "21:48", "fechao": 2024, "fechah": "11/02/2024", "diasem": "SABADO", "jornadarh8": "21:00-23:59", "est28xrang": 8, "fh8": "NOCHE", "est32xdian": 6.0, "diasanio": 307, "horam": "22:13", "fecham": "11/02/2024", "horai": "22:38", "fechai": "11/02/2024", "lugar_hech": "VIA PUBLICA", "nom_lugar_": "VIA PUBLICA", "inspeccion": "L.HECHOS", "direcion_d": "K39 CL 54", "barrio_res": "SIN DATO", "comuna_res": 99, "levantamie": "L.HECHOS", "estado_civ": "SIN ESTABLECER", "escolarida": "SIN ESTABLECER", "tipo_viole": "DELINCUENCIA", "categoria_": "HOMICIDIOS POR VENGANZA CON Y SIN ANTECEDENTES DE ATENTADOS Y AMENAZAS", "categori_1": null, "subcategor": "HOMICIDIO ATRIBUIDO A VENGANZA CON ANTECEDENTES PREVIOS DE ATENTADOS, AMENAZAS O DISPUTAS", "tipo_agres": "SIN DATO", "jornada": "NOCHE", "fec_especi": null, "x": -76.522534286820004, "y": 3.4493064609599999, "feminicidi": "N", "procedimie": "N", "poblacion_": "N", "clasificac": "'00000000", "barrioplan": "Barrio Obrero", "estratopla": 2.0, "semanaexce": 44.0, "semanalund": 44.0, "semanacons": 1662.0, "semanaco_1": 1662.0, "finsemanac": 1662.0, "multiples": "SIMPLE", "agresor_en": "NO APLICA", "genero": null, "orientacio": "POR ESTABLECER", "manera_mue": "VIOLENTA HOMICIDA", "nacionalid": null, "sector": null, "otra_nacio": null, "ancestro": "SIN INFORMACIÓN", "licor": 0, "drogas": 0, "bandas": 0, "pandillas": 0, "habitantes": 0, "barras": 0, "lgtbi": 0, "com_hecho": "Comuna 9", "comparendo": "N", "antecedent": "SIN DATOS", "anotacione": "SIN DATOS", "movil": "VENGANZAS CON ANTECEDENTES", "sicariato": "N", "desc_habca": "NO APLICA", "desc_droga": "NO APLICA", "Id": 0, "area": 136572.15568900001 }, "geometry": { "type": "Point", "coordinates": [ -76.522534286820004, 3.44930646096 ] } },
{ "type": "Feature", "properties": { "no": 52152, "semana": 51, "identifica": 78026, "spoa": "24-35814", "spoa_compl": "760016000193202000000", "direccion": "CL 10 CL 22", "barrio": "BARRIO OBRERO", "comuna": "9", "idcombar": 910.0, "cuadrante": "9.0", "tipo_de_ar": "CORTOPUNZANTE", "tipo_ident": "DOCUMENTO DE EXTRANJERIA", "ocupacion": "PRESTAMISTA", "sexo": "M", "edad": 29, "horah": "05:30", "fechao": 2024, "fechah": "12/15/2024", "diasem": "DOMINGO", "jornadarh8": "03:00-05:59", "est28xrang": 2, "fh8": "MADRUGADA", "est32xdian": 8.0, "diasanio": 350, "horam": "05:55", "fecham": "12/15/2024", "horai": "06:20", "fechai": "12/15/2024", "lugar_hech": "VIA PUBLICA", "nom_lugar_": "VIA PUBLICA", "inspeccion": "HOSPITAL SAN JUAN DE DIOS", "direcion_d": null, "barrio_res": "SIN DATO", "comuna_res": 99, "levantamie": "H.SAN JUAN DE DIOS", "estado_civ": "SOLTERO", "escolarida": "SECUNDARIA", "tipo_viole": "CONVIVENCIA", "categoria_": "HOMICIDIOS POR RIÑAS", "categori_1": null, "subcategor": "HOMICIDIO POR RIÑA CON PRESENCIA DE CONSUMO DE SUSTANCIAS PSICOACTIVOS EN LOS HECHOS", "tipo_agres": "SIN DATO", "jornada": "MADRUGADA", "fec_especi": null, "x": -76.52186043, "y": 3.449424847, "feminicidi": "N", "procedimie": "N", "poblacion_": "N", "clasificac": "'10000000", "barrioplan": "Barrio Obrero", "estratopla": 2.0, "semanaexce": 51.0, "semanalund": 50.0, "semanacons": 1669.0, "semanaco_1": 1668.0, "finsemanac": 1668.0, "multiples": "SIMPLE", "agresor_en": "NO APLICA", "genero": null, "orientacio": "POR ESTABLECER", "manera_mue": "VIOLENTA HOMICIDA", "nacionalid": null, "sector": null, "otra_nacio": null, "ancestro": "SIN INFORMACIÓN", "licor": 0, "drogas": 0, "bandas": 0, "pandillas": 0, "habitantes": 0, "barras": 0, "lgtbi": 0, "com_hecho": "Comuna 9", "comparendo": "S", "antecedent": "SIN DATOS", "anotacione": "SIN DATOS", "movil": "RIÑA", "sicariato": "N", "desc_habca": "NO APLICA", "desc_droga": "VÍCTIMA CONSUMIDOR", "Id": 0, "area": 136572.15568900001 }, "geometry": { "type": "Point", "coordinates": [ -76.52186043, 3.449424847 ] } },
{ "type": "Feature", "properties": { "no": 51233, "semana": 51, "identifica": 76755, "spoa": "23-32234", "spoa_compl": "760016000193202000000", "direccion": "CL 25 KR 8 A", "barrio": "BARRIO OBRERO", "comuna": "9", "idcombar": 910.0, "cuadrante": "E9", "tipo_de_ar": "ARMA DE FUEGO", "tipo_ident": "CEDULA DE CIUDADANIA", "ocupacion": "OFICIOS VARIOS", "sexo": "M", "edad": 27, "horah": "03:45", "fechao": 2023, "fechah": "12/21/2023", "diasem": "JUEVES", "jornadarh8": "03:00-05:59", "est28xrang": 2, "fh8": "MADRUGADA", "est32xdian": 8.0, "diasanio": 355, "horam": "04:10", "fecham": "12/21/2023", "horai": "04:35", "fechai": "12/21/2023", "lugar_hech": "VIA PUBLICA", "nom_lugar_": "VIA PUBLICA", "inspeccion": "L.HECHOS", "direcion_d": "K39 CL 54", "barrio_res": "BARRIO OBRERO", "comuna_res": 9, "levantamie": "L.HECHOS", "estado_civ": "SOLTERO", "escolarida": "SECUNDARIA", "tipo_viole": "OTRO", "categoria_": "HOMICIDIOS CON MOVIL POR ESTABLECER", "categori_1": null, "subcategor": "HOMICIDIO EN LOS QUE SE DESCONOCE EL CONTEXTO QUE MOTIVO LOS HECHOS", "tipo_agres": "SIN DATO", "jornada": "MADRUGADA", "fec_especi": null, "x": -76.518907253270001, "y": 3.4519623584799999, "feminicidi": "N", "procedimie": "N", "poblacion_": "N", "clasificac": "'00000000", "barrioplan": "Barrio Obrero", "estratopla": 2.0, "semanaexce": 51.0, "semanalund": 52.0, "semanacons": 1617.0, "semanaco_1": 1617.0, "finsemanac": null, "multiples": "SIMPLE", "agresor_en": "NO APLICA", "genero": null, "orientacio": "POR ESTABLECER", "manera_mue": "VIOLENTA HOMICIDA", "nacionalid": null, "sector": null, "otra_nacio": null, "ancestro": "SIN INFORMACIÓN", "licor": 0, "drogas": 0, "bandas": 0, "pandillas": 0, "habitantes": 0, "barras": 0, "lgtbi": 0, "com_hecho": "Comuna 9", "comparendo": "S", "antecedent": "SIN DATOS", "anotacione": "SIN DATOS", "movil": "POR ESTABLECER", "sicariato": "N", "desc_habca": "NO APLICA", "desc_droga": "NO APLICA", "Id": 0, "area": 136572.15568900001 }, "geometry": { "type": "Point", "coordinates": [ -76.518907253270001, 3.45196235848 ] } },
{ "type": "Feature", "properties": { "no": 52196, "semana": 52, "identifica": 78075, "spoa": "24-36378", "spoa_compl": "760016000193202000000", "direccion": "CL 21 KR 15", "barrio": "BARRIO OBRERO", "comuna": "9", "idcombar": 910.0, "cuadrante": "9.0", "tipo_de_ar": "ARMA DE FUEGO", "tipo_ident": "CEDULA DE CIUDADANIA", "ocupacion": "SIN OCUPACION", "sexo": "M", "edad": 46, "horah": "18:30", "fechao": 2024, "fechah": "12/28/2024", "diasem": "SABADO", "jornadarh8": "18:00-20:59", "est28xrang": 7, "fh8": "NOCHE", "est32xdian": 5.0, "diasanio": 363, "horam": "18:55", "fecham": "12/28/2024", "horai": "19:23", "fechai": "12/28/2024", "lugar_hech": "VIA PUBLICA", "nom_lugar_": "VIA PUBLICA", "inspeccion": "L.HECHOS", "direcion_d": "K39 CL 54", "barrio_res": "SIN DATO", "comuna_res": 99, "levantamie": "L.HECHOS", "estado_civ": "SIN ESTABLECER", "escolarida": "SIN ESTABLECER", "tipo_viole": "DELINCUENCIA", "categoria_": "HOMICIDIOS POR VENGANZA CON Y SIN ANTECEDENTES DE ATENTADOS Y AMENAZAS", "categori_1": null, "subcategor": "HOMICIDIO ATRIBUIDO A VENGANZA CON ANTECEDENTES PREVIOS DE ATENTADOS, AMENAZAS O DISPUTAS", "tipo_agres": "SIN DATO", "jornada": "NOCHE", "fec_especi": "FERIA DE CALI", "x": -76.521288112929994, "y": 3.4440271328000001, "feminicidi": "N", "procedimie": "N", "poblacion_": "N", "clasificac": "'00000001", "barrioplan": "Barrio Obrero", "estratopla": 2.0, "semanaexce": 52.0, "semanalund": 52.0, "semanacons": 1670.0, "semanaco_1": 1670.0, "finsemanac": 1670.0, "multiples": "SIMPLE", "agresor_en": "NO APLICA", "genero": null, "orientacio": "POR ESTABLECER", "manera_mue": "VIOLENTA HOMICIDA", "nacionalid": null, "sector": null, "otra_nacio": null, "ancestro": "SIN INFORMACIÓN", "licor": 0, "drogas": 0, "bandas": 0, "pandillas": 0, "habitantes": 0, "barras": 0, "lgtbi": 0, "com_hecho": "Comuna 9", "comparendo": "N", "antecedent": "SIN DATOS", "anotacione": "SIN DATOS", "movil": "VENGANZAS CON ANTECEDENTES", "sicariato": "N", "desc_habca": "NO APLICA", "desc_droga": "NO APLICA", "Id": 0, "area": 136572.15568900001 }, "geometry": { "type": "Point", "coordinates": [ -76.521288112929994, 3.4440271328 ] } }
]
}
