{
"type": "FeatureCollection",
"name": "poligono_ciudad_Paraiso",
"crs": { "type": "name", "properties": { "name": "urn:ogc:def:crs:ESRI::103599" } },
"features": [
{ "type": "Feature", "properties": { "Id": 0, "area": 136572.15568900001 }, "geometry": { "type": "MultiPolygon", "coordinates": [ [ [ [ 4608190.374374237842858, 1939363.593225574120879 ], [ 4608245.594384059309959, 1939203.894927561283112 ], [ 4608256.851115617901087, 1939134.335666256025434 ], [ 4607961.876067019999027, 1939156.059276772662997 ], [ 4607719.91128907725215, 1939148.974843265488744 ], [ 4607593.092077993787825, 1939122.422774916514754 ], [ 4607587.131112396717072, 1939133.324190875515342 ], [ 4607577.356897209770977, 1939242.667544955387712 ], [ 4607566.638265682384372, 1939339.899335851892829 ], [ 4607526.014702846296132, 1939617.955396426841617 ], [ 4607829.053196745924652, 1939701.807307787239552 ], [ 4608098.511291854083538, 1939725.546939661726356 ], [ 4608190.374374237842858, 1939363.593225574120879 ] ] ] ] } }
]
}
