{
"type": "FeatureCollection",
"name": "DATIC_violencia_intrafamiliar_2023_2026T1_poligono_Barrio_Obrero",
"crs": { "type": "name", "properties": { "name": "urn:ogc:def:crs:OGC:1.3:CRS84" } },
"features": [
{ "type": "Feature", "properties": { "dinamica": "VIOLENCIA INTRAFAMILIAR", "titulo": "DELITOS CONTRA LA FAMILIA", "capitulo": "DE LA VIOLENCIA INTRAFAMILIAR", "articulo": "VIOLENCIA INTRAFAMILIAR ART. 229 C.P.", "grado_deli": "AGRAVADO", "tipo_notic": "DENUNCIA", "caracteriz": null, "modalidad": null, "modo": null, "motivo": null, "pais": "COLOMBIA", "dane_dep": 76, "departamen": "VALLE DEL CAUCA", "dane_mpio": 76001, "municipio": "CALI", "cod_comuna": 9.0, "comuna": "Comuna 9", "cod_barrio": 910.0, "nom_barrio": "Barrio Obrero", "direccion": "76001 El Forastero, Calle 22A, Barrio Obrero, Comuna 9, Cali, Valle del Cauca, COL,BARRIO OBRERO", "sitio": "SIN INFORMACION", "x": -76.52075958252, "y": 3.4488010406499998, "anio": 2023, "mes": "enero", "dia": 14, "dia_semana": 7, "hora_hecho": "17:30", "barrio": "BARRIO OBRERO", "estrato": 2, "geom": "0101000020E610000000000020542153C00000000025970B40", "fecha_hech": "2023-01-14 00:00:00", "Id": 0, "area": 136572.15568900001 }, "geometry": { "type": "Point", "coordinates": [ -76.52075958252, 3.44880104065 ] } },
{ "type": "Feature", "properties": { "dinamica": "VIOLENCIA INTRAFAMILIAR", "titulo": "DELITOS CONTRA LA FAMILIA", "capitulo": "DE LA VIOLENCIA INTRAFAMILIAR", "articulo": "VIOLENCIA INTRAFAMILIAR ART. 229 C.P.", "grado_deli": "NINGUNO", "tipo_notic": "DENUNCIA", "caracteriz": null, "modalidad": null, "modo": null, "motivo": null, "pais": "COLOMBIA", "dane_dep": 76, "departamen": "VALLE DEL CAUCA", "dane_mpio": 76001, "municipio": "CALI", "cod_comuna": 9.0, "comuna": "Comuna 9", "cod_barrio": 910.0, "nom_barrio": "Barrio Obrero", "direccion": "76001 Calle 22A 11 1-99, Barrio Obrero, Comuna 9, Cali, Valle del Cauca, COL,BARRIO OBRERO", "sitio": "SIN INFORMACION", "x": -76.52059173584, "y": 3.4486620426200001, "anio": 2023, "mes": "enero", "dia": 21, "dia_semana": 7, "hora_hecho": "09:00", "barrio": "BARRIO OBRERO", "estrato": 2, "geom": "0101000020E610000000000060512153C000000020DC960B40", "fecha_hech": "2023-01-21 00:00:00", "Id": 0, "area": 136572.15568900001 }, "geometry": { "type": "Point", "coordinates": [ -76.52059173584, 3.44866204262 ] } },
{ "type": "Feature", "properties": { "dinamica": "VIOLENCIA INTRAFAMILIAR", "titulo": "DELITOS CONTRA LA FAMILIA", "capitulo": "DE LA VIOLENCIA INTRAFAMILIAR", "articulo": "VIOLENCIA INTRAFAMILIAR ART. 229 C.P.", "grado_deli": "NINGUNO", "tipo_notic": "DENUNCIA", "caracteriz": null, "modalidad": null, "modo": null, "motivo": null, "pais": "COLOMBIA", "dane_dep": 76, "departamen": "VALLE DEL CAUCA", "dane_mpio": 76001, "municipio": "CALI", "cod_comuna": 9.0, "comuna": "Comuna 9", "cod_barrio": 910.0, "nom_barrio": "Barrio Obrero", "direccion": "76001 El Forastero, Calle 22A, Barrio Obrero, Comuna 9, Cali, Valle del Cauca, COL,BARRIO OBRERO", "sitio": "SIN INFORMACION", "x": -76.520797729489999, "y": 3.4486939907099998, "anio": 2023, "mes": "enero", "dia": 21, "dia_semana": 7, "hora_hecho": "22:00", "barrio": "BARRIO OBRERO", "estrato": 2, "geom": "0101000020E6100000000000C0542153C0000000E0EC960B40", "fecha_hech": "2023-01-21 00:00:00", "Id": 0, "area": 136572.15568900001 }, "geometry": { "type": "Point", "coordinates": [ -76.520797729489999, 3.44869399071 ] } },
{ "type": "Feature", "properties": { "dinamica": "VIOLENCIA INTRAFAMILIAR", "titulo": "DELITOS CONTRA LA FAMILIA", "capitulo": "DE LA VIOLENCIA INTRAFAMILIAR", "articulo": "VIOLENCIA INTRAFAMILIAR ART. 229 C.P.", "grado_deli": "NINGUNO", "tipo_notic": "DE OFICIO (INFORMES)", "caracteriz": null, "modalidad": null, "modo": null, "motivo": null, "pais": "COLOMBIA", "dane_dep": 76, "departamen": "VALLE DEL CAUCA", "dane_mpio": 76001, "municipio": "CALI", "cod_comuna": 9.0, "comuna": "Comuna 9", "cod_barrio": 910.0, "nom_barrio": "Barrio Obrero", "direccion": "76001 Carrera 11D 22 1-99, Barrio Obrero, Comuna 9, Cali, Valle del Cauca, COL,BARRIO OBRERO", "sitio": "SIN INFORMACION", "x": -76.520790100100001, "y": 3.44733810425, "anio": 2023, "mes": "enero", "dia": 24, "dia_semana": 3, "hora_hecho": "15:14", "barrio": "BARRIO OBRERO", "estrato": 2, "geom": "0101000020E6100000000000A0542153C00000000026940B40", "fecha_hech": "2023-01-24 00:00:00", "Id": 0, "area": 136572.15568900001 }, "geometry": { "type": "Point", "coordinates": [ -76.520790100100001, 3.44733810425 ] } },
{ "type": "Feature", "properties": { "dinamica": "VIOLENCIA INTRAFAMILIAR", "titulo": "DELITOS CONTRA LA FAMILIA", "capitulo": "DE LA VIOLENCIA INTRAFAMILIAR", "articulo": "VIOLENCIA INTRAFAMILIAR ART. 229 C.P.", "grado_deli": "NINGUNO", "tipo_notic": "ACTOS URGENTES", "caracteriz": null, "modalidad": null, "modo": null, "motivo": null, "pais": "COLOMBIA", "dane_dep": 76, "departamen": "VALLE DEL CAUCA", "dane_mpio": 76001, "municipio": "CALI", "cod_comuna": 9.0, "comuna": "Comuna 9", "cod_barrio": 910.0, "nom_barrio": "Barrio Obrero", "direccion": "76001 CARRERA 11D 23 58, BARRIO OBRERO, COMUNA 9, CALI, VALLE DEL CAUCA", "sitio": "DOMICILIO", "x": -76.51921081543, "y": 3.4474511146500002, "anio": 2023, "mes": "febrero", "dia": 16, "dia_semana": 5, "hora_hecho": "10:00", "barrio": "BARRIO OBRERO", "estrato": 2, "geom": "0101000020E6100000000000C03A2153C00000004061940B40", "fecha_hech": "2023-02-16 00:00:00", "Id": 0, "area": 136572.15568900001 }, "geometry": { "type": "Point", "coordinates": [ -76.51921081543, 3.44745111465 ] } },
{ "type": "Feature", "properties": { "dinamica": "VIOLENCIA INTRAFAMILIAR", "titulo": "DELITOS CONTRA LA FAMILIA", "capitulo": "DE LA VIOLENCIA INTRAFAMILIAR", "articulo": "VIOLENCIA INTRAFAMILIAR ART. 229 C.P.", "grado_deli": "AGRAVADO", "tipo_notic": "DENUNCIA", "caracteriz": null, "modalidad": null, "modo": null, "motivo": null, "pais": "COLOMBIA", "dane_dep": 76, "departamen": "VALLE DEL CAUCA", "dane_mpio": 76001, "municipio": "CALI", "cod_comuna": 9.0, "comuna": "Comuna 9", "cod_barrio": 910.0, "nom_barrio": "Barrio Obrero", "direccion": "76001 Calle 24 11B 24, Barrio Obrero, Comuna 9, Cali, Valle del Cauca, COL,BARRIO OBRERO", "sitio": "SIN INFORMACION", "x": -76.519104003910002, "y": 3.4482491016400001, "anio": 2023, "mes": "febrero", "dia": 22, "dia_semana": 4, "hora_hecho": "18:40", "barrio": "BARRIO OBRERO", "estrato": 2, "geom": "0101000020E610000000000000392153C0000000A003960B40", "fecha_hech": "2023-02-22 00:00:00", "Id": 0, "area": 136572.15568900001 }, "geometry": { "type": "Point", "coordinates": [ -76.519104003910002, 3.44824910164 ] } },
{ "type": "Feature", "properties": { "dinamica": "VIOLENCIA INTRAFAMILIAR", "titulo": "DELITOS CONTRA LA FAMILIA", "capitulo": "DE LA VIOLENCIA INTRAFAMILIAR", "articulo": "VIOLENCIA INTRAFAMILIAR ART. 229 C.P.", "grado_deli": "AGRAVADO", "tipo_notic": "ACTOS URGENTES", "caracteriz": null, "modalidad": null, "modo": null, "motivo": null, "pais": "COLOMBIA", "dane_dep": 76, "departamen": "VALLE DEL CAUCA", "dane_mpio": 76001, "municipio": "CALI", "cod_comuna": 9.0, "comuna": "Comuna 9", "cod_barrio": 910.0, "nom_barrio": "Barrio Obrero", "direccion": "76001 CARRERA 11 22A 30, BARRIO OBRERO, COMUNA 9, CALI, VALLE DEL CAUCA", "sitio": "ESTABLECIMIENTO EDUCATIVO", "x": -76.52060699463, "y": 3.4488880634300001, "anio": 2023, "mes": "febrero", "dia": 24, "dia_semana": 6, "hora_hecho": "12:00", "barrio": "BARRIO OBRERO", "estrato": 2, "geom": "0101000020E6100000000000A0512153C0000000A052970B40", "fecha_hech": "2023-02-24 00:00:00", "Id": 0, "area": 136572.15568900001 }, "geometry": { "type": "Point", "coordinates": [ -76.52060699463, 3.44888806343 ] } },
{ "type": "Feature", "properties": { "dinamica": "VIOLENCIA INTRAFAMILIAR", "titulo": "DELITOS CONTRA LA FAMILIA", "capitulo": "DE LA VIOLENCIA INTRAFAMILIAR", "articulo": "VIOLENCIA INTRAFAMILIAR ART. 229 C.P.", "grado_deli": "AGRAVADO", "tipo_notic": "ACTOS URGENTES", "caracteriz": null, "modalidad": null, "modo": null, "motivo": null, "pais": "COLOMBIA", "dane_dep": 76, "departamen": "VALLE DEL CAUCA", "dane_mpio": 76001, "municipio": "CALI", "cod_comuna": 9.0, "comuna": "Comuna 9", "cod_barrio": 910.0, "nom_barrio": "Barrio Obrero", "direccion": "76001 CARRERA 11 22 20", "sitio": "CAMPO ABIERTO", "x": -76.52149963379, "y": 3.4487190246599999, "anio": 2023, "mes": "marzo", "dia": 7, "dia_semana": 3, "hora_hecho": "08:00", "barrio": "BARRIO OBRERO", "estrato": 2, "geom": "0101000020E610000000000040602153C000000000FA960B40", "fecha_hech": "2023-03-07 00:00:00", "Id": 0, "area": 136572.15568900001 }, "geometry": { "type": "Point", "coordinates": [ -76.52149963379, 3.44871902466 ] } },
{ "type": "Feature", "properties": { "dinamica": "VIOLENCIA INTRAFAMILIAR", "titulo": "DELITOS CONTRA LA FAMILIA", "capitulo": "DE LA VIOLENCIA INTRAFAMILIAR", "articulo": "VIOLENCIA INTRAFAMILIAR ART. 229 C.P.", "grado_deli": "AGRAVADO", "tipo_notic": "DENUNCIA", "caracteriz": null, "modalidad": null, "modo": null, "motivo": null, "pais": "COLOMBIA", "dane_dep": 76, "departamen": "VALLE DEL CAUCA", "dane_mpio": 76001, "municipio": "CALI", "cod_comuna": 9.0, "comuna": "Comuna 9", "cod_barrio": 910.0, "nom_barrio": "Barrio Obrero", "direccion": "76001 La Fortaleza #2, Calle 21 8A, Sucre, Comuna 9, Cali, Valle del Cauca, COL,SUCRE", "sitio": "SIN INFORMACION", "x": -76.522972106929998, "y": 3.45053005219, "anio": 2023, "mes": "marzo", "dia": 14, "dia_semana": 3, "hora_hecho": "11:02", "barrio": "SUCRE", "estrato": 2, "geom": "0101000020E610000000000060782153C000000080AF9A0B40", "fecha_hech": "2023-03-14 00:00:00", "Id": 0, "area": 136572.15568900001 }, "geometry": { "type": "Point", "coordinates": [ -76.522972106929998, 3.45053005219 ] } },
{ "type": "Feature", "properties": { "dinamica": "VIOLENCIA INTRAFAMILIAR", "titulo": "DELITOS CONTRA LA FAMILIA", "capitulo": "DE LA VIOLENCIA INTRAFAMILIAR", "articulo": "VIOLENCIA INTRAFAMILIAR ART. 229 C.P.", "grado_deli": "AGRAVADO", "tipo_notic": "DENUNCIA", "caracteriz": null, "modalidad": null, "modo": null, "motivo": null, "pais": "COLOMBIA", "dane_dep": 76, "departamen": "VALLE DEL CAUCA", "dane_mpio": 76001, "municipio": "CALI", "cod_comuna": 9.0, "comuna": "Comuna 9", "cod_barrio": 910.0, "nom_barrio": "Barrio Obrero", "direccion": "76001", "sitio": "SIN INFORMACION", "x": -76.52141571045, "y": 3.4509460926100002, "anio": 2023, "mes": "marzo", "dia": 26, "dia_semana": 1, "hora_hecho": "11:00", "barrio": null, "estrato": 2, "geom": "0101000020E6100000000000E05E2153C0000000A0899B0B40", "fecha_hech": "2023-03-26 00:00:00", "Id": 0, "area": 136572.15568900001 }, "geometry": { "type": "Point", "coordinates": [ -76.52141571045, 3.45094609261 ] } },
{ "type": "Feature", "properties": { "dinamica": "VIOLENCIA INTRAFAMILIAR", "titulo": "DELITOS CONTRA LA FAMILIA", "capitulo": "DE LA VIOLENCIA INTRAFAMILIAR", "articulo": "VIOLENCIA INTRAFAMILIAR ART. 229 C.P.", "grado_deli": "AGRAVADO", "tipo_notic": "DENUNCIA", "caracteriz": null, "modalidad": null, "modo": null, "motivo": null, "pais": "COLOMBIA", "dane_dep": 76, "departamen": "VALLE DEL CAUCA", "dane_mpio": 76001, "municipio": "CALI", "cod_comuna": 9.0, "comuna": "Comuna 9", "cod_barrio": 910.0, "nom_barrio": "Barrio Obrero", "direccion": "76001 Obrero, Cali, El Valle, COL,BARRIO OBRERO", "sitio": "SIN INFORMACION", "x": -76.520362853999998, "y": 3.44901990891, "anio": 2023, "mes": "marzo", "dia": 29, "dia_semana": 4, "hora_hecho": "10:30", "barrio": "BARRIO OBRERO", "estrato": 2, "geom": "0101000020E6100000000000A04D2153C0000000C097970B40", "fecha_hech": "2023-03-29 00:00:00", "Id": 0, "area": 136572.15568900001 }, "geometry": { "type": "Point", "coordinates": [ -76.520362854, 3.44901990891 ] } },
{ "type": "Feature", "properties": { "dinamica": "VIOLENCIA INTRAFAMILIAR", "titulo": "DELITOS CONTRA LA FAMILIA", "capitulo": "DE LA VIOLENCIA INTRAFAMILIAR", "articulo": "VIOLENCIA INTRAFAMILIAR ART. 229 C.P.", "grado_deli": "NINGUNO", "tipo_notic": "ACTOS URGENTES", "caracteriz": null, "modalidad": null, "modo": null, "motivo": null, "pais": "COLOMBIA", "dane_dep": 76, "departamen": "VALLE DEL CAUCA", "dane_mpio": 76001, "municipio": "CALI", "cod_comuna": 9.0, "comuna": "Comuna 9", "cod_barrio": 910.0, "nom_barrio": "Barrio Obrero", "direccion": "76001 CARRERA 11B 22A 46, BARRIO OBRERO, COMUNA 9, CALI, VALLE DEL CAUCA", "sitio": "CAMPO ABIERTO", "x": -76.520309448239999, "y": 3.4480619430499999, "anio": 2023, "mes": "mayo", "dia": 17, "dia_semana": 4, "hora_hecho": "21:20", "barrio": "BARRIO OBRERO", "estrato": 2, "geom": "0101000020E6100000000000C04C2153C000000080A1950B40", "fecha_hech": "2023-05-17 00:00:00", "Id": 0, "area": 136572.15568900001 }, "geometry": { "type": "Point", "coordinates": [ -76.520309448239999, 3.44806194305 ] } },
{ "type": "Feature", "properties": { "dinamica": "VIOLENCIA INTRAFAMILIAR", "titulo": "DELITOS CONTRA LA FAMILIA", "capitulo": "DE LA VIOLENCIA INTRAFAMILIAR", "articulo": "VIOLENCIA INTRAFAMILIAR ART. 229 C.P.", "grado_deli": "NINGUNO", "tipo_notic": "DENUNCIA", "caracteriz": null, "modalidad": null, "modo": null, "motivo": null, "pais": "COLOMBIA", "dane_dep": 76, "departamen": "VALLE DEL CAUCA", "dane_mpio": 76001, "municipio": "CALI", "cod_comuna": 9.0, "comuna": "Comuna 9", "cod_barrio": 910.0, "nom_barrio": "Barrio Obrero", "direccion": "76001 Calle 23 12 14, Barrio Obrero, Comuna 9, Cali, Valle del Cauca, COL,BARRIO OBRERO", "sitio": "SIN INFORMACION", "x": -76.51954650879, "y": 3.4463999271399999, "anio": 2023, "mes": "mayo", "dia": 26, "dia_semana": 6, "hora_hecho": "18:00", "barrio": "BARRIO OBRERO", "estrato": 2, "geom": "0101000020E610000000000040402153C0000000203A920B40", "fecha_hech": "2023-05-26 00:00:00", "Id": 0, "area": 136572.15568900001 }, "geometry": { "type": "Point", "coordinates": [ -76.51954650879, 3.44639992714 ] } },
{ "type": "Feature", "properties": { "dinamica": "VIOLENCIA INTRAFAMILIAR", "titulo": "DELITOS CONTRA LA FAMILIA", "capitulo": "DE LA VIOLENCIA INTRAFAMILIAR", "articulo": "VIOLENCIA INTRAFAMILIAR ART. 229 C.P.", "grado_deli": "NINGUNO", "tipo_notic": "DENUNCIA", "caracteriz": null, "modalidad": null, "modo": null, "motivo": null, "pais": "COLOMBIA", "dane_dep": 76, "departamen": "VALLE DEL CAUCA", "dane_mpio": 76001, "municipio": "CALI", "cod_comuna": 9.0, "comuna": "Comuna 9", "cod_barrio": 910.0, "nom_barrio": "Barrio Obrero", "direccion": "76001 Carrera 11B 22A 1-99, Barrio Obrero, Comuna 9, Cali, Valle del Cauca, COL,BARRIO OBRERO", "sitio": "SIN INFORMACION", "x": -76.520248413090002, "y": 3.4483320713, "anio": 2023, "mes": "junio", "dia": 6, "dia_semana": 3, "hora_hecho": "13:38", "barrio": "BARRIO OBRERO", "estrato": 2, "geom": "0101000020E6100000000000C04B2153C0000000202F960B40", "fecha_hech": "2023-06-06 00:00:00", "Id": 0, "area": 136572.15568900001 }, "geometry": { "type": "Point", "coordinates": [ -76.520248413090002, 3.4483320713 ] } },
{ "type": "Feature", "properties": { "dinamica": "VIOLENCIA INTRAFAMILIAR", "titulo": "DELITOS CONTRA LA FAMILIA", "capitulo": "DE LA VIOLENCIA INTRAFAMILIAR", "articulo": "VIOLENCIA INTRAFAMILIAR ART. 229 C.P.", "grado_deli": "AGRAVADO", "tipo_notic": "ACTOS URGENTES", "caracteriz": null, "modalidad": null, "modo": null, "motivo": null, "pais": "COLOMBIA", "dane_dep": 76, "departamen": "VALLE DEL CAUCA", "dane_mpio": 76001, "municipio": "CALI", "cod_comuna": 9.0, "comuna": "Comuna 9", "cod_barrio": 910.0, "nom_barrio": "Barrio Obrero", "direccion": "76001 CARRERA 11B CON CALLE 22A, BARRIO OBRERO, COMUNA 9, CALI, VALLE DEL CAUCA", "sitio": "LUGAR DE TRABAJO", "x": -76.520713806149999, "y": 3.4480199813799999, "anio": 2023, "mes": "junio", "dia": 28, "dia_semana": 4, "hora_hecho": "16:00", "barrio": "BARRIO OBRERO", "estrato": 2, "geom": "0101000020E610000000000060532153C0000000808B950B40", "fecha_hech": "2023-06-28 00:00:00", "Id": 0, "area": 136572.15568900001 }, "geometry": { "type": "Point", "coordinates": [ -76.520713806149999, 3.44801998138 ] } },
{ "type": "Feature", "properties": { "dinamica": "VIOLENCIA INTRAFAMILIAR", "titulo": "DELITOS CONTRA LA FAMILIA", "capitulo": "DE LA VIOLENCIA INTRAFAMILIAR", "articulo": "VIOLENCIA INTRAFAMILIAR ART. 229 C.P.", "grado_deli": "AGRAVADO", "tipo_notic": "DENUNCIA", "caracteriz": null, "modalidad": null, "modo": null, "motivo": null, "pais": "COLOMBIA", "dane_dep": 76, "departamen": "VALLE DEL CAUCA", "dane_mpio": 76001, "municipio": "CALI", "cod_comuna": 9.0, "comuna": "Comuna 9", "cod_barrio": 910.0, "nom_barrio": "Barrio Obrero", "direccion": "76001 Calle 24, Barrio Obrero, Comuna 9, Cali, Valle del Cauca, COL,BARRIO OBRERO", "sitio": "SIN INFORMACION", "x": -76.519477844240001, "y": 3.44882392883, "anio": 2023, "mes": "julio", "dia": 20, "dia_semana": 5, "hora_hecho": "09:28", "barrio": "BARRIO OBRERO", "estrato": 2, "geom": "0101000020E6100000000000203F2153C00000000031970B40", "fecha_hech": "2023-07-20 00:00:00", "Id": 0, "area": 136572.15568900001 }, "geometry": { "type": "Point", "coordinates": [ -76.519477844240001, 3.44882392883 ] } },
{ "type": "Feature", "properties": { "dinamica": "VIOLENCIA INTRAFAMILIAR", "titulo": "DELITOS CONTRA LA FAMILIA", "capitulo": "DE LA VIOLENCIA INTRAFAMILIAR", "articulo": "VIOLENCIA INTRAFAMILIAR ART. 229 C.P.", "grado_deli": "NINGUNO", "tipo_notic": "DENUNCIA", "caracteriz": null, "modalidad": null, "modo": null, "motivo": null, "pais": "COLOMBIA", "dane_dep": 76, "departamen": "VALLE DEL CAUCA", "dane_mpio": 76001, "municipio": "CALI", "cod_comuna": 9.0, "comuna": "Comuna 9", "cod_barrio": 910.0, "nom_barrio": "Barrio Obrero", "direccion": "76001 Calle 23 8 60, Barrio Obrero, Comuna 9, Cali, Valle del Cauca, COL,BARRIO OBRERO", "sitio": "SIN INFORMACION", "x": -76.520721435550001, "y": 3.4518098831200001, "anio": 2023, "mes": "agosto", "dia": 10, "dia_semana": 5, "hora_hecho": "08:14", "barrio": "BARRIO OBRERO", "estrato": 2, "geom": "0101000020E610000000000080532153C0000000804E9D0B40", "fecha_hech": "2023-08-10 00:00:00", "Id": 0, "area": 136572.15568900001 }, "geometry": { "type": "Point", "coordinates": [ -76.520721435550001, 3.45180988312 ] } },
{ "type": "Feature", "properties": { "dinamica": "VIOLENCIA INTRAFAMILIAR", "titulo": "DELITOS CONTRA LA FAMILIA", "capitulo": "DE LA VIOLENCIA INTRAFAMILIAR", "articulo": "VIOLENCIA INTRAFAMILIAR ART. 229 C.P.", "grado_deli": "AGRAVADO", "tipo_notic": "ACTOS URGENTES", "caracteriz": null, "modalidad": null, "modo": null, "motivo": null, "pais": "COLOMBIA", "dane_dep": 76, "departamen": "VALLE DEL CAUCA", "dane_mpio": 76001, "municipio": "CALI", "cod_comuna": 9.0, "comuna": "Comuna 9", "cod_barrio": 910.0, "nom_barrio": "Barrio Obrero", "direccion": "76001 CARRERA 9 22 69, BARRIO OBRERO, COMUNA 9, CALI, VALLE DEL CAUCA", "sitio": "DOMICILIO", "x": -76.521560668950002, "y": 3.45056295395, "anio": 2023, "mes": "agosto", "dia": 26, "dia_semana": 7, "hora_hecho": "02:40", "barrio": "BARRIO OBRERO", "estrato": 2, "geom": "0101000020E610000000000040612153C0000000C0C09A0B40", "fecha_hech": "2023-08-26 00:00:00", "Id": 0, "area": 136572.15568900001 }, "geometry": { "type": "Point", "coordinates": [ -76.521560668950002, 3.45056295395 ] } },
{ "type": "Feature", "properties": { "dinamica": "VIOLENCIA INTRAFAMILIAR", "titulo": "DELITOS CONTRA LA FAMILIA", "capitulo": "DE LA VIOLENCIA INTRAFAMILIAR", "articulo": "VIOLENCIA INTRAFAMILIAR ART. 229 C.P.", "grado_deli": "NINGUNO", "tipo_notic": "DE OFICIO (INFORMES)", "caracteriz": null, "modalidad": null, "modo": null, "motivo": null, "pais": "COLOMBIA", "dane_dep": 76, "departamen": "VALLE DEL CAUCA", "dane_mpio": 76001, "municipio": "CALI", "cod_comuna": 9.0, "comuna": "Comuna 9", "cod_barrio": 910.0, "nom_barrio": "Barrio Obrero", "direccion": "76001", "sitio": "SIN INFORMACION", "x": -76.520790100100001, "y": 3.4493939876600002, "anio": 2023, "mes": "septiembre", "dia": 17, "dia_semana": 1, "hora_hecho": "21:19", "barrio": null, "estrato": 2, "geom": "0101000020E6100000000000A0542153C0000000E05B980B40", "fecha_hech": "2023-09-17 00:00:00", "Id": 0, "area": 136572.15568900001 }, "geometry": { "type": "Point", "coordinates": [ -76.520790100100001, 3.44939398766 ] } },
{ "type": "Feature", "properties": { "dinamica": "VIOLENCIA INTRAFAMILIAR", "titulo": "DELITOS CONTRA LA FAMILIA", "capitulo": "DE LA VIOLENCIA INTRAFAMILIAR", "articulo": "VIOLENCIA INTRAFAMILIAR ART. 229 C.P.", "grado_deli": "AGRAVADO", "tipo_notic": "ACTOS URGENTES", "caracteriz": null, "modalidad": null, "modo": null, "motivo": null, "pais": "COLOMBIA", "dane_dep": 76, "departamen": "VALLE DEL CAUCA", "dane_mpio": 76001, "municipio": "CALI", "cod_comuna": 9.0, "comuna": "Comuna 9", "cod_barrio": 910.0, "nom_barrio": "Barrio Obrero", "direccion": "76001 CALLE 21 8A 21, BARRIO OBRERO, COMUNA 9, CALI, VALLE DEL CAUCA", "sitio": "DOMICILIO", "x": -76.522979736330001, "y": 3.4509029388400001, "anio": 2023, "mes": "octubre", "dia": 15, "dia_semana": 1, "hora_hecho": "08:00", "barrio": "BARRIO OBRERO", "estrato": 2, "geom": "0101000020E610000000000080782153C000000000739B0B40", "fecha_hech": "2023-10-15 00:00:00", "Id": 0, "area": 136572.15568900001 }, "geometry": { "type": "Point", "coordinates": [ -76.522979736330001, 3.45090293884 ] } },
{ "type": "Feature", "properties": { "dinamica": "VIOLENCIA INTRAFAMILIAR", "titulo": "DELITOS CONTRA LA FAMILIA", "capitulo": "DE LA VIOLENCIA INTRAFAMILIAR", "articulo": "VIOLENCIA INTRAFAMILIAR ART. 229 C.P.", "grado_deli": "NINGUNO", "tipo_notic": "ACTOS URGENTES", "caracteriz": null, "modalidad": null, "modo": null, "motivo": null, "pais": "COLOMBIA", "dane_dep": 76, "departamen": "VALLE DEL CAUCA", "dane_mpio": 76001, "municipio": "CALI", "cod_comuna": 9.0, "comuna": "Comuna 9", "cod_barrio": 910.0, "nom_barrio": "Barrio Obrero", "direccion": "76001 CALLE 22A 11, BARRIO OBRERO, COMUNA 9, CALI, VALLE DEL CAUCA", "sitio": "EDIFICIO", "x": -76.520797729489999, "y": 3.4484550952899999, "anio": 2023, "mes": "octubre", "dia": 27, "dia_semana": 6, "hora_hecho": "02:30", "barrio": "BARRIO OBRERO", "estrato": 2, "geom": "0101000020E6100000000000C0542153C0000000A06F960B40", "fecha_hech": "2023-10-27 00:00:00", "Id": 0, "area": 136572.15568900001 }, "geometry": { "type": "Point", "coordinates": [ -76.520797729489999, 3.44845509529 ] } },
{ "type": "Feature", "properties": { "dinamica": "VIOLENCIA INTRAFAMILIAR", "titulo": "DELITOS CONTRA LA FAMILIA", "capitulo": "DE LA VIOLENCIA INTRAFAMILIAR", "articulo": "VIOLENCIA INTRAFAMILIAR ART. 229 C.P.", "grado_deli": "NINGUNO", "tipo_notic": "ACTOS URGENTES", "caracteriz": null, "modalidad": null, "modo": null, "motivo": null, "pais": "COLOMBIA", "dane_dep": 76, "departamen": "VALLE DEL CAUCA", "dane_mpio": 76001, "municipio": "CALI", "cod_comuna": 9.0, "comuna": "Comuna 9", "cod_barrio": 910.0, "nom_barrio": "Barrio Obrero", "direccion": "76001 CALLE 21 8A 45, BARRIO OBRERO, COMUNA 9, CALI, VALLE DEL CAUCA", "sitio": "DOMICILIO", "x": -76.52294921875, "y": 3.4507529735600002, "anio": 2023, "mes": "noviembre", "dia": 29, "dia_semana": 4, "hora_hecho": "20:00", "barrio": "BARRIO OBRERO", "estrato": 2, "geom": "0101000020E610000000000000782153C000000060249B0B40", "fecha_hech": "2023-11-29 00:00:00", "Id": 0, "area": 136572.15568900001 }, "geometry": { "type": "Point", "coordinates": [ -76.52294921875, 3.45075297356 ] } },
{ "type": "Feature", "properties": { "dinamica": "VIOLENCIA INTRAFAMILIAR", "titulo": "DELITOS CONTRA LA FAMILIA", "capitulo": "DE LA VIOLENCIA INTRAFAMILIAR", "articulo": "VIOLENCIA INTRAFAMILIAR ART. 229 C.P.", "grado_deli": "NINGUNO", "tipo_notic": "ACTOS URGENTES", "caracteriz": null, "modalidad": null, "modo": null, "motivo": null, "pais": "COLOMBIA", "dane_dep": 76, "departamen": "VALLE DEL CAUCA", "dane_mpio": 76001, "municipio": "CALI", "cod_comuna": 9.0, "comuna": "Comuna 9", "cod_barrio": 910.0, "nom_barrio": "Barrio Obrero", "direccion": "76001 TALLER ALTOA", "sitio": "DOMICILIO", "x": -76.51986694336, "y": 3.4498798847200001, "anio": 2024, "mes": "enero", "dia": 13, "dia_semana": 7, "hora_hecho": "23:00", "barrio": "BARRIO OBRERO", "estrato": 2, "geom": "0101000020E610000000000080452153C0000000A05A990B40", "fecha_hech": "2024-01-13 00:00:00", "Id": 0, "area": 136572.15568900001 }, "geometry": { "type": "Point", "coordinates": [ -76.51986694336, 3.44987988472 ] } },
{ "type": "Feature", "properties": { "dinamica": "VIOLENCIA INTRAFAMILIAR", "titulo": "DELITOS CONTRA LA FAMILIA", "capitulo": "DE LA VIOLENCIA INTRAFAMILIAR", "articulo": "VIOLENCIA INTRAFAMILIAR ART. 229 C.P.", "grado_deli": "NINGUNO", "tipo_notic": "ACTOS URGENTES", "caracteriz": null, "modalidad": null, "modo": null, "motivo": null, "pais": "COLOMBIA", "dane_dep": 76, "departamen": "VALLE DEL CAUCA", "dane_mpio": 76001, "municipio": "CALI", "cod_comuna": 9.0, "comuna": "Comuna 9", "cod_barrio": 910.0, "nom_barrio": "Barrio Obrero", "direccion": "76001 CALLE 24 11B 99", "sitio": "IGLESIA O PARROQUIA", "x": -76.518836975100001, "y": 3.4476690292400001, "anio": 2024, "mes": "enero", "dia": 27, "dia_semana": 7, "hora_hecho": "19:50", "barrio": "BARRIO OBRERO", "estrato": 2, "geom": "0101000020E6100000000000A0342153C000000080D3940B40", "fecha_hech": "2024-01-27 00:00:00", "Id": 0, "area": 136572.15568900001 }, "geometry": { "type": "Point", "coordinates": [ -76.518836975100001, 3.44766902924 ] } },
{ "type": "Feature", "properties": { "dinamica": "VIOLENCIA INTRAFAMILIAR", "titulo": "DELITOS CONTRA LA FAMILIA", "capitulo": "DE LA VIOLENCIA INTRAFAMILIAR", "articulo": "VIOLENCIA INTRAFAMILIAR ART. 229 C.P.", "grado_deli": "NINGUNO", "tipo_notic": "DENUNCIA", "caracteriz": null, "modalidad": null, "modo": null, "motivo": null, "pais": "COLOMBIA", "dane_dep": 76, "departamen": "VALLE DEL CAUCA", "dane_mpio": 76001, "municipio": "CALI", "cod_comuna": 9.0, "comuna": "Comuna 9", "cod_barrio": 910.0, "nom_barrio": "Barrio Obrero", "direccion": "76001 Calle 22A 13A 43, Barrio Obrero, Comuna 9, Cali, Valle del Cauca, COL,BARRIO OBRERO", "sitio": "SIN INFORMACION", "x": -76.520065307620001, "y": 3.4451999664300001, "anio": 2024, "mes": "febrero", "dia": 25, "dia_semana": 1, "hora_hecho": "12:00", "barrio": "BARRIO OBRERO", "estrato": 2, "geom": "0101000020E6100000000000C0482153C000000000C58F0B40", "fecha_hech": "2024-02-25 00:00:00", "Id": 0, "area": 136572.15568900001 }, "geometry": { "type": "Point", "coordinates": [ -76.520065307620001, 3.44519996643 ] } },
{ "type": "Feature", "properties": { "dinamica": "VIOLENCIA INTRAFAMILIAR", "titulo": "DELITOS CONTRA LA FAMILIA", "capitulo": "DE LA VIOLENCIA INTRAFAMILIAR", "articulo": "VIOLENCIA INTRAFAMILIAR ART. 229 C.P.", "grado_deli": "AGRAVADO", "tipo_notic": "DENUNCIA", "caracteriz": null, "modalidad": null, "modo": null, "motivo": null, "pais": "COLOMBIA", "dane_dep": 76, "departamen": "VALLE DEL CAUCA", "dane_mpio": 76001, "municipio": "CALI", "cod_comuna": 9.0, "comuna": "Comuna 9", "cod_barrio": 910.0, "nom_barrio": "Barrio Obrero", "direccion": "76001 Carrera 8 24 26, Barrio Obrero, Comuna 9, Cali, Valle del Cauca, COL,BARRIO OBRERO", "sitio": "SIN INFORMACION", "x": -76.519668579099999, "y": 3.4526500701899998, "anio": 2024, "mes": "marzo", "dia": 10, "dia_semana": 1, "hora_hecho": "00:58", "barrio": "BARRIO OBRERO", "estrato": 2, "geom": "0101000020E610000000000040422153C000000000079F0B40", "fecha_hech": "2024-03-10 00:00:00", "Id": 0, "area": 136572.15568900001 }, "geometry": { "type": "Point", "coordinates": [ -76.519668579099999, 3.45265007019 ] } },
{ "type": "Feature", "properties": { "dinamica": "VIOLENCIA INTRAFAMILIAR", "titulo": "DELITOS CONTRA LA FAMILIA", "capitulo": "DE LA VIOLENCIA INTRAFAMILIAR", "articulo": "VIOLENCIA INTRAFAMILIAR ART. 229 C.P.", "grado_deli": "NINGUNO", "tipo_notic": "ACTOS URGENTES", "caracteriz": null, "modalidad": null, "modo": null, "motivo": null, "pais": "COLOMBIA", "dane_dep": 76, "departamen": "VALLE DEL CAUCA", "dane_mpio": 76001, "municipio": "CALI", "cod_comuna": 9.0, "comuna": "Comuna 9", "cod_barrio": 910.0, "nom_barrio": "Barrio Obrero", "direccion": "76001 CARRERA 11 22, BARRIO OBRERO, COMUNA 9, CALI, VALLE DEL CAUCA", "sitio": "DOMICILIO", "x": -76.521301269529999, "y": 3.44880008698, "anio": 2024, "mes": "marzo", "dia": 18, "dia_semana": 2, "hora_hecho": "03:00", "barrio": "BARRIO OBRERO", "estrato": 2, "geom": "0101000020E6100000000000005D2153C00000008024970B40", "fecha_hech": "2024-03-18 00:00:00", "Id": 0, "area": 136572.15568900001 }, "geometry": { "type": "Point", "coordinates": [ -76.521301269529999, 3.44880008698 ] } },
{ "type": "Feature", "properties": { "dinamica": "VIOLENCIA INTRAFAMILIAR", "titulo": "DELITOS CONTRA LA FAMILIA", "capitulo": "DE LA VIOLENCIA INTRAFAMILIAR", "articulo": "VIOLENCIA INTRAFAMILIAR ART. 229 C.P.", "grado_deli": "NINGUNO", "tipo_notic": "ACTOS URGENTES", "caracteriz": null, "modalidad": null, "modo": null, "motivo": null, "pais": "COLOMBIA", "dane_dep": 76, "departamen": "VALLE DEL CAUCA", "dane_mpio": 76001, "municipio": "CALI", "cod_comuna": 9.0, "comuna": "Comuna 9", "cod_barrio": 910.0, "nom_barrio": "Barrio Obrero", "direccion": "76001 CARRERA 11B 22 46, BARRIO OBRERO, CALI, VALLE DEL CAUCA", "sitio": "DOMICILIO", "x": -76.52101135254, "y": 3.4477970600100001, "anio": 2024, "mes": "abril", "dia": 7, "dia_semana": 1, "hora_hecho": "17:00", "barrio": "BARRIO OBRERO", "estrato": 2, "geom": "0101000020E610000000000040582153C0000000A016950B40", "fecha_hech": "2024-04-07 00:00:00", "Id": 0, "area": 136572.15568900001 }, "geometry": { "type": "Point", "coordinates": [ -76.52101135254, 3.44779706001 ] } },
{ "type": "Feature", "properties": { "dinamica": "VIOLENCIA INTRAFAMILIAR", "titulo": "DELITOS CONTRA LA FAMILIA", "capitulo": "DE LA VIOLENCIA INTRAFAMILIAR", "articulo": "VIOLENCIA INTRAFAMILIAR ART. 229 C.P.", "grado_deli": "NINGUNO", "tipo_notic": "ACTOS URGENTES", "caracteriz": null, "modalidad": null, "modo": null, "motivo": null, "pais": "COLOMBIA", "dane_dep": 76, "departamen": "VALLE DEL CAUCA", "dane_mpio": 76001, "municipio": "CALI", "cod_comuna": 9.0, "comuna": "Comuna 9", "cod_barrio": 910.0, "nom_barrio": "Barrio Obrero", "direccion": "76001 CALLE 21 8A 45, SANTIAGO DE CALI, CALI, VALLE DEL CAUCA", "sitio": "DOMICILIO", "x": -76.522789001459998, "y": 3.4507279396100001, "anio": 2024, "mes": "mayo", "dia": 19, "dia_semana": 1, "hora_hecho": "07:00", "barrio": "BARRIO OBRERO", "estrato": 2, "geom": "0101000020E610000000000060752153C000000040179B0B40", "fecha_hech": "2024-05-19 00:00:00", "Id": 0, "area": 136572.15568900001 }, "geometry": { "type": "Point", "coordinates": [ -76.522789001459998, 3.45072793961 ] } },
{ "type": "Feature", "properties": { "dinamica": "VIOLENCIA INTRAFAMILIAR", "titulo": "DELITOS CONTRA LA FAMILIA", "capitulo": "DE LA VIOLENCIA INTRAFAMILIAR", "articulo": "VIOLENCIA INTRAFAMILIAR ART. 229 C.P.", "grado_deli": "NINGUNO", "tipo_notic": "DENUNCIA", "caracteriz": null, "modalidad": null, "modo": null, "motivo": null, "pais": "COLOMBIA", "dane_dep": 76, "departamen": "VALLE DEL CAUCA", "dane_mpio": 76001, "municipio": "CALI", "cod_comuna": 9.0, "comuna": "Comuna 9", "cod_barrio": 910.0, "nom_barrio": "Barrio Obrero", "direccion": "76001 Calle 23 11d 33, Santiago De Cali, Cali, Valle Del Cauca, COL,BARRIO OBRERO", "sitio": "SIN INFORMACION", "x": -76.519454956049998, "y": 3.4470388889299999, "anio": 2024, "mes": "mayo", "dia": 25, "dia_semana": 7, "hora_hecho": "18:00", "barrio": "BARRIO OBRERO", "estrato": 2, "geom": "0101000020E6100000000000C03E2153C00000002089930B40", "fecha_hech": "2024-05-25 00:00:00", "Id": 0, "area": 136572.15568900001 }, "geometry": { "type": "Point", "coordinates": [ -76.519454956049998, 3.44703888893 ] } },
{ "type": "Feature", "properties": { "dinamica": "VIOLENCIA INTRAFAMILIAR", "titulo": "DELITOS CONTRA LA FAMILIA", "capitulo": "DE LA VIOLENCIA INTRAFAMILIAR", "articulo": "VIOLENCIA INTRAFAMILIAR ART. 229 C.P.", "grado_deli": "AGRAVADO", "tipo_notic": "DENUNCIA", "caracteriz": null, "modalidad": null, "modo": null, "motivo": null, "pais": "COLOMBIA", "dane_dep": 76, "departamen": "VALLE DEL CAUCA", "dane_mpio": 76001, "municipio": "CALI", "cod_comuna": 9.0, "comuna": "Comuna 9", "cod_barrio": 910.0, "nom_barrio": "Barrio Obrero", "direccion": "76001 Calle 24 11 15, Santiago De Cali, Cali, Valle Del Cauca, COL,BARRIO OBRERO", "sitio": "SIN INFORMACION", "x": -76.518989562990001, "y": 3.4491040706599998, "anio": 2024, "mes": "junio", "dia": 3, "dia_semana": 2, "hora_hecho": "17:21", "barrio": "BARRIO OBRERO", "estrato": 2, "geom": "0101000020E610000000000020372153C0000000E0C3970B40", "fecha_hech": "2024-06-03 00:00:00", "Id": 0, "area": 136572.15568900001 }, "geometry": { "type": "Point", "coordinates": [ -76.518989562990001, 3.44910407066 ] } },
{ "type": "Feature", "properties": { "dinamica": "VIOLENCIA INTRAFAMILIAR", "titulo": "DELITOS CONTRA LA FAMILIA", "capitulo": "DE LA VIOLENCIA INTRAFAMILIAR", "articulo": "VIOLENCIA INTRAFAMILIAR ART. 229 C.P.", "grado_deli": "NINGUNO", "tipo_notic": "ACTOS URGENTES", "caracteriz": null, "modalidad": null, "modo": null, "motivo": null, "pais": "COLOMBIA", "dane_dep": 76, "departamen": "VALLE DEL CAUCA", "dane_mpio": 76001, "municipio": "CALI", "cod_comuna": 9.0, "comuna": "Comuna 9", "cod_barrio": 910.0, "nom_barrio": "Barrio Obrero", "direccion": "76001 CARRERA 8A 21 17, SANTIAGO DE CALI, CALI, VALLE DEL CAUCA", "sitio": "DOMICILIO", "x": -76.522888183589998, "y": 3.45128798485, "anio": 2024, "mes": "junio", "dia": 18, "dia_semana": 3, "hora_hecho": "22:30", "barrio": "BARRIO OBRERO", "estrato": 2, "geom": "0101000020E610000000000000772153C0000000E03C9C0B40", "fecha_hech": "2024-06-18 00:00:00", "Id": 0, "area": 136572.15568900001 }, "geometry": { "type": "Point", "coordinates": [ -76.522888183589998, 3.45128798485 ] } },
{ "type": "Feature", "properties": { "dinamica": "VIOLENCIA INTRAFAMILIAR", "titulo": "DELITOS CONTRA LA FAMILIA", "capitulo": "DE LA VIOLENCIA INTRAFAMILIAR", "articulo": "VIOLENCIA INTRAFAMILIAR ART. 229 C.P.", "grado_deli": "NINGUNO", "tipo_notic": "DENUNCIA", "caracteriz": null, "modalidad": null, "modo": null, "motivo": null, "pais": "COLOMBIA", "dane_dep": 76, "departamen": "VALLE DEL CAUCA", "dane_mpio": 76001, "municipio": "CALI", "cod_comuna": 9.0, "comuna": "Comuna 9", "cod_barrio": 910.0, "nom_barrio": "Barrio Obrero", "direccion": "76001 Carrera 15 22, Barrio Obrero, Cali, Valle del Cauca, COL,BARRIO OBRERO", "sitio": "SIN INFORMACION", "x": -76.520217895510001, "y": 3.44439196587, "anio": 2024, "mes": "junio", "dia": 20, "dia_semana": 5, "hora_hecho": "21:34", "barrio": "BARRIO OBRERO", "estrato": 2, "geom": "0101000020E6100000000000404B2153C0000000601D8E0B40", "fecha_hech": "2024-06-20 00:00:00", "Id": 0, "area": 136572.15568900001 }, "geometry": { "type": "Point", "coordinates": [ -76.520217895510001, 3.44439196587 ] } },
{ "type": "Feature", "properties": { "dinamica": "VIOLENCIA INTRAFAMILIAR", "titulo": "DELITOS CONTRA LA FAMILIA", "capitulo": "DE LA VIOLENCIA INTRAFAMILIAR", "articulo": "VIOLENCIA INTRAFAMILIAR ART. 229 C.P.", "grado_deli": "AGRAVADO", "tipo_notic": "ACTOS URGENTES", "caracteriz": null, "modalidad": null, "modo": null, "motivo": null, "pais": "COLOMBIA", "dane_dep": 76, "departamen": "VALLE DEL CAUCA", "dane_mpio": 76001, "municipio": "CALI", "cod_comuna": 9.0, "comuna": "Comuna 9", "cod_barrio": 910.0, "nom_barrio": "Barrio Obrero", "direccion": "76001 PIKAMO'S", "sitio": "DOMICILIO", "x": -76.520599365229998, "y": 3.45232796669, "anio": 2024, "mes": "julio", "dia": 14, "dia_semana": 1, "hora_hecho": "10:00", "barrio": "BARRIO OBRERO", "estrato": 2, "geom": "0101000020E610000000000080512153C0000000205E9E0B40", "fecha_hech": "2024-07-14 00:00:00", "Id": 0, "area": 136572.15568900001 }, "geometry": { "type": "Point", "coordinates": [ -76.520599365229998, 3.45232796669 ] } },
{ "type": "Feature", "properties": { "dinamica": "VIOLENCIA INTRAFAMILIAR", "titulo": "DELITOS CONTRA LA FAMILIA", "capitulo": "DE LA VIOLENCIA INTRAFAMILIAR", "articulo": "VIOLENCIA INTRAFAMILIAR ART. 229 C.P.", "grado_deli": "AGRAVADO", "tipo_notic": "ACTOS URGENTES", "caracteriz": null, "modalidad": null, "modo": null, "motivo": null, "pais": "COLOMBIA", "dane_dep": 76, "departamen": "VALLE DEL CAUCA", "dane_mpio": 76001, "municipio": "CALI", "cod_comuna": 9.0, "comuna": "Comuna 9", "cod_barrio": 910.0, "nom_barrio": "Barrio Obrero", "direccion": "76001 CARRERA 13A, BARRIO OBRERO, CALI, VALLE DEL CAUCA", "sitio": "DOMICILIO", "x": -76.52123260498, "y": 3.4452340602899998, "anio": 2024, "mes": "septiembre", "dia": 12, "dia_semana": 5, "hora_hecho": "16:23", "barrio": "BARRIO OBRERO", "estrato": 2, "geom": "0101000020E6100000000000E05B2153C0000000E0D68F0B40", "fecha_hech": "2024-09-12 00:00:00", "Id": 0, "area": 136572.15568900001 }, "geometry": { "type": "Point", "coordinates": [ -76.52123260498, 3.44523406029 ] } },
{ "type": "Feature", "properties": { "dinamica": "VIOLENCIA INTRAFAMILIAR", "titulo": "DELITOS CONTRA LA FAMILIA", "capitulo": "DE LA VIOLENCIA INTRAFAMILIAR", "articulo": "VIOLENCIA INTRAFAMILIAR ART. 229 C.P.", "grado_deli": "NINGUNO", "tipo_notic": "DENUNCIA", "caracteriz": null, "modalidad": null, "modo": null, "motivo": null, "pais": "COLOMBIA", "dane_dep": 76, "departamen": "VALLE DEL CAUCA", "dane_mpio": 76001, "municipio": "CALI", "cod_comuna": 9.0, "comuna": "Comuna 9", "cod_barrio": 910.0, "nom_barrio": "Barrio Obrero", "direccion": "76001 Carrera 15 54, Barrio Obrero, Cali, Valle del Cauca, COL,BARRIO OBRERO", "sitio": "SIN INFORMACION", "x": -76.519050598139998, "y": 3.4447588920599999, "anio": 2024, "mes": "septiembre", "dia": 19, "dia_semana": 5, "hora_hecho": "22:00", "barrio": "BARRIO OBRERO", "estrato": 2, "geom": "0101000020E610000000000020382153C0000000C0DD8E0B40", "fecha_hech": "2024-09-19 00:00:00", "Id": 0, "area": 136572.15568900001 }, "geometry": { "type": "Point", "coordinates": [ -76.519050598139998, 3.44475889206 ] } },
{ "type": "Feature", "properties": { "dinamica": "VIOLENCIA INTRAFAMILIAR", "titulo": "DELITOS CONTRA LA FAMILIA", "capitulo": "DE LA VIOLENCIA INTRAFAMILIAR", "articulo": "VIOLENCIA INTRAFAMILIAR ART. 229 C.P.", "grado_deli": "AGRAVADO", "tipo_notic": "DENUNCIA", "caracteriz": null, "modalidad": null, "modo": null, "motivo": null, "pais": "COLOMBIA", "dane_dep": 76, "departamen": "VALLE DEL CAUCA", "dane_mpio": 76001, "municipio": "CALI", "cod_comuna": 9.0, "comuna": "Comuna 9", "cod_barrio": 910.0, "nom_barrio": "Barrio Obrero", "direccion": "76001 Carrera 8a 22 69, Santiago De Cali, Cali, Valle Del Cauca, COL,BARRIO OBRERO", "sitio": "SIN INFORMACION", "x": -76.52165222168, "y": 3.4515669345900002, "anio": 2024, "mes": "octubre", "dia": 6, "dia_semana": 1, "hora_hecho": "13:53", "barrio": "BARRIO OBRERO", "estrato": 2, "geom": "0101000020E6100000000000C0622153C000000020CF9C0B40", "fecha_hech": "2024-10-06 00:00:00", "Id": 0, "area": 136572.15568900001 }, "geometry": { "type": "Point", "coordinates": [ -76.52165222168, 3.45156693459 ] } },
{ "type": "Feature", "properties": { "dinamica": "VIOLENCIA INTRAFAMILIAR", "titulo": "DELITOS CONTRA LA FAMILIA", "capitulo": "DE LA VIOLENCIA INTRAFAMILIAR", "articulo": "VIOLENCIA INTRAFAMILIAR ART. 229 C.P.", "grado_deli": "AGRAVADO", "tipo_notic": "DENUNCIA", "caracteriz": null, "modalidad": null, "modo": null, "motivo": null, "pais": "COLOMBIA", "dane_dep": 76, "departamen": "VALLE DEL CAUCA", "dane_mpio": 76001, "municipio": "CALI", "cod_comuna": 9.0, "comuna": "Comuna 9", "cod_barrio": 910.0, "nom_barrio": "Barrio Obrero", "direccion": "76001 Obrero, Cali, El Valle, COL,BARRIO OBRERO", "sitio": "SIN INFORMACION", "x": -76.520362853999998, "y": 3.44901990891, "anio": 2024, "mes": "octubre", "dia": 10, "dia_semana": 5, "hora_hecho": "08:00", "barrio": "BARRIO OBRERO", "estrato": 2, "geom": "0101000020E6100000000000A04D2153C0000000C097970B40", "fecha_hech": "2024-10-10 00:00:00", "Id": 0, "area": 136572.15568900001 }, "geometry": { "type": "Point", "coordinates": [ -76.520362854, 3.44901990891 ] } },
{ "type": "Feature", "properties": { "dinamica": "VIOLENCIA INTRAFAMILIAR", "titulo": "DELITOS CONTRA LA FAMILIA", "capitulo": "DE LA VIOLENCIA INTRAFAMILIAR", "articulo": "VIOLENCIA INTRAFAMILIAR ART. 229 C.P.", "grado_deli": "AGRAVADO", "tipo_notic": "DENUNCIA", "caracteriz": null, "modalidad": null, "modo": null, "motivo": null, "pais": "COLOMBIA", "dane_dep": 76, "departamen": "VALLE DEL CAUCA", "dane_mpio": 76001, "municipio": "CALI", "cod_comuna": 9.0, "comuna": "Comuna 9", "cod_barrio": 910.0, "nom_barrio": "Barrio Obrero", "direccion": "76001 Carrera 10, Barrio Obrero, Cali, Valle del Cauca, COL,BARRIO OBRERO", "sitio": "SIN INFORMACION", "x": -76.5200881958, "y": 3.44994091988, "anio": 2024, "mes": "octubre", "dia": 11, "dia_semana": 6, "hora_hecho": "15:11", "barrio": "BARRIO OBRERO", "estrato": 2, "geom": "0101000020E610000000000020492153C0000000A07A990B40", "fecha_hech": "2024-10-11 00:00:00", "Id": 0, "area": 136572.15568900001 }, "geometry": { "type": "Point", "coordinates": [ -76.5200881958, 3.44994091988 ] } },
{ "type": "Feature", "properties": { "dinamica": "VIOLENCIA INTRAFAMILIAR", "titulo": "DELITOS CONTRA LA FAMILIA", "capitulo": "DE LA VIOLENCIA INTRAFAMILIAR", "articulo": "VIOLENCIA INTRAFAMILIAR ART. 229 C.P.", "grado_deli": "NINGUNO", "tipo_notic": "DENUNCIA", "caracteriz": null, "modalidad": null, "modo": null, "motivo": null, "pais": "COLOMBIA", "dane_dep": 76, "departamen": "VALLE DEL CAUCA", "dane_mpio": 76001, "municipio": "CALI", "cod_comuna": 9.0, "comuna": "Comuna 9", "cod_barrio": 910.0, "nom_barrio": "Barrio Obrero", "direccion": "76001 Carrera 14 21 18, Santiago De Cali, Cali, Valle Del Cauca, COL,BARRIO OBRERO", "sitio": "SIN INFORMACION", "x": -76.521224975590002, "y": 3.4445741176600002, "anio": 2024, "mes": "octubre", "dia": 21, "dia_semana": 2, "hora_hecho": "10:30", "barrio": "BARRIO OBRERO", "estrato": 2, "geom": "0101000020E6100000000000C05B2153C0000000E07C8E0B40", "fecha_hech": "2024-10-21 00:00:00", "Id": 0, "area": 136572.15568900001 }, "geometry": { "type": "Point", "coordinates": [ -76.521224975590002, 3.44457411766 ] } },
{ "type": "Feature", "properties": { "dinamica": "VIOLENCIA INTRAFAMILIAR", "titulo": "DELITOS CONTRA LA FAMILIA", "capitulo": "DE LA VIOLENCIA INTRAFAMILIAR", "articulo": "VIOLENCIA INTRAFAMILIAR ART. 229 C.P.", "grado_deli": "AGRAVADO", "tipo_notic": "DENUNCIA", "caracteriz": null, "modalidad": null, "modo": null, "motivo": null, "pais": "COLOMBIA", "dane_dep": 76, "departamen": "VALLE DEL CAUCA", "dane_mpio": 76001, "municipio": "CALI", "cod_comuna": 9.0, "comuna": "Comuna 9", "cod_barrio": 910.0, "nom_barrio": "Barrio Obrero", "direccion": "76001 Calle 22 11b 73, Santiago De Cali, Cali, Valle Del Cauca, COL,BARRIO OBRERO", "sitio": "SIN INFORMACION", "x": -76.52091217041, "y": 3.4475259780899998, "anio": 2024, "mes": "noviembre", "dia": 12, "dia_semana": 3, "hora_hecho": "15:00", "barrio": "BARRIO OBRERO", "estrato": 2, "geom": "0101000020E6100000000000A0562153C00000008088940B40", "fecha_hech": "2024-11-12 00:00:00", "Id": 0, "area": 136572.15568900001 }, "geometry": { "type": "Point", "coordinates": [ -76.52091217041, 3.44752597809 ] } },
{ "type": "Feature", "properties": { "dinamica": "VIOLENCIA INTRAFAMILIAR", "titulo": "DELITOS CONTRA LA FAMILIA", "capitulo": "DE LA VIOLENCIA INTRAFAMILIAR", "articulo": "VIOLENCIA INTRAFAMILIAR ART. 229 C.P.", "grado_deli": "NINGUNO", "tipo_notic": "ACTOS URGENTES", "caracteriz": null, "modalidad": null, "modo": null, "motivo": null, "pais": "COLOMBIA", "dane_dep": 76, "departamen": "VALLE DEL CAUCA", "dane_mpio": 76001, "municipio": "CALI", "cod_comuna": 9.0, "comuna": "Comuna 9", "cod_barrio": 910.0, "nom_barrio": "Barrio Obrero", "direccion": "76001 CALLE 23 11 44", "sitio": "VIA PUBLICA", "x": -76.520233154300001, "y": 3.4486300945299999, "anio": 2024, "mes": "noviembre", "dia": 27, "dia_semana": 4, "hora_hecho": "14:30", "barrio": "BARRIO OBRERO", "estrato": 2, "geom": "0101000020E6100000000000804B2153C000000060CB960B40", "fecha_hech": "2024-11-27 00:00:00", "Id": 0, "area": 136572.15568900001 }, "geometry": { "type": "Point", "coordinates": [ -76.520233154300001, 3.44863009453 ] } },
{ "type": "Feature", "properties": { "dinamica": "VIOLENCIA INTRAFAMILIAR", "titulo": "DELITOS CONTRA LA FAMILIA", "capitulo": "DE LA VIOLENCIA INTRAFAMILIAR", "articulo": "VIOLENCIA INTRAFAMILIAR ART. 229 C.P.", "grado_deli": "NINGUNO", "tipo_notic": "DENUNCIA", "caracteriz": null, "modalidad": null, "modo": null, "motivo": null, "pais": "COLOMBIA", "dane_dep": 76, "departamen": "VALLE DEL CAUCA", "dane_mpio": 76001, "municipio": "CALI", "cod_comuna": 9.0, "comuna": "Comuna 9", "cod_barrio": 910.0, "nom_barrio": "Barrio Obrero", "direccion": "76001 Calle 24 9 53, Santiago De Cali, Cali, Valle Del Cauca, COL,BARRIO OBRERO", "sitio": "SIN INFORMACION", "x": -76.519271850590002, "y": 3.4504120349899998, "anio": 2024, "mes": "diciembre", "dia": 16, "dia_semana": 2, "hora_hecho": "05:00", "barrio": "BARRIO OBRERO", "estrato": 2, "geom": "0101000020E6100000000000C03B2153C0000000A0719A0B40", "fecha_hech": "2024-12-16 00:00:00", "Id": 0, "area": 136572.15568900001 }, "geometry": { "type": "Point", "coordinates": [ -76.519271850590002, 3.45041203499 ] } },
{ "type": "Feature", "properties": { "dinamica": "VIOLENCIA INTRAFAMILIAR", "titulo": "DELITOS CONTRA LA FAMILIA", "capitulo": "DE LA VIOLENCIA INTRAFAMILIAR", "articulo": "VIOLENCIA INTRAFAMILIAR ART. 229 C.P.", "grado_deli": "NINGUNO", "tipo_notic": "ACTOS URGENTES", "caracteriz": null, "modalidad": null, "modo": null, "motivo": null, "pais": "COLOMBIA", "dane_dep": 76, "departamen": "VALLE DEL CAUCA", "dane_mpio": 76001, "municipio": "CALI", "cod_comuna": 9.0, "comuna": "Comuna 9", "cod_barrio": 910.0, "nom_barrio": "Barrio Obrero", "direccion": "76001 CARRERA 11D 22A, BARRIO OBRERO, CALI, VALLE DEL CAUCA", "sitio": "VIA PUBLICA", "x": -76.520141601559999, "y": 3.4473209381099998, "anio": 2025, "mes": "enero", "dia": 11, "dia_semana": 7, "hora_hecho": "03:42", "barrio": "BARRIO OBRERO", "estrato": 2, "geom": "0101000020E6100000000000004A2153C0000000001D940B40", "fecha_hech": "2025-01-11 00:00:00", "Id": 0, "area": 136572.15568900001 }, "geometry": { "type": "Point", "coordinates": [ -76.520141601559999, 3.44732093811 ] } },
{ "type": "Feature", "properties": { "dinamica": "VIOLENCIA INTRAFAMILIAR", "titulo": "DELITOS CONTRA LA FAMILIA", "capitulo": "DE LA VIOLENCIA INTRAFAMILIAR", "articulo": "VIOLENCIA INTRAFAMILIAR ART. 229 C.P.", "grado_deli": "NINGUNO", "tipo_notic": "ACTOS URGENTES", "caracteriz": null, "modalidad": null, "modo": null, "motivo": null, "pais": "COLOMBIA", "dane_dep": 76, "departamen": "VALLE DEL CAUCA", "dane_mpio": 76001, "municipio": "CALI", "cod_comuna": 9.0, "comuna": "Comuna 9", "cod_barrio": 910.0, "nom_barrio": "Barrio Obrero", "direccion": "76001 CARRERA 12 23 7, BARRIO OBRERO, CALI, VALLE DEL CAUCA", "sitio": "DOMICILIO", "x": -76.518753051760001, "y": 3.4466300010699999, "anio": 2025, "mes": "enero", "dia": 20, "dia_semana": 2, "hora_hecho": "13:15", "barrio": "BARRIO OBRERO", "estrato": 2, "geom": "0101000020E610000000000040332153C0000000C0B2920B40", "fecha_hech": "2025-01-20 00:00:00", "Id": 0, "area": 136572.15568900001 }, "geometry": { "type": "Point", "coordinates": [ -76.518753051760001, 3.44663000107 ] } },
{ "type": "Feature", "properties": { "dinamica": "VIOLENCIA INTRAFAMILIAR", "titulo": "DELITOS CONTRA LA FAMILIA", "capitulo": "DE LA VIOLENCIA INTRAFAMILIAR", "articulo": "VIOLENCIA INTRAFAMILIAR ART. 229 C.P.", "grado_deli": "NINGUNO", "tipo_notic": "DENUNCIA", "caracteriz": null, "modalidad": null, "modo": null, "motivo": null, "pais": "COLOMBIA", "dane_dep": 76, "departamen": "VALLE DEL CAUCA", "dane_mpio": 76001, "municipio": "CALI", "cod_comuna": 9.0, "comuna": "Comuna 9", "cod_barrio": 910.0, "nom_barrio": "Barrio Obrero", "direccion": "76001 Carrera 11d 21 27, Santiago De Cali, Cali, Valle Del Cauca, COL,BARRIO OBRERO", "sitio": "SIN INFORMACION", "x": -76.521697998050001, "y": 3.4471230506900001, "anio": 2025, "mes": "enero", "dia": 24, "dia_semana": 6, "hora_hecho": "13:00", "barrio": "BARRIO OBRERO", "estrato": 2, "geom": "0101000020E610000000000080632153C000000040B5930B40", "fecha_hech": "2025-01-24 00:00:00", "Id": 0, "area": 136572.15568900001 }, "geometry": { "type": "Point", "coordinates": [ -76.521697998050001, 3.44712305069 ] } },
{ "type": "Feature", "properties": { "dinamica": "VIOLENCIA INTRAFAMILIAR", "titulo": "DELITOS CONTRA LA FAMILIA", "capitulo": "DE LA VIOLENCIA INTRAFAMILIAR", "articulo": "VIOLENCIA INTRAFAMILIAR ART. 229 C.P.", "grado_deli": "NINGUNO", "tipo_notic": "DENUNCIA", "caracteriz": null, "modalidad": null, "modo": null, "motivo": null, "pais": "COLOMBIA", "dane_dep": 76, "departamen": "VALLE DEL CAUCA", "dane_mpio": 76001, "municipio": "CALI", "cod_comuna": 9.0, "comuna": "Comuna 9", "cod_barrio": 910.0, "nom_barrio": "Barrio Obrero", "direccion": "76001 Carrera 8A 22 29, Barrio Obrero, Cali, Valle del Cauca, COL,BARRIO OBRERO", "sitio": "SIN INFORMACION", "x": -76.522003173830001, "y": 3.4515199661299998, "anio": 2025, "mes": "febrero", "dia": 9, "dia_semana": 1, "hora_hecho": "06:00", "barrio": "BARRIO OBRERO", "estrato": 2, "geom": "0101000020E610000000000080682153C000000080B69C0B40", "fecha_hech": "2025-02-09 00:00:00", "Id": 0, "area": 136572.15568900001 }, "geometry": { "type": "Point", "coordinates": [ -76.522003173830001, 3.45151996613 ] } },
{ "type": "Feature", "properties": { "dinamica": "VIOLENCIA INTRAFAMILIAR", "titulo": "DELITOS CONTRA LA FAMILIA", "capitulo": "DE LA VIOLENCIA INTRAFAMILIAR", "articulo": "VIOLENCIA INTRAFAMILIAR ART. 229 C.P.", "grado_deli": "AGRAVADO", "tipo_notic": "DENUNCIA", "caracteriz": null, "modalidad": null, "modo": null, "motivo": null, "pais": "COLOMBIA", "dane_dep": 76, "departamen": "VALLE DEL CAUCA", "dane_mpio": 76001, "municipio": "CALI", "cod_comuna": 9.0, "comuna": "Comuna 9", "cod_barrio": 910.0, "nom_barrio": "Barrio Obrero", "direccion": "76001 Aguademar Restaurante, Carrera 10 100 21, Sucre, Cali, Valle del Cauca, COL,BARRIO OBRERO", "sitio": "SIN INFORMACION", "x": -76.522682189939999, "y": 3.44954895973, "anio": 2025, "mes": "febrero", "dia": 25, "dia_semana": 3, "hora_hecho": "03:00", "barrio": "BARRIO OBRERO", "estrato": 2, "geom": "0101000020E6100000000000A0732153C000000020AD980B40", "fecha_hech": "2025-02-25 00:00:00", "Id": 0, "area": 136572.15568900001 }, "geometry": { "type": "Point", "coordinates": [ -76.522682189939999, 3.44954895973 ] } },
{ "type": "Feature", "properties": { "dinamica": "VIOLENCIA INTRAFAMILIAR", "titulo": "DELITOS CONTRA LA FAMILIA", "capitulo": "DE LA VIOLENCIA INTRAFAMILIAR", "articulo": "VIOLENCIA INTRAFAMILIAR ART. 229 C.P.", "grado_deli": "NINGUNO", "tipo_notic": "DENUNCIA", "caracteriz": null, "modalidad": null, "modo": null, "motivo": null, "pais": "COLOMBIA", "dane_dep": 76, "departamen": "VALLE DEL CAUCA", "dane_mpio": 76001, "municipio": "CALI", "cod_comuna": 9.0, "comuna": "Comuna 9", "cod_barrio": 910.0, "nom_barrio": "Barrio Obrero", "direccion": "76001 CARRERA 11 22A 85", "sitio": "DOMICILIO", "x": -76.520248413090002, "y": 3.4490458965299999, "anio": 2025, "mes": "febrero", "dia": 25, "dia_semana": 3, "hora_hecho": "07:30", "barrio": "BARRIO OBRERO", "estrato": 2, "geom": "0101000020E6100000000000C04B2153C000000060A5970B40", "fecha_hech": "2025-02-25 00:00:00", "Id": 0, "area": 136572.15568900001 }, "geometry": { "type": "Point", "coordinates": [ -76.520248413090002, 3.44904589653 ] } },
{ "type": "Feature", "properties": { "dinamica": "VIOLENCIA INTRAFAMILIAR", "titulo": "DELITOS CONTRA LA FAMILIA", "capitulo": "DE LA VIOLENCIA INTRAFAMILIAR", "articulo": "VIOLENCIA INTRAFAMILIAR ART. 229 C.P.", "grado_deli": "AGRAVADO", "tipo_notic": "DENUNCIA", "caracteriz": null, "modalidad": null, "modo": null, "motivo": null, "pais": "COLOMBIA", "dane_dep": 76, "departamen": "VALLE DEL CAUCA", "dane_mpio": 76001, "municipio": "CALI", "cod_comuna": 9.0, "comuna": "Comuna 9", "cod_barrio": 910.0, "nom_barrio": "Barrio Obrero", "direccion": "76001 Calle 22 9 23, Santiago De Cali, Cali, Valle Del Cauca, COL,BARRIO OBRERO", "sitio": "SIN INFORMACION", "x": -76.521911621089998, "y": 3.4501149654400001, "anio": 2025, "mes": "febrero", "dia": 25, "dia_semana": 3, "hora_hecho": "15:48", "barrio": "BARRIO OBRERO", "estrato": 2, "geom": "0101000020E610000000000000672153C0000000E0D5990B40", "fecha_hech": "2025-02-25 00:00:00", "Id": 0, "area": 136572.15568900001 }, "geometry": { "type": "Point", "coordinates": [ -76.521911621089998, 3.45011496544 ] } },
{ "type": "Feature", "properties": { "dinamica": "VIOLENCIA INTRAFAMILIAR", "titulo": "DELITOS CONTRA LA FAMILIA", "capitulo": "DE LA VIOLENCIA INTRAFAMILIAR", "articulo": "VIOLENCIA INTRAFAMILIAR ART. 229 C.P.", "grado_deli": "NINGUNO", "tipo_notic": "ACTOS URGENTES", "caracteriz": null, "modalidad": null, "modo": null, "motivo": null, "pais": "COLOMBIA", "dane_dep": 76, "departamen": "VALLE DEL CAUCA", "dane_mpio": 76001, "municipio": "CALI", "cod_comuna": 9.0, "comuna": "Comuna 9", "cod_barrio": 910.0, "nom_barrio": "Barrio Obrero", "direccion": "76001 CARRERA 10 22A, BARRIO OBRERO, CALI, VALLE DEL CAUCA", "sitio": "DOMICILIO", "x": -76.521110534670001, "y": 3.4497470855699999, "anio": 2025, "mes": "febrero", "dia": 27, "dia_semana": 5, "hora_hecho": "00:30", "barrio": "BARRIO OBRERO", "estrato": 2, "geom": "0101000020E6100000000000E0592153C00000000015990B40", "fecha_hech": "2025-02-27 00:00:00", "Id": 0, "area": 136572.15568900001 }, "geometry": { "type": "Point", "coordinates": [ -76.521110534670001, 3.44974708557 ] } },
{ "type": "Feature", "properties": { "dinamica": "VIOLENCIA INTRAFAMILIAR", "titulo": "DELITOS CONTRA LA FAMILIA", "capitulo": "DE LA VIOLENCIA INTRAFAMILIAR", "articulo": "VIOLENCIA INTRAFAMILIAR ART. 229 C.P.", "grado_deli": "AGRAVADO", "tipo_notic": "ACTOS URGENTES", "caracteriz": null, "modalidad": null, "modo": null, "motivo": null, "pais": "COLOMBIA", "dane_dep": 76, "departamen": "VALLE DEL CAUCA", "dane_mpio": 76001, "municipio": "CALI", "cod_comuna": 9.0, "comuna": "Comuna 9", "cod_barrio": 910.0, "nom_barrio": "Barrio Obrero", "direccion": "76001 CARRERA 11D 23 58, SANTIAGO DE CALI, CALI, VALLE DEL CAUCA", "sitio": "VIA PUBLICA", "x": -76.5191116333, "y": 3.4473240375500001, "anio": 2025, "mes": "marzo", "dia": 13, "dia_semana": 5, "hora_hecho": "10:30", "barrio": "BARRIO OBRERO", "estrato": 2, "geom": "0101000020E610000000000020392153C0000000A01E940B40", "fecha_hech": "2025-03-13 00:00:00", "Id": 0, "area": 136572.15568900001 }, "geometry": { "type": "Point", "coordinates": [ -76.5191116333, 3.44732403755 ] } },
{ "type": "Feature", "properties": { "dinamica": "VIOLENCIA INTRAFAMILIAR", "titulo": "DELITOS CONTRA LA FAMILIA", "capitulo": "DE LA VIOLENCIA INTRAFAMILIAR", "articulo": "VIOLENCIA INTRAFAMILIAR ART. 229 C.P.", "grado_deli": "AGRAVADO", "tipo_notic": "ACTOS URGENTES", "caracteriz": null, "modalidad": null, "modo": null, "motivo": null, "pais": "COLOMBIA", "dane_dep": 76, "departamen": "VALLE DEL CAUCA", "dane_mpio": 76001, "municipio": "CALI", "cod_comuna": 9.0, "comuna": "Comuna 9", "cod_barrio": 910.0, "nom_barrio": "Barrio Obrero", "direccion": "76001 CARRERA 11 21 20, SANTIAGO DE CALI, CALI, VALLE DEL CAUCA", "sitio": "DOMICILIO", "x": -76.522193908689999, "y": 3.44840192795, "anio": 2025, "mes": "abril", "dia": 4, "dia_semana": 6, "hora_hecho": "08:00", "barrio": "BARRIO OBRERO", "estrato": 2, "geom": "0101000020E6100000000000A06B2153C0000000C053960B40", "fecha_hech": "2025-04-04 00:00:00", "Id": 0, "area": 136572.15568900001 }, "geometry": { "type": "Point", "coordinates": [ -76.522193908689999, 3.44840192795 ] } },
{ "type": "Feature", "properties": { "dinamica": "VIOLENCIA INTRAFAMILIAR", "titulo": "DELITOS CONTRA LA FAMILIA", "capitulo": "DE LA VIOLENCIA INTRAFAMILIAR", "articulo": "VIOLENCIA INTRAFAMILIAR ART. 229 C.P.", "grado_deli": "AGRAVADO", "tipo_notic": "DENUNCIA", "caracteriz": null, "modalidad": null, "modo": null, "motivo": null, "pais": "COLOMBIA", "dane_dep": 76, "departamen": "VALLE DEL CAUCA", "dane_mpio": 76001, "municipio": "CALI", "cod_comuna": 9.0, "comuna": "Comuna 9", "cod_barrio": 910.0, "nom_barrio": "Barrio Obrero", "direccion": "76001 CARRERA 14, BARRIO OBRERO, CALI, VALLE DEL CAUCA", "sitio": "DOMICILIO", "x": -76.521339416499998, "y": 3.4446949958799999, "anio": 2025, "mes": "abril", "dia": 7, "dia_semana": 2, "hora_hecho": "16:45", "barrio": "BARRIO OBRERO", "estrato": 2, "geom": "0101000020E6100000000000A05D2153C000000040BC8E0B40", "fecha_hech": "2025-04-07 00:00:00", "Id": 0, "area": 136572.15568900001 }, "geometry": { "type": "Point", "coordinates": [ -76.521339416499998, 3.44469499588 ] } },
{ "type": "Feature", "properties": { "dinamica": "VIOLENCIA INTRAFAMILIAR", "titulo": "DELITOS CONTRA LA FAMILIA", "capitulo": "DE LA VIOLENCIA INTRAFAMILIAR", "articulo": "VIOLENCIA INTRAFAMILIAR ART. 229 C.P.", "grado_deli": "NINGUNO", "tipo_notic": "DENUNCIA", "caracteriz": null, "modalidad": null, "modo": null, "motivo": null, "pais": "COLOMBIA", "dane_dep": 76, "departamen": "VALLE DEL CAUCA", "dane_mpio": 76001, "municipio": "CALI", "cod_comuna": 9.0, "comuna": "Comuna 9", "cod_barrio": 910.0, "nom_barrio": "Barrio Obrero", "direccion": "76001 Carrera 13a 21 32, Barrio Obrero, Cali, Valle del Cauca, COL,BARRIO OBRERO", "sitio": "SIN INFORMACION", "x": -76.521224975590002, "y": 3.4450941085800002, "anio": 2025, "mes": "abril", "dia": 14, "dia_semana": 2, "hora_hecho": "12:15", "barrio": "BARRIO OBRERO", "estrato": 2, "geom": "0101000020E6100000000000C05B2153C0000000808D8F0B40", "fecha_hech": "2025-04-14 00:00:00", "Id": 0, "area": 136572.15568900001 }, "geometry": { "type": "Point", "coordinates": [ -76.521224975590002, 3.44509410858 ] } },
{ "type": "Feature", "properties": { "dinamica": "VIOLENCIA INTRAFAMILIAR", "titulo": "DELITOS CONTRA LA FAMILIA", "capitulo": "DE LA VIOLENCIA INTRAFAMILIAR", "articulo": "VIOLENCIA INTRAFAMILIAR ART. 229 C.P.", "grado_deli": "NINGUNO", "tipo_notic": "DENUNCIA", "caracteriz": null, "modalidad": null, "modo": null, "motivo": null, "pais": "COLOMBIA", "dane_dep": 76, "departamen": "VALLE DEL CAUCA", "dane_mpio": 76001, "municipio": "CALI", "cod_comuna": 9.0, "comuna": "Comuna 9", "cod_barrio": 910.0, "nom_barrio": "Barrio Obrero", "direccion": "76001 Calle 23 9 74, Barrio Obrero, Cali, Valle del Cauca, COL,BARRIO OBRERO", "sitio": "SIN INFORMACION", "x": -76.520347595209998, "y": 3.4505109787000001, "anio": 2025, "mes": "abril", "dia": 29, "dia_semana": 3, "hora_hecho": "07:30", "barrio": "BARRIO OBRERO", "estrato": 2, "geom": "0101000020E6100000000000604D2153C000000080A59A0B40", "fecha_hech": "2025-04-29 00:00:00", "Id": 0, "area": 136572.15568900001 }, "geometry": { "type": "Point", "coordinates": [ -76.520347595209998, 3.4505109787 ] } },
{ "type": "Feature", "properties": { "dinamica": "VIOLENCIA INTRAFAMILIAR", "titulo": "DELITOS CONTRA LA FAMILIA", "capitulo": "DE LA VIOLENCIA INTRAFAMILIAR", "articulo": "VIOLENCIA INTRAFAMILIAR ART. 229 C.P.", "grado_deli": "NINGUNO", "tipo_notic": "DENUNCIA", "caracteriz": null, "modalidad": null, "modo": null, "motivo": null, "pais": "COLOMBIA", "dane_dep": 76, "departamen": "VALLE DEL CAUCA", "dane_mpio": 76001, "municipio": "CALI", "cod_comuna": 9.0, "comuna": "Comuna 9", "cod_barrio": 910.0, "nom_barrio": "Barrio Obrero", "direccion": "76001 Carrera 14 21, Barrio Obrero, Cali, Valle del Cauca, COL,BARRIO OBRERO", "sitio": "SIN INFORMACION", "x": -76.52109527588, "y": 3.4447720050799999, "anio": 2025, "mes": "mayo", "dia": 5, "dia_semana": 2, "hora_hecho": "13:00", "barrio": "BARRIO OBRERO", "estrato": 2, "geom": "0101000020E6100000000000A0592153C0000000A0E48E0B40", "fecha_hech": "2025-05-05 00:00:00", "Id": 0, "area": 136572.15568900001 }, "geometry": { "type": "Point", "coordinates": [ -76.52109527588, 3.44477200508 ] } },
{ "type": "Feature", "properties": { "dinamica": "VIOLENCIA INTRAFAMILIAR", "titulo": "DELITOS CONTRA LA FAMILIA", "capitulo": "DE LA VIOLENCIA INTRAFAMILIAR", "articulo": "VIOLENCIA INTRAFAMILIAR ART. 229 C.P.", "grado_deli": "NINGUNO", "tipo_notic": "DENUNCIA", "caracteriz": null, "modalidad": null, "modo": null, "motivo": null, "pais": "COLOMBIA", "dane_dep": 76, "departamen": "VALLE DEL CAUCA", "dane_mpio": 76001, "municipio": "CALI", "cod_comuna": 9.0, "comuna": "Comuna 9", "cod_barrio": 910.0, "nom_barrio": "Barrio Obrero", "direccion": "76001 Calle 25 8 40, Barrio Obrero, Cali, Valle del Cauca, COL,BARRIO OBRERO", "sitio": "SIN INFORMACION", "x": -76.519104003910002, "y": 3.452491045, "anio": 2025, "mes": "mayo", "dia": 6, "dia_semana": 3, "hora_hecho": "17:30", "barrio": "BARRIO OBRERO", "estrato": 2, "geom": "0101000020E610000000000000392153C0000000A0B39E0B40", "fecha_hech": "2025-05-06 00:00:00", "Id": 0, "area": 136572.15568900001 }, "geometry": { "type": "Point", "coordinates": [ -76.519104003910002, 3.452491045 ] } },
{ "type": "Feature", "properties": { "dinamica": "VIOLENCIA INTRAFAMILIAR", "titulo": "DELITOS CONTRA LA FAMILIA", "capitulo": "DE LA VIOLENCIA INTRAFAMILIAR", "articulo": "VIOLENCIA INTRAFAMILIAR ART. 229 C.P.", "grado_deli": "AGRAVADO", "tipo_notic": "DENUNCIA", "caracteriz": null, "modalidad": null, "modo": null, "motivo": null, "pais": "COLOMBIA", "dane_dep": 76, "departamen": "VALLE DEL CAUCA", "dane_mpio": 76001, "municipio": "CALI", "cod_comuna": 9.0, "comuna": "Comuna 9", "cod_barrio": 910.0, "nom_barrio": "Barrio Obrero", "direccion": "76001 BARRIO/LOCALIDAD/COMUNA:BARRIO OBRERO/COMUNA 9,CALI/VALLE DEL CAUCA,BARRIO OBRERO", "sitio": "SIN INFORMACION", "x": -76.52049255371, "y": 3.4483931064600002, "anio": 2025, "mes": "mayo", "dia": 21, "dia_semana": 4, "hora_hecho": "08:24", "barrio": "BARRIO OBRERO", "estrato": 2, "geom": "0101000020E6100000000000C04F2153C0000000204F960B40", "fecha_hech": "2025-05-21 00:00:00", "Id": 0, "area": 136572.15568900001 }, "geometry": { "type": "Point", "coordinates": [ -76.52049255371, 3.44839310646 ] } },
{ "type": "Feature", "properties": { "dinamica": "VIOLENCIA INTRAFAMILIAR", "titulo": "DELITOS CONTRA LA FAMILIA", "capitulo": "DE LA VIOLENCIA INTRAFAMILIAR", "articulo": "VIOLENCIA INTRAFAMILIAR ART. 229 C.P.", "grado_deli": "AGRAVADO", "tipo_notic": "DENUNCIA", "caracteriz": null, "modalidad": null, "modo": null, "motivo": null, "pais": "COLOMBIA", "dane_dep": 76, "departamen": "VALLE DEL CAUCA", "dane_mpio": 76001, "municipio": "CALI", "cod_comuna": 9.0, "comuna": "Comuna 9", "cod_barrio": 910.0, "nom_barrio": "Barrio Obrero", "direccion": "76001 Carrera 11 22A 14, Barrio Obrero, Cali, Valle del Cauca, COL,BARRIO OBRERO", "sitio": "SIN INFORMACION", "x": -76.520561218259999, "y": 3.4487900733900001, "anio": 2025, "mes": "junio", "dia": 13, "dia_semana": 6, "hora_hecho": "09:00", "barrio": "BARRIO OBRERO", "estrato": 2, "geom": "0101000020E6100000000000E0502153C0000000401F970B40", "fecha_hech": "2025-06-13 00:00:00", "Id": 0, "area": 136572.15568900001 }, "geometry": { "type": "Point", "coordinates": [ -76.520561218259999, 3.44879007339 ] } },
{ "type": "Feature", "properties": { "dinamica": "VIOLENCIA INTRAFAMILIAR", "titulo": "DELITOS CONTRA LA FAMILIA", "capitulo": "DE LA VIOLENCIA INTRAFAMILIAR", "articulo": "VIOLENCIA INTRAFAMILIAR ART. 229 C.P.", "grado_deli": "NINGUNO", "tipo_notic": "DENUNCIA", "caracteriz": null, "modalidad": null, "modo": null, "motivo": null, "pais": "COLOMBIA", "dane_dep": 76, "departamen": "VALLE DEL CAUCA", "dane_mpio": 76001, "municipio": "CALI", "cod_comuna": 9.0, "comuna": "Comuna 9", "cod_barrio": 910.0, "nom_barrio": "Barrio Obrero", "direccion": "76001 BARRIO/LOCALIDAD/COMUNA:BARRIO OBRERO/COMUNA 9,CALI/VALLE DEL CAUCA,BARRIO OBRERO", "sitio": "SIN INFORMACION", "x": -76.52043914795, "y": 3.4486579895, "anio": 2025, "mes": "julio", "dia": 11, "dia_semana": 6, "hora_hecho": "15:00", "barrio": "BARRIO OBRERO", "estrato": 2, "geom": "0101000020E6100000000000E04E2153C000000000DA960B40", "fecha_hech": "2025-07-11 00:00:00", "Id": 0, "area": 136572.15568900001 }, "geometry": { "type": "Point", "coordinates": [ -76.52043914795, 3.4486579895 ] } },
{ "type": "Feature", "properties": { "dinamica": "VIOLENCIA INTRAFAMILIAR", "titulo": "DELITOS CONTRA LA FAMILIA", "capitulo": "DE LA VIOLENCIA INTRAFAMILIAR", "articulo": "VIOLENCIA INTRAFAMILIAR ART. 229 C.P.", "grado_deli": "NINGUNO", "tipo_notic": "ACTOS URGENTES", "caracteriz": null, "modalidad": null, "modo": null, "motivo": null, "pais": "COLOMBIA", "dane_dep": 76, "departamen": "VALLE DEL CAUCA", "dane_mpio": 76001, "municipio": "CALI", "cod_comuna": 9.0, "comuna": "Comuna 9", "cod_barrio": 910.0, "nom_barrio": "Barrio Obrero", "direccion": "76001 CARRERA 10 22A 11, BARRIO OBRERO, CALI, VALLE DEL CAUCA", "sitio": "DOMICILIO", "x": -76.52091217041, "y": 3.4500019550299998, "anio": 2025, "mes": "julio", "dia": 31, "dia_semana": 5, "hora_hecho": "09:12", "barrio": "BARRIO OBRERO", "estrato": 2, "geom": "0101000020E6100000000000A0562153C0000000A09A990B40", "fecha_hech": "2025-07-31 00:00:00", "Id": 0, "area": 136572.15568900001 }, "geometry": { "type": "Point", "coordinates": [ -76.52091217041, 3.45000195503 ] } },
{ "type": "Feature", "properties": { "dinamica": "VIOLENCIA INTRAFAMILIAR", "titulo": "DELITOS CONTRA LA FAMILIA", "capitulo": "DE LA VIOLENCIA INTRAFAMILIAR", "articulo": "VIOLENCIA INTRAFAMILIAR ART. 229 C.P.", "grado_deli": "NINGUNO", "tipo_notic": "DENUNCIA", "caracteriz": null, "modalidad": null, "modo": null, "motivo": null, "pais": "COLOMBIA", "dane_dep": 76, "departamen": "VALLE DEL CAUCA", "dane_mpio": 76001, "municipio": "CALI", "cod_comuna": 9.0, "comuna": "Comuna 9", "cod_barrio": 910.0, "nom_barrio": "Barrio Obrero", "direccion": "76001 BARRIO/LOCALIDAD/COMUNA:BARRIO OBRERO/COMUNA 9,CALI/VALLE DEL CAUCA,BARRIO OBRERO", "sitio": "SIN INFORMACION", "x": -76.518775939939999, "y": 3.4495239257799999, "anio": 2025, "mes": "agosto", "dia": 3, "dia_semana": 1, "hora_hecho": "11:43", "barrio": "BARRIO OBRERO", "estrato": 2, "geom": "0101000020E6100000000000A0332153C000000000A0980B40", "fecha_hech": "2025-08-03 00:00:00", "Id": 0, "area": 136572.15568900001 }, "geometry": { "type": "Point", "coordinates": [ -76.518775939939999, 3.44952392578 ] } },
{ "type": "Feature", "properties": { "dinamica": "VIOLENCIA INTRAFAMILIAR", "titulo": "DELITOS CONTRA LA FAMILIA", "capitulo": "DE LA VIOLENCIA INTRAFAMILIAR", "articulo": "VIOLENCIA INTRAFAMILIAR ART. 229 C.P.", "grado_deli": "NINGUNO", "tipo_notic": "DENUNCIA", "caracteriz": null, "modalidad": null, "modo": null, "motivo": null, "pais": "COLOMBIA", "dane_dep": 76, "departamen": "VALLE DEL CAUCA", "dane_mpio": 76001, "municipio": "CALI", "cod_comuna": 9.0, "comuna": "Comuna 9", "cod_barrio": 910.0, "nom_barrio": "Barrio Obrero", "direccion": "76001 Carrera 9 21, Barrio Obrero, Cali, Valle del Cauca, COL,BARRIO OBRERO", "sitio": "SIN INFORMACION", "x": -76.52247619629, "y": 3.4503099918400002, "anio": 2025, "mes": "agosto", "dia": 17, "dia_semana": 1, "hora_hecho": "20:50", "barrio": "BARRIO OBRERO", "estrato": 2, "geom": "0101000020E610000000000040702153C0000000203C9A0B40", "fecha_hech": "2025-08-17 00:00:00", "Id": 0, "area": 136572.15568900001 }, "geometry": { "type": "Point", "coordinates": [ -76.52247619629, 3.45030999184 ] } },
{ "type": "Feature", "properties": { "dinamica": "VIOLENCIA INTRAFAMILIAR", "titulo": "DELITOS CONTRA LA FAMILIA", "capitulo": "DE LA VIOLENCIA INTRAFAMILIAR", "articulo": "VIOLENCIA INTRAFAMILIAR ART. 229 C.P.", "grado_deli": "NINGUNO", "tipo_notic": "DENUNCIA", "caracteriz": null, "modalidad": null, "modo": null, "motivo": null, "pais": "COLOMBIA", "dane_dep": 76, "departamen": "VALLE DEL CAUCA", "dane_mpio": 76001, "municipio": "CALI", "cod_comuna": 9.0, "comuna": "Comuna 9", "cod_barrio": 910.0, "nom_barrio": "Barrio Obrero", "direccion": "76001 CARRERA 11 22A 69", "sitio": "CERCA AL DOMICILIO", "x": -76.52035522461, "y": 3.4490220546699999, "anio": 2025, "mes": "agosto", "dia": 24, "dia_semana": 1, "hora_hecho": "19:30", "barrio": "BARRIO OBRERO", "estrato": 2, "geom": "0101000020E6100000000000804D2153C0000000E098970B40", "fecha_hech": "2025-08-24 00:00:00", "Id": 0, "area": 136572.15568900001 }, "geometry": { "type": "Point", "coordinates": [ -76.52035522461, 3.44902205467 ] } },
{ "type": "Feature", "properties": { "dinamica": "VIOLENCIA INTRAFAMILIAR", "titulo": "DELITOS CONTRA LA FAMILIA", "capitulo": "DE LA VIOLENCIA INTRAFAMILIAR", "articulo": "VIOLENCIA INTRAFAMILIAR ART. 229 C.P.", "grado_deli": "AGRAVADO", "tipo_notic": "DENUNCIA", "caracteriz": null, "modalidad": null, "modo": null, "motivo": null, "pais": "COLOMBIA", "dane_dep": 76, "departamen": "VALLE DEL CAUCA", "dane_mpio": 76001, "municipio": "CALI", "cod_comuna": 9.0, "comuna": "Comuna 9", "cod_barrio": 910.0, "nom_barrio": "Barrio Obrero", "direccion": "76001 Carrera 11D 21, Barrio Obrero, Cali, Valle del Cauca, COL,BARRIO OBRERO", "sitio": "SIN INFORMACION", "x": -76.521606445309999, "y": 3.4469430446599998, "anio": 2025, "mes": "agosto", "dia": 24, "dia_semana": 1, "hora_hecho": "22:00", "barrio": "BARRIO OBRERO", "estrato": 2, "geom": "0101000020E610000000000000622153C0000000E056930B40", "fecha_hech": "2025-08-24 00:00:00", "Id": 0, "area": 136572.15568900001 }, "geometry": { "type": "Point", "coordinates": [ -76.521606445309999, 3.44694304466 ] } },
{ "type": "Feature", "properties": { "dinamica": "VIOLENCIA INTRAFAMILIAR", "titulo": "DELITOS CONTRA LA FAMILIA", "capitulo": "DE LA VIOLENCIA INTRAFAMILIAR", "articulo": "VIOLENCIA INTRAFAMILIAR ART. 229 C.P.", "grado_deli": "NINGUNO", "tipo_notic": "DENUNCIA", "caracteriz": null, "modalidad": null, "modo": null, "motivo": null, "pais": "COLOMBIA", "dane_dep": 76, "departamen": "VALLE DEL CAUCA", "dane_mpio": 76001, "municipio": "CALI", "cod_comuna": 9.0, "comuna": "Comuna 9", "cod_barrio": 910.0, "nom_barrio": "Barrio Obrero", "direccion": "76001 Calle 22 11D 101, Barrio Obrero, Cali, Valle del Cauca, COL,BARRIO OBRERO", "sitio": "SIN INFORMACION", "x": -76.521034240719999, "y": 3.4461240768399999, "anio": 2025, "mes": "septiembre", "dia": 3, "dia_semana": 4, "hora_hecho": "04:00", "barrio": "BARRIO OBRERO", "estrato": 2, "geom": "0101000020E6100000000000A0582153C000000080A9910B40", "fecha_hech": "2025-09-03 00:00:00", "Id": 0, "area": 136572.15568900001 }, "geometry": { "type": "Point", "coordinates": [ -76.521034240719999, 3.44612407684 ] } },
{ "type": "Feature", "properties": { "dinamica": "VIOLENCIA INTRAFAMILIAR", "titulo": "DELITOS CONTRA LA FAMILIA", "capitulo": "DE LA VIOLENCIA INTRAFAMILIAR", "articulo": "VIOLENCIA INTRAFAMILIAR ART. 229 C.P.", "grado_deli": "NINGUNO", "tipo_notic": "DENUNCIA", "caracteriz": null, "modalidad": null, "modo": null, "motivo": null, "pais": "COLOMBIA", "dane_dep": 76, "departamen": "VALLE DEL CAUCA", "dane_mpio": 76001, "municipio": "CALI", "cod_comuna": 9.0, "comuna": "Comuna 9", "cod_barrio": 910.0, "nom_barrio": "Barrio Obrero", "direccion": "76001 CARRERA 8 24 54", "sitio": "RED VIRTUAL O INTERNET", "x": -76.519454956049998, "y": 3.4526979923200001, "anio": 2025, "mes": "septiembre", "dia": 4, "dia_semana": 5, "hora_hecho": "10:49", "barrio": "BARRIO OBRERO", "estrato": 2, "geom": "0101000020E6100000000000C03E2153C000000020209F0B40", "fecha_hech": "2025-09-04 00:00:00", "Id": 0, "area": 136572.15568900001 }, "geometry": { "type": "Point", "coordinates": [ -76.519454956049998, 3.45269799232 ] } },
{ "type": "Feature", "properties": { "dinamica": "VIOLENCIA INTRAFAMILIAR", "titulo": "DELITOS CONTRA LA FAMILIA", "capitulo": "DE LA VIOLENCIA INTRAFAMILIAR", "articulo": "VIOLENCIA INTRAFAMILIAR ART. 229 C.P.", "grado_deli": "AGRAVADO", "tipo_notic": "ACTOS URGENTES", "caracteriz": null, "modalidad": null, "modo": null, "motivo": null, "pais": "COLOMBIA", "dane_dep": 76, "departamen": "VALLE DEL CAUCA", "dane_mpio": 76001, "municipio": "CALI", "cod_comuna": 9.0, "comuna": "Comuna 9", "cod_barrio": 910.0, "nom_barrio": "Barrio Obrero", "direccion": "76001 CALLE 21 8A 15, SUCRE, CALI, VALLE DEL CAUCA", "sitio": "DOMICILIO", "x": -76.5230178833, "y": 3.4508950710300001, "anio": 2025, "mes": "septiembre", "dia": 14, "dia_semana": 1, "hora_hecho": "11:00", "barrio": "BARRIO OBRERO", "estrato": 2, "geom": "0101000020E610000000000020792153C0000000E06E9B0B40", "fecha_hech": "2025-09-14 00:00:00", "Id": 0, "area": 136572.15568900001 }, "geometry": { "type": "Point", "coordinates": [ -76.5230178833, 3.45089507103 ] } },
{ "type": "Feature", "properties": { "dinamica": "VIOLENCIA INTRAFAMILIAR", "titulo": "DELITOS CONTRA LA FAMILIA", "capitulo": "DE LA VIOLENCIA INTRAFAMILIAR", "articulo": "VIOLENCIA INTRAFAMILIAR ART. 229 C.P.", "grado_deli": "AGRAVADO", "tipo_notic": "DENUNCIA", "caracteriz": null, "modalidad": null, "modo": null, "motivo": null, "pais": "COLOMBIA", "dane_dep": 76, "departamen": "VALLE DEL CAUCA", "dane_mpio": 76001, "municipio": "CALI", "cod_comuna": 9.0, "comuna": "Comuna 9", "cod_barrio": 910.0, "nom_barrio": "Barrio Obrero", "direccion": "76001 Calle 22 8A 65, Barrio Obrero, Cali, Valle del Cauca, COL,BARRIO OBRERO", "sitio": "SIN INFORMACION", "x": -76.521949768070002, "y": 3.4506731033300002, "anio": 2025, "mes": "octubre", "dia": 1, "dia_semana": 4, "hora_hecho": "14:45", "barrio": "BARRIO OBRERO", "estrato": 2, "geom": "0101000020E6100000000000A0672153C000000080FA9A0B40", "fecha_hech": "2025-10-01 00:00:00", "Id": 0, "area": 136572.15568900001 }, "geometry": { "type": "Point", "coordinates": [ -76.521949768070002, 3.45067310333 ] } },
{ "type": "Feature", "properties": { "dinamica": "VIOLENCIA INTRAFAMILIAR", "titulo": "DELITOS CONTRA LA FAMILIA", "capitulo": "DE LA VIOLENCIA INTRAFAMILIAR", "articulo": "VIOLENCIA INTRAFAMILIAR ART. 229 C.P.", "grado_deli": "NINGUNO", "tipo_notic": "DENUNCIA", "caracteriz": null, "modalidad": null, "modo": null, "motivo": null, "pais": "COLOMBIA", "dane_dep": 76, "departamen": "VALLE DEL CAUCA", "dane_mpio": 76001, "municipio": "CALI", "cod_comuna": 9.0, "comuna": "Comuna 9", "cod_barrio": 910.0, "nom_barrio": "Barrio Obrero", "direccion": "76001 Carrera 11D 21 08, Barrio Obrero, Cali, Valle del Cauca, COL,BARRIO OBRERO", "sitio": "SIN INFORMACION", "x": -76.521781921390001, "y": 3.44676709175, "anio": 2025, "mes": "noviembre", "dia": 6, "dia_semana": 5, "hora_hecho": "14:00", "barrio": "BARRIO OBRERO", "estrato": 2, "geom": "0101000020E6100000000000E0642153C0000000A0FA920B40", "fecha_hech": "2025-11-06 00:00:00", "Id": 0, "area": 136572.15568900001 }, "geometry": { "type": "Point", "coordinates": [ -76.521781921390001, 3.44676709175 ] } },
{ "type": "Feature", "properties": { "dinamica": "VIOLENCIA INTRAFAMILIAR", "titulo": "DELITOS CONTRA LA FAMILIA", "capitulo": "DE LA VIOLENCIA INTRAFAMILIAR", "articulo": "VIOLENCIA INTRAFAMILIAR ART. 229 C.P.", "grado_deli": "AGRAVADO", "tipo_notic": "DENUNCIA", "caracteriz": null, "modalidad": null, "modo": null, "motivo": null, "pais": "COLOMBIA", "dane_dep": 76, "departamen": "VALLE DEL CAUCA", "dane_mpio": 76001, "municipio": "CALI", "cod_comuna": 9.0, "comuna": "Comuna 9", "cod_barrio": 910.0, "nom_barrio": "Barrio Obrero", "direccion": "76001 Carrera 11B, Barrio Obrero, Cali, Valle del Cauca, COL,BARRIO OBRERO", "sitio": "SIN INFORMACION", "x": -76.520095825200002, "y": 3.44818496704, "anio": 2025, "mes": "noviembre", "dia": 9, "dia_semana": 1, "hora_hecho": "01:30", "barrio": "BARRIO OBRERO", "estrato": 2, "geom": "0101000020E610000000000040492153C000000000E2950B40", "fecha_hech": "2025-11-09 00:00:00", "Id": 0, "area": 136572.15568900001 }, "geometry": { "type": "Point", "coordinates": [ -76.520095825200002, 3.44818496704 ] } },
{ "type": "Feature", "properties": { "dinamica": "VIOLENCIA INTRAFAMILIAR", "titulo": "DELITOS CONTRA LA FAMILIA", "capitulo": "DE LA VIOLENCIA INTRAFAMILIAR", "articulo": "VIOLENCIA INTRAFAMILIAR ART. 229 C.P.", "grado_deli": "NINGUNO", "tipo_notic": "ACTOS URGENTES", "caracteriz": null, "modalidad": null, "modo": null, "motivo": null, "pais": "COLOMBIA", "dane_dep": 76, "departamen": "VALLE DEL CAUCA", "dane_mpio": 76001, "municipio": "CALI", "cod_comuna": 9.0, "comuna": "Comuna 9", "cod_barrio": 910.0, "nom_barrio": "Barrio Obrero", "direccion": "76001 CARRERA 12, BARRIO OBRERO, CALI, VALLE DEL CAUCA", "sitio": "DOMICILIO", "x": -76.521591186519998, "y": 3.4458220005000002, "anio": 2025, "mes": "noviembre", "dia": 20, "dia_semana": 5, "hora_hecho": "11:07", "barrio": "BARRIO OBRERO", "estrato": 2, "geom": "0101000020E6100000000000C0612153C0000000200B910B40", "fecha_hech": "2025-11-20 00:00:00", "Id": 0, "area": 136572.15568900001 }, "geometry": { "type": "Point", "coordinates": [ -76.521591186519998, 3.4458220005 ] } },
{ "type": "Feature", "properties": { "dinamica": "VIOLENCIA INTRAFAMILIAR", "titulo": "DELITOS CONTRA LA FAMILIA", "capitulo": "DE LA VIOLENCIA INTRAFAMILIAR", "articulo": "VIOLENCIA INTRAFAMILIAR ART. 229 C.P.", "grado_deli": "AGRAVADO", "tipo_notic": "ACTOS URGENTES", "caracteriz": null, "modalidad": null, "modo": null, "motivo": null, "pais": "COLOMBIA", "dane_dep": 76, "departamen": "VALLE DEL CAUCA", "dane_mpio": 76001, "municipio": "CALI", "cod_comuna": 9.0, "comuna": "Comuna 9", "cod_barrio": 910.0, "nom_barrio": "Barrio Obrero", "direccion": "76001 CALLE 22 11 21, BARRIO OBRERO, CALI, VALLE DEL CAUCA", "sitio": "DOMICILIO", "x": -76.521659851069998, "y": 3.44805407524, "anio": 2025, "mes": "noviembre", "dia": 24, "dia_semana": 2, "hora_hecho": "07:44", "barrio": "BARRIO OBRERO", "estrato": 2, "geom": "0101000020E6100000000000E0622153C0000000609D950B40", "fecha_hech": "2025-11-24 00:00:00", "Id": 0, "area": 136572.15568900001 }, "geometry": { "type": "Point", "coordinates": [ -76.521659851069998, 3.44805407524 ] } },
{ "type": "Feature", "properties": { "dinamica": "VIOLENCIA INTRAFAMILIAR", "titulo": "DELITOS CONTRA LA FAMILIA", "capitulo": "DE LA VIOLENCIA INTRAFAMILIAR", "articulo": "VIOLENCIA INTRAFAMILIAR ART. 229 C.P.", "grado_deli": "NINGUNO", "tipo_notic": "DENUNCIA", "caracteriz": null, "modalidad": null, "modo": null, "motivo": null, "pais": "COLOMBIA", "dane_dep": 76, "departamen": "VALLE DEL CAUCA", "dane_mpio": 76001, "municipio": "CALI", "cod_comuna": 9.0, "comuna": "Comuna 9", "cod_barrio": 910.0, "nom_barrio": "Barrio Obrero", "direccion": "76001 Carrera 8A 22 1-99, Barrio Obrero, Cali, Valle del Cauca, COL,BARRIO OBRERO", "sitio": "SIN INFORMACION", "x": -76.521926879879999, "y": 3.4513139724699999, "anio": 2025, "mes": "diciembre", "dia": 9, "dia_semana": 3, "hora_hecho": "20:00", "barrio": "BARRIO OBRERO", "estrato": 2, "geom": "0101000020E610000000000040672153C0000000804A9C0B40", "fecha_hech": "2025-12-09 00:00:00", "Id": 0, "area": 136572.15568900001 }, "geometry": { "type": "Point", "coordinates": [ -76.521926879879999, 3.45131397247 ] } },
{ "type": "Feature", "properties": { "dinamica": "VIOLENCIA INTRAFAMILIAR", "titulo": "DELITOS CONTRA LA FAMILIA", "capitulo": "DE LA VIOLENCIA INTRAFAMILIAR", "articulo": "VIOLENCIA INTRAFAMILIAR ART. 229 C.P.", "grado_deli": "AGRAVADO", "tipo_notic": "ACTOS URGENTES", "caracteriz": null, "modalidad": null, "modo": null, "motivo": null, "pais": "COLOMBIA", "dane_dep": 76, "departamen": "VALLE DEL CAUCA", "dane_mpio": 76001, "municipio": "CALI", "cod_comuna": 9.0, "comuna": "Comuna 9", "cod_barrio": 910.0, "nom_barrio": "Barrio Obrero", "direccion": "76001 CALLE 22A 11B 69", "sitio": "DOMICILIO", "x": -76.52052307129, "y": 3.4475209713, "anio": 2025, "mes": "diciembre", "dia": 9, "dia_semana": 3, "hora_hecho": "23:00", "barrio": "BARRIO OBRERO", "estrato": 2, "geom": "0101000020E610000000000040502153C0000000E085940B40", "fecha_hech": "2025-12-09 00:00:00", "Id": 0, "area": 136572.15568900001 }, "geometry": { "type": "Point", "coordinates": [ -76.52052307129, 3.4475209713 ] } },
{ "type": "Feature", "properties": { "dinamica": "VIOLENCIA INTRAFAMILIAR", "titulo": "DELITOS CONTRA LA FAMILIA", "capitulo": "DE LA VIOLENCIA INTRAFAMILIAR", "articulo": "VIOLENCIA INTRAFAMILIAR ART. 229 C.P.", "grado_deli": "NINGUNO", "tipo_notic": "DENUNCIA", "caracteriz": null, "modalidad": null, "modo": null, "motivo": null, "pais": "COLOMBIA", "dane_dep": 76, "departamen": "VALLE DEL CAUCA", "dane_mpio": 76001, "municipio": "CALI", "cod_comuna": 9.0, "comuna": "Comuna 9", "cod_barrio": 910.0, "nom_barrio": "Barrio Obrero", "direccion": "76001 Calle 22A 12 26, Barrio Obrero, Cali, Valle del Cauca, COL,BARRIO OBRERO", "sitio": "SIN INFORMACION", "x": -76.520401000980002, "y": 3.4462039470699999, "anio": 2025, "mes": "diciembre", "dia": 11, "dia_semana": 5, "hora_hecho": "10:29", "barrio": "BARRIO OBRERO", "estrato": 2, "geom": "0101000020E6100000000000404E2153C000000060D3910B40", "fecha_hech": "2025-12-11 00:00:00", "Id": 0, "area": 136572.15568900001 }, "geometry": { "type": "Point", "coordinates": [ -76.520401000980002, 3.44620394707 ] } },
{ "type": "Feature", "properties": { "dinamica": "VIOLENCIA INTRAFAMILIAR", "titulo": "DELITOS CONTRA LA FAMILIA", "capitulo": "DE LA VIOLENCIA INTRAFAMILIAR", "articulo": "VIOLENCIA INTRAFAMILIAR ART. 229 C.P.", "grado_deli": "NINGUNO", "tipo_notic": "ACTOS URGENTES", "caracteriz": null, "modalidad": null, "modo": null, "motivo": null, "pais": "COLOMBIA", "dane_dep": 76, "departamen": "VALLE DEL CAUCA", "dane_mpio": 76001, "municipio": "CALI", "cod_comuna": 9.0, "comuna": "Comuna 9", "cod_barrio": 910.0, "nom_barrio": "Barrio Obrero", "direccion": "76001 CALLE 21 11D 55, SUCRE, CALI, VALLE DEL CAUCA", "sitio": "VIA PUBLICA", "x": -76.521736, "y": 3.446326, "anio": 2026, "mes": "enero", "dia": 4, "dia_semana": 1, "hora_hecho": "21:00", "barrio": "BARRIO OBRERO", "estrato": 2, "geom": "0101000020E61000005649641F642153C002D6AA5D13920B40", "fecha_hech": "2026-01-04 00:00:00", "Id": 0, "area": 136572.15568900001 }, "geometry": { "type": "Point", "coordinates": [ -76.521736, 3.446326 ] } },
{ "type": "Feature", "properties": { "dinamica": "VIOLENCIA INTRAFAMILIAR", "titulo": "DELITOS CONTRA LA FAMILIA", "capitulo": "DE LA VIOLENCIA INTRAFAMILIAR", "articulo": "VIOLENCIA INTRAFAMILIAR ART. 229 C.P.", "grado_deli": "NINGUNO", "tipo_notic": "ACTOS URGENTES", "caracteriz": null, "modalidad": null, "modo": null, "motivo": null, "pais": "COLOMBIA", "dane_dep": 76, "departamen": "VALLE DEL CAUCA", "dane_mpio": 76001, "municipio": "CALI", "cod_comuna": 9.0, "comuna": "Comuna 9", "cod_barrio": 910.0, "nom_barrio": "Barrio Obrero", "direccion": "76001 CARRERA 15 22A 10, BARRIO OBRERO, CALI, VALLE DEL CAUCA", "sitio": "VIA PUBLICA", "x": -76.518965, "y": 3.444836, "anio": 2026, "mes": "enero", "dia": 5, "dia_semana": 2, "hora_hecho": "10:41", "barrio": "BARRIO OBRERO", "estrato": 2, "geom": "0101000020E610000031B1F9B8362153C0EBAA402D068F0B40", "fecha_hech": "2026-01-05 00:00:00", "Id": 0, "area": 136572.15568900001 }, "geometry": { "type": "Point", "coordinates": [ -76.518965, 3.444836 ] } },
{ "type": "Feature", "properties": { "dinamica": "VIOLENCIA INTRAFAMILIAR", "titulo": "DELITOS CONTRA LA FAMILIA", "capitulo": "DE LA VIOLENCIA INTRAFAMILIAR", "articulo": "VIOLENCIA INTRAFAMILIAR ART. 229 C.P.", "grado_deli": "AGRAVADO", "tipo_notic": "ACTOS URGENTES", "caracteriz": null, "modalidad": null, "modo": null, "motivo": null, "pais": "COLOMBIA", "dane_dep": 76, "departamen": "VALLE DEL CAUCA", "dane_mpio": 76001, "municipio": "CALI", "cod_comuna": 9.0, "comuna": "Comuna 9", "cod_barrio": 910.0, "nom_barrio": "Barrio Obrero", "direccion": "76001 CARRERA 11B 23 55", "sitio": "CAMPO ABIERTO", "x": -76.519431, "y": 3.448337, "anio": 2026, "mes": "enero", "dia": 23, "dia_semana": 6, "hora_hecho": "14:28", "barrio": "BARRIO OBRERO", "estrato": 2, "geom": "0101000020E6100000D461855B3E2153C0ABB184B531960B40", "fecha_hech": "2026-01-23 00:00:00", "Id": 0, "area": 136572.15568900001 }, "geometry": { "type": "Point", "coordinates": [ -76.519431, 3.448337 ] } },
{ "type": "Feature", "properties": { "dinamica": "VIOLENCIA INTRAFAMILIAR", "titulo": "DELITOS CONTRA LA FAMILIA", "capitulo": "DE LA VIOLENCIA INTRAFAMILIAR", "articulo": "VIOLENCIA INTRAFAMILIAR ART. 229 C.P.", "grado_deli": "AGRAVADO", "tipo_notic": "DENUNCIA", "caracteriz": null, "modalidad": null, "modo": null, "motivo": null, "pais": "COLOMBIA", "dane_dep": 76, "departamen": "VALLE DEL CAUCA", "dane_mpio": 76001, "municipio": "CALI", "cod_comuna": 9.0, "comuna": "Comuna 9", "cod_barrio": 910.0, "nom_barrio": "Barrio Obrero", "direccion": "76001 Calle 22, Barrio Obrero, Cali, Valle del Cauca, COL,BARRIO OBRERO", "sitio": "SIN INFORMACION", "x": -76.521341, "y": 3.446833, "anio": 2026, "mes": "febrero", "dia": 8, "dia_semana": 1, "hora_hecho": "13:00", "barrio": "BARRIO OBRERO", "estrato": 2, "geom": "0101000020E61000001844A4A65D2153C044300E2E1D930B40", "fecha_hech": "2026-02-08 00:00:00", "Id": 0, "area": 136572.15568900001 }, "geometry": { "type": "Point", "coordinates": [ -76.521341, 3.446833 ] } },
{ "type": "Feature", "properties": { "dinamica": "VIOLENCIA INTRAFAMILIAR", "titulo": "DELITOS CONTRA LA FAMILIA", "capitulo": "DE LA VIOLENCIA INTRAFAMILIAR", "articulo": "VIOLENCIA INTRAFAMILIAR ART. 229 C.P.", "grado_deli": "NINGUNO", "tipo_notic": "DENUNCIA", "caracteriz": null, "modalidad": null, "modo": null, "motivo": null, "pais": "COLOMBIA", "dane_dep": 76, "departamen": "VALLE DEL CAUCA", "dane_mpio": 76001, "municipio": "CALI", "cod_comuna": 9.0, "comuna": "Comuna 9", "cod_barrio": 910.0, "nom_barrio": "Barrio Obrero", "direccion": "76001 MARTINEZ MELENDEZ LUZ DARY", "sitio": "DOMICILIO", "x": -76.519418, "y": 3.444771, "anio": 2026, "mes": "febrero", "dia": 21, "dia_semana": 7, "hora_hecho": "00:00", "barrio": "BARRIO OBRERO", "estrato": 2, "geom": "0101000020E61000000ABDFE243E2153C079AC1919E48E0B40", "fecha_hech": "2026-02-21 00:00:00", "Id": 0, "area": 136572.15568900001 }, "geometry": { "type": "Point", "coordinates": [ -76.519418, 3.444771 ] } }
]
}
