{
"type": "FeatureCollection",
"name": "BD_SINIESTROS_2023_2026_COMUNA_BARRIO_poligono_ciudad_Paraiso",
"crs": { "type": "name", "properties": { "name": "urn:ogc:def:crs:OGC:1.3:CRS84" } },
"features": [
{ "type": "Feature", "properties": { "ID": 7278.0, "X": 1060628.6461, "Y": 872437.8151, "Municipio": "CALI", "Codigo": "AI018733", "Fecha": "2025-03-02 00:00:00", "horah": "18:17:00", "hora": 18.0, "semana": 9.0, "mes": 3.0, "Año": 2025.0, "dia_sem": 7.0, "Tipo_Confi": "Lesiones", "direccion": "CARRERA 15  , CALLE 10", "Clase_acci": "CHOQUE", "Tipo_Choqu": "VEHICULO", "placas": "EQM910, MIQ61H", "No_Vehicul": "2", "Tipo_de_Ve": "AUTOMOVIL,MOTOCICLETA", "Ipat": 1635744.0, "Spoa": 80668.0, "SEXO": null, "EDAD": null, "CONDICION": null, "TIPO_DE_AC": null, "VEHICULOS1": null, "VEHICULOS2": null, "comuna": 3.0, "nombre": "Comuna 3", "id_barrio": 306.0, "barrio": "San Juan Bosco", "Unnamed_ 0": null, "Unnamed_ 1": null, "Unnamed_ 2": null, "Unnamed_ 3": null, "Unnamed_ 4": null, "Id": 0, "area": 136572.15568900001 }, "geometry": { "type": "Point", "coordinates": [ -76.531901828326852, 3.442467497229389 ] } },
{ "type": "Feature", "properties": { "ID": 7279.0, "X": 1060628.6461, "Y": 872437.8151, "Municipio": "CALI", "Codigo": "AI015428", "Fecha": "2024-12-13 00:00:00", "horah": "16:59:00", "hora": 16.0, "semana": 50.0, "mes": 12.0, "Año": 2024.0, "dia_sem": 5.0, "Tipo_Confi": "Lesiones", "direccion": "CARRERA 15  , CALLE 10", "Clase_acci": "CHOQUE", "Tipo_Choqu": "VEHICULO", "placas": "SFV09E, TZO945", "No_Vehicul": "2", "Tipo_de_Ve": "MOTOCICLETA,AUTOMOVIL", "Ipat": 1634754.0, "Spoa": 83944.0, "SEXO": null, "EDAD": "0", "CONDICION": null, "TIPO_DE_AC": null, "VEHICULOS1": null, "VEHICULOS2": null, "comuna": 3.0, "nombre": "Comuna 3", "id_barrio": 306.0, "barrio": "San Juan Bosco", "Unnamed_ 0": null, "Unnamed_ 1": null, "Unnamed_ 2": null, "Unnamed_ 3": null, "Unnamed_ 4": null, "Id": 0, "area": 136572.15568900001 }, "geometry": { "type": "Point", "coordinates": [ -76.531901828326852, 3.442467497229389 ] } },
{ "type": "Feature", "properties": { "ID": 7311.0, "X": 1061098.942, "Y": 872463.3657, "Municipio": "CALI", "Codigo": "AI007015", "Fecha": "2024-05-14 00:00:00", "horah": "10:19:00", "hora": 10.0, "semana": 20.0, "mes": 5.0, "Año": 2024.0, "dia_sem": 3.0, "Tipo_Confi": "Lesiones", "direccion": "CARRERA 15  , CALLE 13 A", "Clase_acci": "OTRO", "Tipo_Choqu": null, "placas": "VCX639", "No_Vehicul": "1", "Tipo_de_Ve": "BUS", "Ipat": 1631941.0, "Spoa": 81472.0, "SEXO": null, "EDAD": "0", "CONDICION": null, "TIPO_DE_AC": null, "VEHICULOS1": null, "VEHICULOS2": null, "comuna": 9.0, "nombre": "Comuna 9", "id_barrio": 904.0, "barrio": "Guayaquil", "Unnamed_ 0": null, "Unnamed_ 1": null, "Unnamed_ 2": null, "Unnamed_ 3": null, "Unnamed_ 4": null, "Id": 0, "area": 136572.15568900001 }, "geometry": { "type": "Point", "coordinates": [ -76.527669564722189, 3.44269610869577 ] } },
{ "type": "Feature", "properties": { "ID": 7339.0, "X": 1061210.5865, "Y": 872455.5007, "Municipio": "CALI", "Codigo": "AI021503", "Fecha": "2025-05-02 00:00:00", "horah": "08:16:00", "hora": 8.0, "semana": 17.0, "mes": 5.0, "Año": 2025.0, "dia_sem": 5.0, "Tipo_Confi": "Lesiones", "direccion": "CALLE 14 CARRERA 15", "Clase_acci": "CHOQUE", "Tipo_Choqu": "VEHICULO", "placas": "BXJ38B", "No_Vehicul": "1", "Tipo_de_Ve": "MOTOCICLETA", "Ipat": 1635808.0, "Spoa": 81339.0, "SEXO": null, "EDAD": null, "CONDICION": null, "TIPO_DE_AC": null, "VEHICULOS1": null, "VEHICULOS2": null, "comuna": 3.0, "nombre": "Comuna 3", "id_barrio": 309.0, "barrio": "San Pascual", "Unnamed_ 0": null, "Unnamed_ 1": null, "Unnamed_ 2": null, "Unnamed_ 3": null, "Unnamed_ 4": null, "Id": 0, "area": 136572.15568900001 }, "geometry": { "type": "Point", "coordinates": [ -76.5266649315774, 3.442624403570239 ] } },
{ "type": "Feature", "properties": { "ID": 7343.0, "X": 1060764.5, "Y": 872464.0, "Municipio": "CALI", "Codigo": "AI026831", "Fecha": "2025-08-24 00:00:00", "horah": "01:45:00", "hora": 1.0, "semana": 34.0, "mes": 8.0, "Año": 2025.0, "dia_sem": 7.0, "Tipo_Confi": "Lesiones", "direccion": "CARRERA 15 CALLE 11", "Clase_acci": "CHOQUE", "Tipo_Choqu": "VEHICULO", "placas": "TFH60F, HYM090, BGO02", "No_Vehicul": "3", "Tipo_de_Ve": "MOTOCICLETA,AUTOMOVIL,MOTOCICLETA", "Ipat": 1720369.0, "Spoa": 82637.0, "SEXO": null, "EDAD": null, "CONDICION": null, "TIPO_DE_AC": null, "VEHICULOS1": null, "VEHICULOS2": null, "comuna": 3.0, "nombre": "Comuna 3", "id_barrio": 306.0, "barrio": "San Juan Bosco", "Unnamed_ 0": null, "Unnamed_ 1": null, "Unnamed_ 2": null, "Unnamed_ 3": null, "Unnamed_ 4": null, "Id": 0, "area": 136572.15568900001 }, "geometry": { "type": "Point", "coordinates": [ -76.530679161547781, 3.442703582767557 ] } },
{ "type": "Feature", "properties": { "ID": 7356.0, "X": 1061102.5615000001, "Y": 872470.9467, "Municipio": "CALI", "Codigo": "<Null>", "Fecha": "2023-02-16 00:00:00", "horah": "00:00:00", "hora": 9.0, "semana": 7.0, "mes": 2.0, "Año": 2023.0, "dia_sem": 5.0, "Tipo_Confi": "Mortal", "direccion": "KR 15 CL 14 - 32", "Clase_acci": "CHOQUE", "Tipo_Choqu": "CHOQUE", "placas": "VCX067", "No_Vehicul": "1", "Tipo_de_Ve": "BICICLETA,AUTOMOVIL", "Ipat": 0.0, "Spoa": 165202380436.0, "SEXO": "Masculino", "EDAD": "67", "CONDICION": "Ciclista", "TIPO_DE_AC": "Ciclista atropellado", "VEHICULOS1": "Bicicleta", "VEHICULOS2": "Automovil", "comuna": 3.0, "nombre": "Comuna 3", "id_barrio": 309.0, "barrio": "San Pascual", "Unnamed_ 0": null, "Unnamed_ 1": null, "Unnamed_ 2": null, "Unnamed_ 3": null, "Unnamed_ 4": null, "Id": 0, "area": 136572.15568900001 }, "geometry": { "type": "Point", "coordinates": [ -76.527636954002972, 3.442764644421843 ] } },
{ "type": "Feature", "properties": { "ID": 7357.0, "X": 1061007.3, "Y": 872471.3, "Municipio": "CALI", "Codigo": "AI025804", "Fecha": "2025-08-01 00:00:00", "horah": "15:55:00", "hora": 15.0, "semana": 30.0, "mes": 8.0, "Año": 2025.0, "dia_sem": 5.0, "Tipo_Confi": "Lesiones", "direccion": "CARRERA 15 CALLE 13", "Clase_acci": "CHOQUE", "Tipo_Choqu": "VEHICULO", "placas": "VCK954, VCX518", "No_Vehicul": "0", "Tipo_de_Ve": null, "Ipat": 1720070.0, "Spoa": 82379.0, "SEXO": null, "EDAD": null, "CONDICION": null, "TIPO_DE_AC": null, "VEHICULOS1": null, "VEHICULOS2": null, "comuna": 3.0, "nombre": "Comuna 3", "id_barrio": 309.0, "barrio": "San Pascual", "Unnamed_ 0": null, "Unnamed_ 1": null, "Unnamed_ 2": null, "Unnamed_ 3": null, "Unnamed_ 4": null, "Id": 0, "area": 136572.15568900001 }, "geometry": { "type": "Point", "coordinates": [ -76.528494197933512, 3.442768335389784 ] } },
{ "type": "Feature", "properties": { "ID": 7358.0, "X": 1061007.3, "Y": 872471.3, "Municipio": "CALI", "Codigo": "AI032503", "Fecha": "2025-12-15 00:00:00", "horah": "17:20:00", "hora": 17.0, "semana": 50.0, "mes": 12.0, "Año": 2025.0, "dia_sem": 1.0, "Tipo_Confi": "Lesiones", "direccion": "CARRERA 15   CALLE 13", "Clase_acci": "CAIDA DE OCUPANTE", "Tipo_Choqu": null, "placas": "VCQ453", "No_Vehicul": "1", "Tipo_de_Ve": "BUS", "Ipat": 1721643.0, "Spoa": 83892.0, "SEXO": null, "EDAD": null, "CONDICION": null, "TIPO_DE_AC": null, "VEHICULOS1": null, "VEHICULOS2": null, "comuna": 3.0, "nombre": "Comuna 3", "id_barrio": 309.0, "barrio": "San Pascual", "Unnamed_ 0": null, "Unnamed_ 1": null, "Unnamed_ 2": null, "Unnamed_ 3": null, "Unnamed_ 4": null, "Id": 0, "area": 136572.15568900001 }, "geometry": { "type": "Point", "coordinates": [ -76.528494197933512, 3.442768335389784 ] } },
{ "type": "Feature", "properties": { "ID": 7359.0, "X": 1060903.3, "Y": 872473.0, "Municipio": "CALI", "Codigo": "AI024379", "Fecha": "2025-07-03 00:00:00", "horah": "18:22:00", "hora": 18.0, "semana": 26.0, "mes": 7.0, "Año": 2025.0, "dia_sem": 5.0, "Tipo_Confi": "Lesiones", "direccion": "CARRERA 15 CALLE 12", "Clase_acci": "ATROPELLO", "Tipo_Choqu": null, "placas": "VCW393", "No_Vehicul": "1", "Tipo_de_Ve": "BUS", "Ipat": 1719724.0, "Spoa": 82027.0, "SEXO": null, "EDAD": null, "CONDICION": null, "TIPO_DE_AC": null, "VEHICULOS1": null, "VEHICULOS2": null, "comuna": 3.0, "nombre": "Comuna 3", "id_barrio": 309.0, "barrio": "San Pascual", "Unnamed_ 0": null, "Unnamed_ 1": null, "Unnamed_ 2": null, "Unnamed_ 3": null, "Unnamed_ 4": null, "Id": 0, "area": 136572.15568900001 }, "geometry": { "type": "Point", "coordinates": [ -76.52943007166715, 3.442784249124407 ] } },
{ "type": "Feature", "properties": { "ID": 7360.0, "X": 1060903.3, "Y": 872473.0, "Municipio": "CALI", "Codigo": "AI028610", "Fecha": "2025-09-28 00:00:00", "horah": "14:31:00", "hora": 14.0, "semana": 39.0, "mes": 9.0, "Año": 2025.0, "dia_sem": 7.0, "Tipo_Confi": "Lesiones", "direccion": "CARRERA 15 CALLE 12", "Clase_acci": "ATROPELLO", "Tipo_Choqu": null, "placas": "THP28G", "No_Vehicul": "1", "Tipo_de_Ve": "MOTOCICLETA", "Ipat": 1720793.0, "Spoa": 83025.0, "SEXO": null, "EDAD": null, "CONDICION": null, "TIPO_DE_AC": null, "VEHICULOS1": null, "VEHICULOS2": null, "comuna": 3.0, "nombre": "Comuna 3", "id_barrio": 309.0, "barrio": "San Pascual", "Unnamed_ 0": null, "Unnamed_ 1": null, "Unnamed_ 2": null, "Unnamed_ 3": null, "Unnamed_ 4": null, "Id": 0, "area": 136572.15568900001 }, "geometry": { "type": "Point", "coordinates": [ -76.52943007166715, 3.442784249124407 ] } },
{ "type": "Feature", "properties": { "ID": 7391.0, "X": 1060628.2834000001, "Y": 872437.3224, "Municipio": "CALI", "Codigo": "AI008917", "Fecha": "2024-07-04 00:00:00", "horah": "15:20:00", "hora": 15.0, "semana": 27.0, "mes": 7.0, "Año": 2024.0, "dia_sem": 4.0, "Tipo_Confi": "Lesiones", "direccion": "CARRERA 15  SIN INFORMACION, CALLE 10 N", "Clase_acci": "ATROPELLO", "Tipo_Choqu": null, "placas": "SHG43D", "No_Vehicul": "1", "Tipo_de_Ve": "MOTOCICLETA", "Ipat": 1629836.0, "Spoa": 82022.0, "SEXO": null, "EDAD": "0", "CONDICION": null, "TIPO_DE_AC": null, "VEHICULOS1": null, "VEHICULOS2": null, "comuna": 3.0, "nombre": "Comuna 3", "id_barrio": 306.0, "barrio": "San Juan Bosco", "Unnamed_ 0": null, "Unnamed_ 1": null, "Unnamed_ 2": null, "Unnamed_ 3": null, "Unnamed_ 4": null, "Id": 0, "area": 136572.15568900001 }, "geometry": { "type": "Point", "coordinates": [ -76.531905094753, 3.442463043641148 ] } },
{ "type": "Feature", "properties": { "ID": 7392.0, "X": 1060627.4534, "Y": 872437.8148000001, "Municipio": "CALI", "Codigo": "AI009591", "Fecha": "2024-07-22 00:00:00", "horah": "19:26:00", "hora": 19.0, "semana": 30.0, "mes": 7.0, "Año": 2024.0, "dia_sem": 1.0, "Tipo_Confi": "Lesiones", "direccion": "CALLE 10  , CARRERA 15", "Clase_acci": "CHOQUE", "Tipo_Choqu": "VEHICULO", "placas": "JBO58G", "No_Vehicul": "1", "Tipo_de_Ve": "MOTOCICLETA", "Ipat": 1632631.0, "Spoa": 82198.0, "SEXO": null, "EDAD": "0", "CONDICION": null, "TIPO_DE_AC": null, "VEHICULOS1": null, "VEHICULOS2": null, "comuna": 3.0, "nombre": "Comuna 3", "id_barrio": 306.0, "barrio": "San Juan Bosco", "Unnamed_ 0": null, "Unnamed_ 1": null, "Unnamed_ 2": null, "Unnamed_ 3": null, "Unnamed_ 4": null, "Id": 0, "area": 136572.15568900001 }, "geometry": { "type": "Point", "coordinates": [ -76.531912561283065, 3.442467500683775 ] } },
{ "type": "Feature", "properties": { "ID": 7393.0, "X": 1060628.6461, "Y": 872437.8151, "Municipio": "CALI", "Codigo": "AI011589", "Fecha": "2024-09-14 00:00:00", "horah": "03:24:00", "hora": 3.0, "semana": 37.0, "mes": 9.0, "Año": 2024.0, "dia_sem": 6.0, "Tipo_Confi": "Lesiones", "direccion": "CALLE 10  , CARRERA 15", "Clase_acci": "CHOQUE", "Tipo_Choqu": "VEHICULO", "placas": "QNF22E, DFV919", "No_Vehicul": "2", "Tipo_de_Ve": "MOTOCICLETA,AUTOMOVIL", "Ipat": 1633558.0, "Spoa": 82865.0, "SEXO": null, "EDAD": "0", "CONDICION": null, "TIPO_DE_AC": null, "VEHICULOS1": null, "VEHICULOS2": null, "comuna": 3.0, "nombre": "Comuna 3", "id_barrio": 306.0, "barrio": "San Juan Bosco", "Unnamed_ 0": null, "Unnamed_ 1": null, "Unnamed_ 2": null, "Unnamed_ 3": null, "Unnamed_ 4": null, "Id": 0, "area": 136572.15568900001 }, "geometry": { "type": "Point", "coordinates": [ -76.531901828326852, 3.442467497229389 ] } },
{ "type": "Feature", "properties": { "ID": 7394.0, "X": 1060614.9664, "Y": 872545.7567, "Municipio": "CALI", "Codigo": "AI011950", "Fecha": "2024-09-22 00:00:00", "horah": "17:00:00", "hora": 17.0, "semana": 39.0, "mes": 9.0, "Año": 2024.0, "dia_sem": 7.0, "Tipo_Confi": "Lesiones", "direccion": "CALLE 10  , CARRERA 14", "Clase_acci": "CHOQUE", "Tipo_Choqu": "VEHICULO", "placas": "SFA43E, EXD32C, HMP595", "No_Vehicul": "3", "Tipo_de_Ve": "MOTOCICLETA,MOTOCICLETA,AUTOMOVIL", "Ipat": 1633700.0, "Spoa": 82999.0, "SEXO": null, "EDAD": "0", "CONDICION": null, "TIPO_DE_AC": null, "VEHICULOS1": null, "VEHICULOS2": null, "comuna": 3.0, "nombre": "Comuna 3", "id_barrio": 306.0, "barrio": "San Juan Bosco", "Unnamed_ 0": null, "Unnamed_ 1": null, "Unnamed_ 2": null, "Unnamed_ 3": null, "Unnamed_ 4": null, "Id": 0, "area": 136572.15568900001 }, "geometry": { "type": "Point", "coordinates": [ -76.532024374809296, 3.443443678953262 ] } },
{ "type": "Feature", "properties": { "ID": 7395.0, "X": 1060614.9664, "Y": 872545.7567, "Municipio": "CALI", "Codigo": "AI012099", "Fecha": "2024-09-26 00:00:00", "horah": "14:17:00", "hora": 14.0, "semana": 39.0, "mes": 9.0, "Año": 2024.0, "dia_sem": 4.0, "Tipo_Confi": "Lesiones", "direccion": "CALLE 10  , CARRERA 14", "Clase_acci": "CHOQUE", "Tipo_Choqu": "VEHICULO", "placas": "IVC31E, VCI364", "No_Vehicul": "2", "Tipo_de_Ve": "MOTOCICLETA,CAMIONETA", "Ipat": 1633338.0, "Spoa": 83040.0, "SEXO": null, "EDAD": "0", "CONDICION": null, "TIPO_DE_AC": null, "VEHICULOS1": null, "VEHICULOS2": null, "comuna": 3.0, "nombre": "Comuna 3", "id_barrio": 306.0, "barrio": "San Juan Bosco", "Unnamed_ 0": null, "Unnamed_ 1": null, "Unnamed_ 2": null, "Unnamed_ 3": null, "Unnamed_ 4": null, "Id": 0, "area": 136572.15568900001 }, "geometry": { "type": "Point", "coordinates": [ -76.532024374809296, 3.443443678953262 ] } },
{ "type": "Feature", "properties": { "ID": 7396.0, "X": 1060628.6461, "Y": 872437.8151, "Municipio": "CALI", "Codigo": "AI012962", "Fecha": "2024-10-20 00:00:00", "horah": "04:47:00", "hora": 4.0, "semana": 43.0, "mes": 10.0, "Año": 2024.0, "dia_sem": 7.0, "Tipo_Confi": "Lesiones", "direccion": "CALLE 10  , CARRERA 15", "Clase_acci": "CHOQUE", "Tipo_Choqu": "VEHICULO", "placas": "UBQ092, JBS15G", "No_Vehicul": "2", "Tipo_de_Ve": "AUTOMOVIL,MOTOCICLETA", "Ipat": 1634014.0, "Spoa": 83291.0, "SEXO": null, "EDAD": "0", "CONDICION": null, "TIPO_DE_AC": null, "VEHICULOS1": null, "VEHICULOS2": null, "comuna": 3.0, "nombre": "Comuna 3", "id_barrio": 306.0, "barrio": "San Juan Bosco", "Unnamed_ 0": null, "Unnamed_ 1": null, "Unnamed_ 2": null, "Unnamed_ 3": null, "Unnamed_ 4": null, "Id": 0, "area": 136572.15568900001 }, "geometry": { "type": "Point", "coordinates": [ -76.531901828326852, 3.442467497229389 ] } },
{ "type": "Feature", "properties": { "ID": 7397.0, "X": 1060614.9664, "Y": 872545.7567, "Municipio": "CALI", "Codigo": "AI012965", "Fecha": "2024-10-20 00:00:00", "horah": "10:59:00", "hora": 10.0, "semana": 43.0, "mes": 10.0, "Año": 2024.0, "dia_sem": 7.0, "Tipo_Confi": "Lesiones", "direccion": "CARRERA 14  , CALLE 10", "Clase_acci": "CHOQUE", "Tipo_Choqu": "VEHICULO", "placas": "EHU020, FTR09E", "No_Vehicul": "2", "Tipo_de_Ve": "CAMIONETA,MOTOCICLETA", "Ipat": 1634029.0, "Spoa": 83292.0, "SEXO": null, "EDAD": "0", "CONDICION": null, "TIPO_DE_AC": null, "VEHICULOS1": null, "VEHICULOS2": null, "comuna": 3.0, "nombre": "Comuna 3", "id_barrio": 306.0, "barrio": "San Juan Bosco", "Unnamed_ 0": null, "Unnamed_ 1": null, "Unnamed_ 2": null, "Unnamed_ 3": null, "Unnamed_ 4": null, "Id": 0, "area": 136572.15568900001 }, "geometry": { "type": "Point", "coordinates": [ -76.532024374809296, 3.443443678953262 ] } },
{ "type": "Feature", "properties": { "ID": 7398.0, "X": 1060627.4534, "Y": 872438.9992, "Municipio": "CALI", "Codigo": null, "Fecha": "2024-10-20 00:00:00", "horah": "02:40:00", "hora": 2.0, "semana": 43.0, "mes": 10.0, "Año": 2024.0, "dia_sem": 7.0, "Tipo_Confi": "Mortal", "direccion": "CL 10 KR 15", "Clase_acci": "CHOQUE", "Tipo_Choqu": "VEHICULO", "placas": "JBS15G, UBQ092", "No_Vehicul": "2", "Tipo_de_Ve": "AUTOMOVIL,MOTOCICLETA", "Ipat": 0.0, "Spoa": 165202483291.0, "SEXO": "Femenino", "EDAD": "40", "CONDICION": "Parrillero", "TIPO_DE_AC": "Colisión con objeto móvil", "VEHICULOS1": "Motocicleta", "VEHICULOS2": "Automovil", "comuna": 3.0, "nombre": "Comuna 3", "id_barrio": 306.0, "barrio": "San Juan Bosco", "Unnamed_ 0": null, "Unnamed_ 1": null, "Unnamed_ 2": null, "Unnamed_ 3": null, "Unnamed_ 4": null, "Id": 0, "area": 136572.15568900001 }, "geometry": { "type": "Point", "coordinates": [ -76.531912555188612, 3.44247821115919 ] } },
{ "type": "Feature", "properties": { "ID": 7450.0, "X": 1061263.4916900001, "Y": 872531.65935500001, "Municipio": "Cali", "Codigo": "<Null>", "Fecha": "2023-12-16 00:00:00", "horah": "<Null>", "hora": 0.0, "semana": 50.0, "mes": 12.0, "Año": 2023.0, "dia_sem": 6.0, "Tipo_Confi": "Lesiones", "direccion": "CALLE 15   CARRERA 14", "Clase_acci": "CHOQUE", "Tipo_Choqu": null, "placas": "EQM419,FMJ18G", "No_Vehicul": "2", "Tipo_de_Ve": "BUS,MOTOCICLETA", "Ipat": 1630108.0, "Spoa": 83837.0, "SEXO": null, "EDAD": "0", "CONDICION": null, "TIPO_DE_AC": null, "VEHICULOS1": null, "VEHICULOS2": null, "comuna": 3.0, "nombre": "Comuna 3", "id_barrio": 309.0, "barrio": "San Pascual", "Unnamed_ 0": null, "Unnamed_ 1": null, "Unnamed_ 2": null, "Unnamed_ 3": null, "Unnamed_ 4": null, "Id": 0, "area": 136572.15568900001 }, "geometry": { "type": "Point", "coordinates": [ -76.526188448853887, 3.443312825833661 ] } },
{ "type": "Feature", "properties": { "ID": 7451.0, "X": 1060992.244, "Y": 872531.9284, "Municipio": "Cali", "Codigo": "<Null>", "Fecha": "2023-11-05 00:00:00", "horah": "<Null>", "hora": 0.0, "semana": 45.0, "mes": 11.0, "Año": 2023.0, "dia_sem": 7.0, "Tipo_Confi": "Lesiones", "direccion": "Calle 13 Con Carrera 14", "Clase_acci": "Caída Ocupante", "Tipo_Choqu": null, "placas": "PASAJERO, VCX172", "No_Vehicul": "2", "Tipo_de_Ve": "BUS ARTICULADO", "Ipat": 1527285.0, "Spoa": 83403.0, "SEXO": null, "EDAD": "0", "CONDICION": null, "TIPO_DE_AC": null, "VEHICULOS1": null, "VEHICULOS2": null, "comuna": 3.0, "nombre": "Comuna 3", "id_barrio": 309.0, "barrio": "San Pascual", "Unnamed_ 0": null, "Unnamed_ 1": null, "Unnamed_ 2": null, "Unnamed_ 3": null, "Unnamed_ 4": null, "Id": 0, "area": 136572.15568900001 }, "geometry": { "type": "Point", "coordinates": [ -76.528629371018368, 3.443316673285644 ] } },
{ "type": "Feature", "properties": { "ID": 7461.0, "X": 1060758.8558, "Y": 872537.571, "Municipio": "Cali", "Codigo": "<Null>", "Fecha": "2023-02-24 00:00:00", "horah": "<Null>", "hora": 0.0, "semana": 8.0, "mes": 2.0, "Año": 2023.0, "dia_sem": 5.0, "Tipo_Confi": "Lesiones", "direccion": "Calle 11 Con Carrera 14", "Clase_acci": "Atropello", "Tipo_Choqu": null, "placas": "CON PEATON, MWX855", "No_Vehicul": "2", "Tipo_de_Ve": null, "Ipat": 1525639.0, "Spoa": 80532.0, "SEXO": null, "EDAD": "0", "CONDICION": null, "TIPO_DE_AC": null, "VEHICULOS1": null, "VEHICULOS2": null, "comuna": 3.0, "nombre": "Comuna 3", "id_barrio": 306.0, "barrio": "San Juan Bosco", "Unnamed_ 0": null, "Unnamed_ 1": null, "Unnamed_ 2": null, "Unnamed_ 3": null, "Unnamed_ 4": null, "Id": 0, "area": 136572.15568900001 }, "geometry": { "type": "Point", "coordinates": [ -76.53072957353362, 3.443368911091597 ] } },
{ "type": "Feature", "properties": { "ID": 7469.0, "X": 1060606.7089, "Y": 872540.5588, "Municipio": "Cali", "Codigo": "<Null>", "Fecha": "2023-02-06 00:00:00", "horah": "<Null>", "hora": 0.0, "semana": 6.0, "mes": 2.0, "Año": 2023.0, "dia_sem": 1.0, "Tipo_Confi": "Lesiones", "direccion": "Calle 10 Carrera 14", "Clase_acci": null, "Tipo_Choqu": null, "placas": "TGW75F, KIO555", "No_Vehicul": "2", "Tipo_de_Ve": "AUTOMOVIL,MOTOCICLETA", "Ipat": 1524981.0, "Spoa": 80336.0, "SEXO": null, "EDAD": "0", "CONDICION": null, "TIPO_DE_AC": null, "VEHICULOS1": null, "VEHICULOS2": null, "comuna": 3.0, "nombre": "Comuna 3", "id_barrio": 306.0, "barrio": "San Juan Bosco", "Unnamed_ 0": null, "Unnamed_ 1": null, "Unnamed_ 2": null, "Unnamed_ 3": null, "Unnamed_ 4": null, "Id": 0, "area": 136572.15568900001 }, "geometry": { "type": "Point", "coordinates": [ -76.532098709817177, 3.443396717277381 ] } },
{ "type": "Feature", "properties": { "ID": 7473.0, "X": 1060626.7, "Y": 872542.2, "Municipio": "CALI", "Codigo": "AI019177", "Fecha": "2025-03-12 00:00:00", "horah": "07:53:00", "hora": 7.0, "semana": 10.0, "mes": 3.0, "Año": 2025.0, "dia_sem": 3.0, "Tipo_Confi": "Lesiones", "direccion": "CALLE 10  , CARRERA 14", "Clase_acci": "CHOQUE", "Tipo_Choqu": "VEHICULO", "placas": "MYL646, RPJ67C", "No_Vehicul": "2", "Tipo_de_Ve": "AUTOMOVIL,MOTOCICLETA", "Ipat": 1635832.0, "Spoa": 80779.0, "SEXO": null, "EDAD": null, "CONDICION": null, "TIPO_DE_AC": null, "VEHICULOS1": null, "VEHICULOS2": null, "comuna": 3.0, "nombre": "Comuna 3", "id_barrio": 306.0, "barrio": "San Juan Bosco", "Unnamed_ 0": null, "Unnamed_ 1": null, "Unnamed_ 2": null, "Unnamed_ 3": null, "Unnamed_ 4": null, "Id": 0, "area": 136572.15568900001 }, "geometry": { "type": "Point", "coordinates": [ -76.531918803842146, 3.44341145519458 ] } },
{ "type": "Feature", "properties": { "ID": 7642.0, "X": 1060615.8, "Y": 872639.1, "Municipio": "CALI", "Codigo": "AI029674", "Fecha": "2025-10-19 00:00:00", "horah": "20:46:00", "hora": 20.0, "semana": 42.0, "mes": 10.0, "Año": 2025.0, "dia_sem": 7.0, "Tipo_Confi": "Lesiones", "direccion": "CALLE 10 CARRERA 13", "Clase_acci": "ATROPELLO", "Tipo_Choqu": null, "placas": "SFB29E", "No_Vehicul": "1", "Tipo_de_Ve": "MOTOCICLETA", "Ipat": 1721043.0, "Spoa": 83250.0, "SEXO": null, "EDAD": null, "CONDICION": null, "TIPO_DE_AC": null, "VEHICULOS1": null, "VEHICULOS2": null, "comuna": 3.0, "nombre": "Comuna 3", "id_barrio": 306.0, "barrio": "San Juan Bosco", "Unnamed_ 0": null, "Unnamed_ 1": null, "Unnamed_ 2": null, "Unnamed_ 3": null, "Unnamed_ 4": null, "Id": 0, "area": 136572.15568900001 }, "geometry": { "type": "Point", "coordinates": [ -76.532016392931311, 3.444287773855606 ] } },
{ "type": "Feature", "properties": { "ID": 7645.0, "X": 1060762.3021, "Y": 872640.425, "Municipio": "Cali", "Codigo": "<Null>", "Fecha": "2023-03-04 00:00:00", "horah": "<Null>", "hora": 0.0, "semana": 9.0, "mes": 3.0, "Año": 2023.0, "dia_sem": 6.0, "Tipo_Confi": "Daños", "direccion": "Calle 11 Con Carrera 13", "Clase_acci": null, "Tipo_Choqu": null, "placas": null, "No_Vehicul": "0", "Tipo_de_Ve": null, "Ipat": 0.0, "Spoa": 0.0, "SEXO": null, "EDAD": "0", "CONDICION": null, "TIPO_DE_AC": null, "VEHICULOS1": null, "VEHICULOS2": null, "comuna": 3.0, "nombre": "Comuna 3", "id_barrio": 306.0, "barrio": "San Juan Bosco", "Unnamed_ 0": null, "Unnamed_ 1": null, "Unnamed_ 2": null, "Unnamed_ 3": null, "Unnamed_ 4": null, "Id": 0, "area": 136572.15568900001 }, "geometry": { "type": "Point", "coordinates": [ -76.530698030064343, 3.444298997063191 ] } },
{ "type": "Feature", "properties": { "ID": 7646.0, "X": 1060762.3021, "Y": 872640.425, "Municipio": "Cali", "Codigo": "<Null>", "Fecha": "2023-03-04 00:00:00", "horah": "<Null>", "hora": 0.0, "semana": 9.0, "mes": 3.0, "Año": 2023.0, "dia_sem": 6.0, "Tipo_Confi": "Lesiones", "direccion": "Calle 11 Con Carrera 13", "Clase_acci": "Choque", "Tipo_Choqu": null, "placas": "CARRETA, DTO102", "No_Vehicul": "2", "Tipo_de_Ve": "AUTOMOVIL", "Ipat": 1525818.0, "Spoa": 80627.0, "SEXO": null, "EDAD": "0", "CONDICION": null, "TIPO_DE_AC": null, "VEHICULOS1": null, "VEHICULOS2": null, "comuna": 3.0, "nombre": "Comuna 3", "id_barrio": 306.0, "barrio": "San Juan Bosco", "Unnamed_ 0": null, "Unnamed_ 1": null, "Unnamed_ 2": null, "Unnamed_ 3": null, "Unnamed_ 4": null, "Id": 0, "area": 136572.15568900001 }, "geometry": { "type": "Point", "coordinates": [ -76.530698030064343, 3.444298997063191 ] } },
{ "type": "Feature", "properties": { "ID": 7647.0, "X": 1060762.3021, "Y": 872640.425, "Municipio": "Cali", "Codigo": "<Null>", "Fecha": "2023-09-25 00:00:00", "horah": "<Null>", "hora": 0.0, "semana": 39.0, "mes": 9.0, "Año": 2023.0, "dia_sem": 1.0, "Tipo_Confi": "Lesiones", "direccion": "Calle 11 Con Carrera 13", "Clase_acci": null, "Tipo_Choqu": null, "placas": "DWZ 62 A, VCD 474", "No_Vehicul": "2", "Tipo_de_Ve": "BUS,MOTOCICLETA", "Ipat": 1528363.0, "Spoa": 82926.0, "SEXO": null, "EDAD": "0", "CONDICION": null, "TIPO_DE_AC": null, "VEHICULOS1": null, "VEHICULOS2": null, "comuna": 3.0, "nombre": "Comuna 3", "id_barrio": 306.0, "barrio": "San Juan Bosco", "Unnamed_ 0": null, "Unnamed_ 1": null, "Unnamed_ 2": null, "Unnamed_ 3": null, "Unnamed_ 4": null, "Id": 0, "area": 136572.15568900001 }, "geometry": { "type": "Point", "coordinates": [ -76.530698030064343, 3.444298997063191 ] } },
{ "type": "Feature", "properties": { "ID": 7663.0, "X": 1061237.5979, "Y": 872609.9937, "Municipio": "CALI", "Codigo": "AI007168", "Fecha": "2024-05-18 00:00:00", "horah": "10:51:00", "hora": 10.0, "semana": 20.0, "mes": 5.0, "Año": 2024.0, "dia_sem": 7.0, "Tipo_Confi": "Daños", "direccion": "CALLE 15  , CARRERA 13 A", "Clase_acci": "CHOQUE", "Tipo_Choqu": "VEHICULO", "placas": "ENU190,AQB66F", "No_Vehicul": "1", "Tipo_de_Ve": "CAMION", "Ipat": 1632036.0, "Spoa": 0.0, "SEXO": null, "EDAD": "0", "CONDICION": null, "TIPO_DE_AC": null, "VEHICULOS1": null, "VEHICULOS2": null, "comuna": 3.0, "nombre": "Comuna 3", "id_barrio": 309.0, "barrio": "San Pascual", "Unnamed_ 0": null, "Unnamed_ 1": null, "Unnamed_ 2": null, "Unnamed_ 3": null, "Unnamed_ 4": null, "Id": 0, "area": 136572.15568900001 }, "geometry": { "type": "Point", "coordinates": [ -76.526421056466589, 3.444021334387227 ] } },
{ "type": "Feature", "properties": { "ID": 7664.0, "X": 1061236.7036, "Y": 872611.6222, "Municipio": "CALI", "Codigo": "AI010166", "Fecha": "2024-08-08 00:00:00", "horah": "09:27:00", "hora": 9.0, "semana": 32.0, "mes": 8.0, "Año": 2024.0, "dia_sem": 4.0, "Tipo_Confi": "Lesiones", "direccion": "CALLE 15  , CARRERA 13 A", "Clase_acci": "ATROPELLO", "Tipo_Choqu": null, "placas": "BTN97E", "No_Vehicul": "1", "Tipo_de_Ve": "MOTOCICLETA", "Ipat": 1632914.0, "Spoa": 82380.0, "SEXO": null, "EDAD": "0", "CONDICION": null, "TIPO_DE_AC": null, "VEHICULOS1": null, "VEHICULOS2": null, "comuna": 3.0, "nombre": "Comuna 3", "id_barrio": 309.0, "barrio": "San Pascual", "Unnamed_ 0": null, "Unnamed_ 1": null, "Unnamed_ 2": null, "Unnamed_ 3": null, "Unnamed_ 4": null, "Id": 0, "area": 136572.15568900001 }, "geometry": { "type": "Point", "coordinates": [ -76.526429095695789, 3.444036065497575 ] } },
{ "type": "Feature", "properties": { "ID": 7665.0, "X": 1061214.6973000001, "Y": 872681.7176, "Municipio": "CALI", "Codigo": "AI013713", "Fecha": "2024-11-06 00:00:00", "horah": "16:40:00", "hora": 16.0, "semana": 45.0, "mes": 11.0, "Año": 2024.0, "dia_sem": 3.0, "Tipo_Confi": "Lesiones", "direccion": "CALLE 15  , CARRERA 13", "Clase_acci": "CHOQUE", "Tipo_Choqu": "VEHICULO", "placas": "FOZ03H, VCQ757", "No_Vehicul": "2", "Tipo_de_Ve": "MOTOCICLETA,BUS", "Ipat": 1633935.0, "Spoa": 83490.0, "SEXO": null, "EDAD": "0", "CONDICION": null, "TIPO_DE_AC": null, "VEHICULOS1": null, "VEHICULOS2": null, "comuna": 3.0, "nombre": "Comuna 3", "id_barrio": 309.0, "barrio": "San Pascual", "Unnamed_ 0": null, "Unnamed_ 1": null, "Unnamed_ 2": null, "Unnamed_ 3": null, "Unnamed_ 4": null, "Id": 0, "area": 136572.15568900001 }, "geometry": { "type": "Point", "coordinates": [ -76.526626763341667, 3.444670049393755 ] } },
{ "type": "Feature", "properties": { "ID": 7693.0, "X": 1060949.7906, "Y": 872651.8145, "Municipio": "Cali", "Codigo": "<Null>", "Fecha": "2023-11-11 00:00:00", "horah": "<Null>", "hora": 0.0, "semana": 45.0, "mes": 11.0, "Año": 2023.0, "dia_sem": 6.0, "Tipo_Confi": "Daños", "direccion": "Calle 13 Con Carrera 13", "Clase_acci": null, "Tipo_Choqu": null, "placas": "VCW954, VCN073", "No_Vehicul": "2", "Tipo_de_Ve": "AUTOMOVIL,CAMION", "Ipat": 1629777.0, "Spoa": 0.0, "SEXO": null, "EDAD": "0", "CONDICION": null, "TIPO_DE_AC": null, "VEHICULOS1": null, "VEHICULOS2": null, "comuna": 3.0, "nombre": "Comuna 3", "id_barrio": 309.0, "barrio": "San Pascual", "Unnamed_ 0": null, "Unnamed_ 1": null, "Unnamed_ 2": null, "Unnamed_ 3": null, "Unnamed_ 4": null, "Id": 0, "area": 136572.15568900001 }, "geometry": { "type": "Point", "coordinates": [ -76.529010783455618, 3.444401018101019 ] } },
{ "type": "Feature", "properties": { "ID": 7695.0, "X": 1060967.9, "Y": 872656.9, "Municipio": "CALI", "Codigo": "AI032006", "Fecha": "2025-12-05 00:00:00", "horah": "13:54:00", "hora": 13.0, "semana": 48.0, "mes": 12.0, "Año": 2025.0, "dia_sem": 5.0, "Tipo_Confi": "Lesiones", "direccion": "CALLE 13 CARRERA 13", "Clase_acci": "CHOQUE", "Tipo_Choqu": "VEHICULO", "placas": "HGE95D, KGG302", "No_Vehicul": "2", "Tipo_de_Ve": "MOTOCICLETA,BUSETA", "Ipat": 1721557.0, "Spoa": 83789.0, "SEXO": null, "EDAD": null, "CONDICION": null, "TIPO_DE_AC": null, "VEHICULOS1": null, "VEHICULOS2": null, "comuna": 3.0, "nombre": "Comuna 3", "id_barrio": 309.0, "barrio": "San Pascual", "Unnamed_ 0": null, "Unnamed_ 1": null, "Unnamed_ 2": null, "Unnamed_ 3": null, "Unnamed_ 4": null, "Id": 0, "area": 136572.15568900001 }, "geometry": { "type": "Point", "coordinates": [ -76.528847792705463, 3.444446911816167 ] } },
{ "type": "Feature", "properties": { "ID": 7708.0, "X": 1061054.593, "Y": 872661.3249, "Municipio": "Cali", "Codigo": "<Null>", "Fecha": "2023-11-19 00:00:00", "horah": "<Null>", "hora": 0.0, "semana": 47.0, "mes": 11.0, "Año": 2023.0, "dia_sem": 7.0, "Tipo_Confi": "Lesiones", "direccion": "Calle 13A Con Carrera 13", "Clase_acci": "Volcamiento", "Tipo_Choqu": null, "placas": "VOLCAMIENTO, USX90C", "No_Vehicul": "2", "Tipo_de_Ve": "MOTOCICLETA", "Ipat": 1629894.0, "Spoa": 83534.0, "SEXO": null, "EDAD": "0", "CONDICION": null, "TIPO_DE_AC": null, "VEHICULOS1": null, "VEHICULOS2": null, "comuna": 3.0, "nombre": "Comuna 3", "id_barrio": 309.0, "barrio": "San Pascual", "Unnamed_ 0": null, "Unnamed_ 1": null, "Unnamed_ 2": null, "Unnamed_ 3": null, "Unnamed_ 4": null, "Id": 0, "area": 136572.15568900001 }, "geometry": { "type": "Point", "coordinates": [ -76.5280676293917, 3.444486474588825 ] } },
{ "type": "Feature", "properties": { "ID": 7849.0, "X": 1061151.5419300001, "Y": 872754.2672, "Municipio": "Cali", "Codigo": "<Null>", "Fecha": "2023-05-21 00:00:00", "horah": "<Null>", "hora": 0.0, "semana": 21.0, "mes": 5.0, "Año": 2023.0, "dia_sem": 7.0, "Tipo_Confi": "Lesiones", "direccion": "Calle 14a Con Carrera 12 a", "Clase_acci": null, "Tipo_Choqu": null, "placas": "MJR664", "No_Vehicul": "1", "Tipo_de_Ve": "AUTOMOVIL", "Ipat": 1526782.0, "Spoa": 81471.0, "SEXO": null, "EDAD": "0", "CONDICION": null, "TIPO_DE_AC": null, "VEHICULOS1": null, "VEHICULOS2": null, "comuna": 3.0, "nombre": "Comuna 3", "id_barrio": 309.0, "barrio": "San Pascual", "Unnamed_ 0": null, "Unnamed_ 1": null, "Unnamed_ 2": null, "Unnamed_ 3": null, "Unnamed_ 4": null, "Id": 0, "area": 136572.15568900001 }, "geometry": { "type": "Point", "coordinates": [ -76.527194714446452, 3.44532644134505 ] } },
{ "type": "Feature", "properties": { "ID": 7851.0, "X": 1060737.513, "Y": 872754.3917, "Municipio": "CALI", "Codigo": "AI010622", "Fecha": "2024-08-21 00:00:00", "horah": "07:12:00", "hora": 7.0, "semana": 34.0, "mes": 8.0, "Año": 2024.0, "dia_sem": 3.0, "Tipo_Confi": "Lesiones", "direccion": "CALLE 11  , CARRERA 12", "Clase_acci": "CHOQUE", "Tipo_Choqu": "VEHICULO", "placas": "WRM27G, ADG97", "No_Vehicul": "2", "Tipo_de_Ve": "MOTOCICLETA,MOTOCICLETA", "Ipat": 1633164.0, "Spoa": 82528.0, "SEXO": null, "EDAD": "0", "CONDICION": null, "TIPO_DE_AC": null, "VEHICULOS1": null, "VEHICULOS2": null, "comuna": 3.0, "nombre": "Comuna 3", "id_barrio": 306.0, "barrio": "San Juan Bosco", "Unnamed_ 0": null, "Unnamed_ 1": null, "Unnamed_ 2": null, "Unnamed_ 3": null, "Unnamed_ 4": null, "Id": 0, "area": 136572.15568900001 }, "geometry": { "type": "Point", "coordinates": [ -76.530920516494362, 3.445329721040908 ] } },
{ "type": "Feature", "properties": { "ID": 7890.0, "X": 1060938.2, "Y": 872776.4, "Municipio": "CALI", "Codigo": "AI032660", "Fecha": "2025-12-18 00:00:00", "horah": "14:49:00", "hora": 14.0, "semana": 50.0, "mes": 12.0, "Año": 2025.0, "dia_sem": 4.0, "Tipo_Confi": "Lesiones", "direccion": "CALLE 13   CARRERA 12", "Clase_acci": "CHOQUE", "Tipo_Choqu": "VEHICULO", "placas": "NMN485, VCQ838", "No_Vehicul": "2", "Tipo_de_Ve": "CAMIONETA,BUS", "Ipat": 1721763.0, "Spoa": 83932.0, "SEXO": null, "EDAD": null, "CONDICION": null, "TIPO_DE_AC": null, "VEHICULOS1": null, "VEHICULOS2": null, "comuna": 3.0, "nombre": "Comuna 3", "id_barrio": 309.0, "barrio": "San Pascual", "Unnamed_ 0": null, "Unnamed_ 1": null, "Unnamed_ 2": null, "Unnamed_ 3": null, "Unnamed_ 4": null, "Id": 0, "area": 136572.15568900001 }, "geometry": { "type": "Point", "coordinates": [ -76.529114441120313, 3.445527698811726 ] } },
{ "type": "Feature", "properties": { "ID": 7891.0, "X": 1060938.2, "Y": 872776.4, "Municipio": "CALI", "Codigo": "<Null>", "Fecha": "2023-01-27 00:00:00", "horah": "00:00:00", "hora": 8.0, "semana": 4.0, "mes": 1.0, "Año": 2023.0, "dia_sem": 6.0, "Tipo_Confi": "Mortal", "direccion": "CL 13 KR 12", "Clase_acci": "ATROPELLO", "Tipo_Choqu": null, "placas": "VCX785", "No_Vehicul": "1", "Tipo_de_Ve": "PEATÓN,BUS MIO", "Ipat": 0.0, "Spoa": 193202300752.0, "SEXO": "Masculino", "EDAD": "64", "CONDICION": "Peatón", "TIPO_DE_AC": "Peatón atropellado", "VEHICULOS1": "Peatón", "VEHICULOS2": "Bus Mio", "comuna": 3.0, "nombre": "Comuna 3", "id_barrio": 309.0, "barrio": "San Pascual", "Unnamed_ 0": null, "Unnamed_ 1": null, "Unnamed_ 2": null, "Unnamed_ 3": null, "Unnamed_ 4": null, "Id": 0, "area": 136572.15568900001 }, "geometry": { "type": "Point", "coordinates": [ -76.529114441120313, 3.445527698811726 ] } },
{ "type": "Feature", "properties": { "ID": 7911.0, "X": 1060914.3830500001, "Y": 872789.05727, "Municipio": "Cali", "Codigo": "<Null>", "Fecha": "2023-05-15 00:00:00", "horah": "<Null>", "hora": 0.0, "semana": 20.0, "mes": 5.0, "Año": 2023.0, "dia_sem": 1.0, "Tipo_Confi": "Lesiones", "direccion": "Calle 13 Con Carrera 12", "Clase_acci": null, "Tipo_Choqu": null, "placas": "JZS116, VCX114", "No_Vehicul": "2", "Tipo_de_Ve": "AUTOMOVIL,\"BUS PADRON\"", "Ipat": 1525173.0, "Spoa": 81419.0, "SEXO": null, "EDAD": "0", "CONDICION": null, "TIPO_DE_AC": null, "VEHICULOS1": null, "VEHICULOS2": null, "comuna": 3.0, "nombre": "Comuna 3", "id_barrio": 310.0, "barrio": "El Calvario", "Unnamed_ 0": null, "Unnamed_ 1": null, "Unnamed_ 2": null, "Unnamed_ 3": null, "Unnamed_ 4": null, "Id": 0, "area": 136572.15568900001 }, "geometry": { "type": "Point", "coordinates": [ -76.529328701896119, 3.445642281742404 ] } },
{ "type": "Feature", "properties": { "ID": 7912.0, "X": 1060914.5682600001, "Y": 872789.63935499999, "Municipio": "Cali", "Codigo": "<Null>", "Fecha": "2023-04-26 00:00:00", "horah": "<Null>", "hora": 0.0, "semana": 17.0, "mes": 4.0, "Año": 2023.0, "dia_sem": 3.0, "Tipo_Confi": "Lesiones", "direccion": "Calle 13 Con Carrera 12", "Clase_acci": "Choque", "Tipo_Choqu": null, "placas": "BGU70D, WNV238", "No_Vehicul": "2", "Tipo_de_Ve": "CAMIONETA,MOTOCICLETA", "Ipat": 1523599.0, "Spoa": 81202.0, "SEXO": null, "EDAD": "0", "CONDICION": null, "TIPO_DE_AC": null, "VEHICULOS1": null, "VEHICULOS2": null, "comuna": 3.0, "nombre": "Comuna 3", "id_barrio": 310.0, "barrio": "El Calvario", "Unnamed_ 0": null, "Unnamed_ 1": null, "Unnamed_ 2": null, "Unnamed_ 3": null, "Unnamed_ 4": null, "Id": 0, "area": 136572.15568900001 }, "geometry": { "type": "Point", "coordinates": [ -76.529327032198069, 3.445647544544886 ] } },
{ "type": "Feature", "properties": { "ID": 7913.0, "X": 1060914.17138, "Y": 872789.90393899998, "Municipio": "Cali", "Codigo": "<Null>", "Fecha": "2023-01-01 00:00:00", "horah": "<Null>", "hora": 0.0, "semana": 1.0, "mes": 1.0, "Año": 2023.0, "dia_sem": 7.0, "Tipo_Confi": "Lesiones", "direccion": "Calle 13 Con Carrera 12", "Clase_acci": "Choque", "Tipo_Choqu": null, "placas": "LTY32D, VCQ929", "No_Vehicul": "2", "Tipo_de_Ve": "MOTOCICLETA,\"BUS PADRON\"", "Ipat": 1525062.0, "Spoa": 80003.0, "SEXO": null, "EDAD": "0", "CONDICION": null, "TIPO_DE_AC": null, "VEHICULOS1": null, "VEHICULOS2": null, "comuna": 3.0, "nombre": "Comuna 3", "id_barrio": 310.0, "barrio": "El Calvario", "Unnamed_ 0": null, "Unnamed_ 1": null, "Unnamed_ 2": null, "Unnamed_ 3": null, "Unnamed_ 4": null, "Id": 0, "area": 136572.15568900001 }, "geometry": { "type": "Point", "coordinates": [ -76.52933060231156, 3.445649939228594 ] } },
{ "type": "Feature", "properties": { "ID": 7953.0, "X": 1060591.2, "Y": 872821.4, "Municipio": "CALI", "Codigo": "AI023131", "Fecha": "2025-06-06 00:00:00", "horah": "16:01:00", "hora": 16.0, "semana": 22.0, "mes": 6.0, "Año": 2025.0, "dia_sem": 5.0, "Tipo_Confi": "Lesiones", "direccion": "CALLE 10 CARRERA 11", "Clase_acci": "CHOQUE", "Tipo_Choqu": "VEHICULO", "placas": "DGN81G, NIP64F", "No_Vehicul": "2", "Tipo_de_Ve": "MOTOCICLETA,MOTOCICLETA", "Ipat": 1636829.0, "Spoa": 23131.0, "SEXO": null, "EDAD": null, "CONDICION": null, "TIPO_DE_AC": null, "VEHICULOS1": null, "VEHICULOS2": null, "comuna": 3.0, "nombre": "Comuna 3", "id_barrio": 307.0, "barrio": "Santa Rosa", "Unnamed_ 0": null, "Unnamed_ 1": null, "Unnamed_ 2": null, "Unnamed_ 3": null, "Unnamed_ 4": null, "Id": 0, "area": 136572.15568900001 }, "geometry": { "type": "Point", "coordinates": [ -76.532236827406408, 3.445936431694099 ] } },
{ "type": "Feature", "properties": { "ID": 7984.0, "X": 1060892.6011399999, "Y": 872852.85543899995, "Municipio": "Cali", "Codigo": "<Null>", "Fecha": "2023-09-29 00:00:00", "horah": "<Null>", "hora": 0.0, "semana": 39.0, "mes": 9.0, "Año": 2023.0, "dia_sem": 5.0, "Tipo_Confi": "Lesiones", "direccion": "Calle 13 Con Carrera 11   y    12", "Clase_acci": "Choque", "Tipo_Choqu": null, "placas": "BUS FUGA, ZFU82F", "No_Vehicul": "2", "Tipo_de_Ve": "MOTOCICLETA", "Ipat": 17.0, "Spoa": 82967.0, "SEXO": null, "EDAD": "0", "CONDICION": null, "TIPO_DE_AC": null, "VEHICULOS1": null, "VEHICULOS2": null, "comuna": 3.0, "nombre": "Comuna 3", "id_barrio": 310.0, "barrio": "El Calvario", "Unnamed_ 0": null, "Unnamed_ 1": null, "Unnamed_ 2": null, "Unnamed_ 3": null, "Unnamed_ 4": null, "Id": 0, "area": 136572.15568900001 }, "geometry": { "type": "Point", "coordinates": [ -76.529524385035671, 3.446219318661838 ] } },
{ "type": "Feature", "properties": { "ID": 7987.0, "X": 1060702.2905, "Y": 872855.7556, "Municipio": "Cali", "Codigo": "<Null>", "Fecha": "2023-11-26 00:00:00", "horah": "<Null>", "hora": 0.0, "semana": 48.0, "mes": 11.0, "Año": 2023.0, "dia_sem": 7.0, "Tipo_Confi": "Lesiones", "direccion": "Calle 11 Con Carrera 11", "Clase_acci": null, "Tipo_Choqu": null, "placas": "JVY79G, MWR413", "No_Vehicul": "2", "Tipo_de_Ve": "AUTOMOVIL,MOTOCICLETA", "Ipat": 1629968.0, "Spoa": 83626.0, "SEXO": null, "EDAD": "0", "CONDICION": null, "TIPO_DE_AC": null, "VEHICULOS1": null, "VEHICULOS2": null, "comuna": 3.0, "nombre": "Comuna 3", "id_barrio": 307.0, "barrio": "Santa Rosa", "Unnamed_ 0": null, "Unnamed_ 1": null, "Unnamed_ 2": null, "Unnamed_ 3": null, "Unnamed_ 4": null, "Id": 0, "area": 136572.15568900001 }, "geometry": { "type": "Point", "coordinates": [ -76.531236957438878, 3.446246532576263 ] } },
{ "type": "Feature", "properties": { "ID": 7994.0, "X": 1060720.4, "Y": 872862.3, "Municipio": null, "Codigo": "<Null>", "Fecha": "2023-10-25 00:00:00", "horah": "00:00:00", "hora": 5.0, "semana": 43.0, "mes": 10.0, "Año": 2023.0, "dia_sem": 4.0, "Tipo_Confi": "Mortal", "direccion": "CL 11 KR 11", "Clase_acci": "VOLCAMIENTO", "Tipo_Choqu": null, "placas": "HMX56F", "No_Vehicul": "1", "Tipo_de_Ve": "MOTOCICLETA,", "Ipat": 0.0, "Spoa": 193202030239.0, "SEXO": "Masculino", "EDAD": "42", "CONDICION": "Motociclista", "TIPO_DE_AC": "Volcamiento", "VEHICULOS1": "Motocicleta", "VEHICULOS2": null, "comuna": 3.0, "nombre": "Comuna 3", "id_barrio": 310.0, "barrio": "El Calvario", "Unnamed_ 0": null, "Unnamed_ 1": null, "Unnamed_ 2": null, "Unnamed_ 3": null, "Unnamed_ 4": null, "Id": 0, "area": 136572.15568900001 }, "geometry": { "type": "Point", "coordinates": [ -76.531073957979913, 3.446305619401908 ] } },
{ "type": "Feature", "properties": { "ID": 8043.0, "X": 1060888.1887000001, "Y": 872903.819, "Municipio": "CALI", "Codigo": "AI006553", "Fecha": "2024-05-03 00:00:00", "horah": "30/12/1899 6:03:28 a. m.", "hora": 6.0, "semana": 18.0, "mes": 5.0, "Año": 2024.0, "dia_sem": 5.0, "Tipo_Confi": "Lesiones", "direccion": "CALLE 13  , CARRERA 11", "Clase_acci": "ATROPELLO", "Tipo_Choqu": null, "placas": "vcq477", "No_Vehicul": "1", "Tipo_de_Ve": "BUS", "Ipat": 1631722.0, "Spoa": 81333.0, "SEXO": null, "EDAD": "0", "CONDICION": null, "TIPO_DE_AC": null, "VEHICULOS1": null, "VEHICULOS2": null, "comuna": 3.0, "nombre": "Comuna 3", "id_barrio": 310.0, "barrio": "El Calvario", "Unnamed_ 0": null, "Unnamed_ 1": null, "Unnamed_ 2": null, "Unnamed_ 3": null, "Unnamed_ 4": null, "Id": 0, "area": 136572.15568900001 }, "geometry": { "type": "Point", "coordinates": [ -76.529563828486332, 3.446680202549465 ] } },
{ "type": "Feature", "properties": { "ID": 8044.0, "X": 1060887.5447, "Y": 872904.6597, "Municipio": "CALI", "Codigo": "AI006890", "Fecha": "2024-05-11 00:00:00", "horah": "30/12/1899 12:54:27 p. m.", "hora": 12.0, "semana": 19.0, "mes": 5.0, "Año": 2024.0, "dia_sem": 6.0, "Tipo_Confi": "Lesiones", "direccion": "CARRERA 11  , CALLE 13", "Clase_acci": "ATROPELLO", "Tipo_Choqu": null, "placas": "crv515", "No_Vehicul": "1", "Tipo_de_Ve": "MOTOCARRO", "Ipat": 1631896.0, "Spoa": 0.0, "SEXO": null, "EDAD": "0", "CONDICION": null, "TIPO_DE_AC": null, "VEHICULOS1": null, "VEHICULOS2": null, "comuna": 3.0, "nombre": "Comuna 3", "id_barrio": 310.0, "barrio": "El Calvario", "Unnamed_ 0": null, "Unnamed_ 1": null, "Unnamed_ 2": null, "Unnamed_ 3": null, "Unnamed_ 4": null, "Id": 0, "area": 136572.15568900001 }, "geometry": { "type": "Point", "coordinates": [ -76.529569619433303, 3.446687808306127 ] } },
{ "type": "Feature", "properties": { "ID": 8045.0, "X": 1060887.5447, "Y": 872904.6597, "Municipio": "CALI", "Codigo": "AI008153", "Fecha": "2024-06-13 00:00:00", "horah": "08:31:00", "hora": 8.0, "semana": 24.0, "mes": 6.0, "Año": 2024.0, "dia_sem": 4.0, "Tipo_Confi": "Lesiones", "direccion": "CARRERA 11  , CALLE 13", "Clase_acci": "ATROPELLO", "Tipo_Choqu": null, "placas": "ADL16E", "No_Vehicul": "1", "Tipo_de_Ve": "MOTOCICLETA", "Ipat": 1632224.0, "Spoa": 81792.0, "SEXO": null, "EDAD": "0", "CONDICION": null, "TIPO_DE_AC": null, "VEHICULOS1": null, "VEHICULOS2": null, "comuna": 3.0, "nombre": "Comuna 3", "id_barrio": 310.0, "barrio": "El Calvario", "Unnamed_ 0": null, "Unnamed_ 1": null, "Unnamed_ 2": null, "Unnamed_ 3": null, "Unnamed_ 4": null, "Id": 0, "area": 136572.15568900001 }, "geometry": { "type": "Point", "coordinates": [ -76.529569619433303, 3.446687808306127 ] } },
{ "type": "Feature", "properties": { "ID": 8046.0, "X": 1060795.3457, "Y": 872883.2929, "Municipio": "CALI", "Codigo": "AI012313", "Fecha": "2024-10-02 00:00:00", "horah": "10:03:00", "hora": 10.0, "semana": 40.0, "mes": 10.0, "Año": 2024.0, "dia_sem": 3.0, "Tipo_Confi": "Lesiones", "direccion": "CALLE 12  , CARRERA 11", "Clase_acci": "CHOQUE", "Tipo_Choqu": "VEHICULO", "placas": "WLS675", "No_Vehicul": "0", "Tipo_de_Ve": null, "Ipat": 1633815.0, "Spoa": 83097.0, "SEXO": null, "EDAD": "0", "CONDICION": null, "TIPO_DE_AC": null, "VEHICULOS1": null, "VEHICULOS2": null, "comuna": 3.0, "nombre": "Comuna 3", "id_barrio": 310.0, "barrio": "El Calvario", "Unnamed_ 0": null, "Unnamed_ 1": null, "Unnamed_ 2": null, "Unnamed_ 3": null, "Unnamed_ 4": null, "Id": 0, "area": 136572.15568900001 }, "geometry": { "type": "Point", "coordinates": [ -76.530399420203807, 3.446495068382776 ] } },
{ "type": "Feature", "properties": { "ID": 8047.0, "X": 1060887.5451, "Y": 872903.4757, "Municipio": "CALI", "Codigo": "AI012392", "Fecha": "2024-10-04 00:00:00", "horah": "07:35:00", "hora": 7.0, "semana": 40.0, "mes": 10.0, "Año": 2024.0, "dia_sem": 5.0, "Tipo_Confi": "Lesiones", "direccion": "CALLE 13  , CARRERA 11", "Clase_acci": "ATROPELLO", "Tipo_Choqu": null, "placas": "SWW244", "No_Vehicul": "0", "Tipo_de_Ve": null, "Ipat": 1633843.0, "Spoa": 83121.0, "SEXO": null, "EDAD": "0", "CONDICION": null, "TIPO_DE_AC": null, "VEHICULOS1": null, "VEHICULOS2": null, "comuna": 3.0, "nombre": "Comuna 3", "id_barrio": 310.0, "barrio": "El Calvario", "Unnamed_ 0": null, "Unnamed_ 1": null, "Unnamed_ 2": null, "Unnamed_ 3": null, "Unnamed_ 4": null, "Id": 0, "area": 136572.15568900001 }, "geometry": { "type": "Point", "coordinates": [ -76.529569621959794, 3.446677101450967 ] } },
{ "type": "Feature", "properties": { "ID": 8051.0, "X": 1060884.8889, "Y": 872896.8953, "Municipio": "Cali", "Codigo": "<Null>", "Fecha": "2023-05-07 00:00:00", "horah": "<Null>", "hora": 0.0, "semana": 19.0, "mes": 5.0, "Año": 2023.0, "dia_sem": 7.0, "Tipo_Confi": "Lesiones", "direccion": "Calle 13 Con Carrera 11", "Clase_acci": "Choque", "Tipo_Choqu": null, "placas": "DVD41C, VCQ450", "No_Vehicul": "2", "Tipo_de_Ve": "MOTOCICLETA,\"BUS PADRON\"", "Ipat": 1526587.0, "Spoa": 81341.0, "SEXO": null, "EDAD": "0", "CONDICION": null, "TIPO_DE_AC": null, "VEHICULOS1": null, "VEHICULOS2": null, "comuna": 3.0, "nombre": "Comuna 3", "id_barrio": 310.0, "barrio": "El Calvario", "Unnamed_ 0": null, "Unnamed_ 1": null, "Unnamed_ 2": null, "Unnamed_ 3": null, "Unnamed_ 4": null, "Id": 0, "area": 136572.15568900001 }, "geometry": { "type": "Point", "coordinates": [ -76.529593558904708, 3.446617609031149 ] } },
{ "type": "Feature", "properties": { "ID": 8065.0, "X": 1060556.3683, "Y": 872904.8618, "Municipio": "Cali", "Codigo": "<Null>", "Fecha": "2023-07-11 00:00:00", "horah": "<Null>", "hora": 0.0, "semana": 28.0, "mes": 7.0, "Año": 2023.0, "dia_sem": 2.0, "Tipo_Confi": "Lesiones", "direccion": "Calle 10 Kr 10", "Clase_acci": "Choque", "Tipo_Choqu": null, "placas": "ZIZ30D, VCV196", "No_Vehicul": "2", "Tipo_de_Ve": "AUTOMOVIL,MOTOCICLETA", "Ipat": 1527450.0, "Spoa": 82031.0, "SEXO": null, "EDAD": "0", "CONDICION": null, "TIPO_DE_AC": null, "VEHICULOS1": null, "VEHICULOS2": null, "comuna": 3.0, "nombre": "Comuna 3", "id_barrio": 307.0, "barrio": "Santa Rosa", "Unnamed_ 0": null, "Unnamed_ 1": null, "Unnamed_ 2": null, "Unnamed_ 3": null, "Unnamed_ 4": null, "Id": 0, "area": 136572.15568900001 }, "geometry": { "type": "Point", "coordinates": [ -76.532549845137993, 3.446691353110995 ] } },
{ "type": "Feature", "properties": { "ID": 8085.0, "X": 1060574.4, "Y": 872917.4, "Municipio": "CALI", "Codigo": "AI021910", "Fecha": "2025-05-11 00:00:00", "horah": "04:25:00", "hora": 4.0, "semana": 19.0, "mes": 5.0, "Año": 2025.0, "dia_sem": 7.0, "Tipo_Confi": "Lesiones", "direccion": "CALLE 10 CARRERA 10", "Clase_acci": "CHOQUE", "Tipo_Choqu": "VEHICULO", "placas": "GSN279, HRX32D", "No_Vehicul": "2", "Tipo_de_Ve": "AUTOMOVIL,MOTOCICLETA", "Ipat": 1636583.0, "Spoa": 81427.0, "SEXO": null, "EDAD": null, "CONDICION": null, "TIPO_DE_AC": null, "VEHICULOS1": null, "VEHICULOS2": null, "comuna": 3.0, "nombre": "Comuna 3", "id_barrio": 307.0, "barrio": "Santa Rosa", "Unnamed_ 0": null, "Unnamed_ 1": null, "Unnamed_ 2": null, "Unnamed_ 3": null, "Unnamed_ 4": null, "Id": 0, "area": 136572.15568900001 }, "geometry": { "type": "Point", "coordinates": [ -76.532387514906247, 3.446804642225645 ] } },
{ "type": "Feature", "properties": { "ID": 8086.0, "X": 1060574.4, "Y": 872917.4, "Municipio": "CALI", "Codigo": "AI022721", "Fecha": "2025-05-29 00:00:00", "horah": "13:22:00", "hora": 13.0, "semana": 21.0, "mes": 5.0, "Año": 2025.0, "dia_sem": 4.0, "Tipo_Confi": "Lesiones", "direccion": "CALLE 10 CARRERA 10", "Clase_acci": "CHOQUE", "Tipo_Choqu": "VEHICULO", "placas": "VBX563, JNK71E, VCA698", "No_Vehicul": "3", "Tipo_de_Ve": "BUSETA,MOTOCICLETA,BUSETA", "Ipat": 1636739.0, "Spoa": 81619.0, "SEXO": null, "EDAD": null, "CONDICION": null, "TIPO_DE_AC": null, "VEHICULOS1": null, "VEHICULOS2": null, "comuna": 3.0, "nombre": "Comuna 3", "id_barrio": 307.0, "barrio": "Santa Rosa", "Unnamed_ 0": null, "Unnamed_ 1": null, "Unnamed_ 2": null, "Unnamed_ 3": null, "Unnamed_ 4": null, "Id": 0, "area": 136572.15568900001 }, "geometry": { "type": "Point", "coordinates": [ -76.532387514906247, 3.446804642225645 ] } },
{ "type": "Feature", "properties": { "ID": 8103.0, "X": 1060565.3595, "Y": 872923.4528, "Municipio": "CALI", "Codigo": "AI014953", "Fecha": "2024-12-04 00:00:00", "horah": "14:26:00", "hora": 14.0, "semana": 49.0, "mes": 12.0, "Año": 2024.0, "dia_sem": 3.0, "Tipo_Confi": "Lesiones", "direccion": "CALLE 10  , CARRERA 10", "Clase_acci": "CHOQUE", "Tipo_Choqu": "VEHICULO", "placas": "SOV93E, SFE60D", "No_Vehicul": "2", "Tipo_de_Ve": "MOTOCICLETA,MOTOCICLETA", "Ipat": 1634614.0, "Spoa": 83817.0, "SEXO": null, "EDAD": "0", "CONDICION": null, "TIPO_DE_AC": null, "VEHICULOS1": null, "VEHICULOS2": null, "comuna": 3.0, "nombre": "Comuna 3", "id_barrio": 307.0, "barrio": "Santa Rosa", "Unnamed_ 0": null, "Unnamed_ 1": null, "Unnamed_ 2": null, "Unnamed_ 3": null, "Unnamed_ 4": null, "Id": 0, "area": 136572.15568900001 }, "geometry": { "type": "Point", "coordinates": [ -76.532468838431043, 3.446859424182454 ] } },
{ "type": "Feature", "properties": { "ID": 8104.0, "X": 1060565.3595, "Y": 872923.4528, "Municipio": "CALI", "Codigo": "AI016043", "Fecha": "2024-12-26 00:00:00", "horah": "15:10:00", "hora": 15.0, "semana": 52.0, "mes": 12.0, "Año": 2024.0, "dia_sem": 4.0, "Tipo_Confi": "Lesiones", "direccion": "CALLE 10  , CARRERA 10", "Clase_acci": "ATROPELLO", "Tipo_Choqu": null, "placas": "VCV300", "No_Vehicul": "1", "Tipo_de_Ve": "AUTOMOVIL", "Ipat": 1634917.0, "Spoa": 84101.0, "SEXO": null, "EDAD": "0", "CONDICION": null, "TIPO_DE_AC": null, "VEHICULOS1": null, "VEHICULOS2": null, "comuna": 3.0, "nombre": "Comuna 3", "id_barrio": 307.0, "barrio": "Santa Rosa", "Unnamed_ 0": null, "Unnamed_ 1": null, "Unnamed_ 2": null, "Unnamed_ 3": null, "Unnamed_ 4": null, "Id": 0, "area": 136572.15568900001 }, "geometry": { "type": "Point", "coordinates": [ -76.532468838431043, 3.446859424182454 ] } },
{ "type": "Feature", "properties": { "ID": 8105.0, "X": 1060567.4967, "Y": 872916.2523000001, "Municipio": "Cali", "Codigo": "AI000001715", "Fecha": "2024-01-11 00:00:00", "horah": "9:11:21 a. m.", "hora": 9.0, "semana": 2.0, "mes": 1.0, "Año": 2024.0, "dia_sem": 4.0, "Tipo_Confi": "Lesiones", "direccion": "Cl 10 Kr 10", "Clase_acci": "ATROPELLO", "Tipo_Choqu": null, "placas": "VCU240", "No_Vehicul": "1", "Tipo_de_Ve": "AUTOMOVIL", "Ipat": 1630435.0, "Spoa": 80086.0, "SEXO": null, "EDAD": "0", "CONDICION": null, "TIPO_DE_AC": null, "VEHICULOS1": null, "VEHICULOS2": null, "comuna": 3.0, "nombre": "Comuna 3", "id_barrio": 307.0, "barrio": "Santa Rosa", "Unnamed_ 0": null, "Unnamed_ 1": null, "Unnamed_ 2": null, "Unnamed_ 3": null, "Unnamed_ 4": null, "Id": 0, "area": 136572.15568900001 }, "geometry": { "type": "Point", "coordinates": [ -76.532449643013194, 3.44679429933402 ] } },
{ "type": "Feature", "properties": { "ID": 8106.0, "X": 1060572.3368, "Y": 872929.8211, "Municipio": "CALI", "Codigo": "AI009705", "Fecha": "2024-07-26 00:00:00", "horah": "09:33:00", "hora": 9.0, "semana": 30.0, "mes": 7.0, "Año": 2024.0, "dia_sem": 5.0, "Tipo_Confi": "Lesiones", "direccion": "CARRERA 10  , CALLE 10", "Clase_acci": "ATROPELLO", "Tipo_Choqu": null, "placas": "VCL125", "No_Vehicul": "1", "Tipo_de_Ve": "AUTOMOVIL", "Ipat": 1632815.0, "Spoa": 82229.0, "SEXO": null, "EDAD": "0", "CONDICION": null, "TIPO_DE_AC": null, "VEHICULOS1": null, "VEHICULOS2": null, "comuna": 3.0, "nombre": "Comuna 3", "id_barrio": 307.0, "barrio": "Santa Rosa", "Unnamed_ 0": null, "Unnamed_ 1": null, "Unnamed_ 2": null, "Unnamed_ 3": null, "Unnamed_ 4": null, "Id": 0, "area": 136572.15568900001 }, "geometry": { "type": "Point", "coordinates": [ -76.532406017526768, 3.446916976340136 ] } },
{ "type": "Feature", "properties": { "ID": 8107.0, "X": 1060562.9452, "Y": 872931.5434, "Municipio": "CALI", "Codigo": "AI010079", "Fecha": "2024-08-05 00:00:00", "horah": "09:32:00", "hora": 9.0, "semana": 32.0, "mes": 8.0, "Año": 2024.0, "dia_sem": 1.0, "Tipo_Confi": "Lesiones", "direccion": "CARRERA 10  , CALLE 10", "Clase_acci": "CHOQUE", "Tipo_Choqu": "VEHICULO", "placas": "RGM040, MBL48F", "No_Vehicul": "2", "Tipo_de_Ve": "AUTOMOVIL,MOTOCICLETA", "Ipat": 1632981.0, "Spoa": 82346.0, "SEXO": null, "EDAD": "0", "CONDICION": null, "TIPO_DE_AC": null, "VEHICULOS1": null, "VEHICULOS2": null, "comuna": 3.0, "nombre": "Comuna 3", "id_barrio": 307.0, "barrio": "Santa Rosa", "Unnamed_ 0": null, "Unnamed_ 1": null, "Unnamed_ 2": null, "Unnamed_ 3": null, "Unnamed_ 4": null, "Id": 0, "area": 136572.15568900001 }, "geometry": { "type": "Point", "coordinates": [ -76.532490522868969, 3.446932599597895 ] } },
{ "type": "Feature", "properties": { "ID": 8108.0, "X": 1060565.2668000001, "Y": 872920.5007, "Municipio": "CALI", "Codigo": null, "Fecha": "2024-07-26 00:00:00", "horah": null, "hora": 0.0, "semana": 30.0, "mes": 7.0, "Año": 2024.0, "dia_sem": 5.0, "Tipo_Confi": "Mortal", "direccion": "Kr 10 Cl 10", "Clase_acci": "ATROPELLO", "Tipo_Choqu": null, "placas": null, "No_Vehicul": "1", "Tipo_de_Ve": "PEATÓN", "Ipat": 0.0, "Spoa": 16520248229.0, "SEXO": "Masculino", "EDAD": "0", "CONDICION": "Peatón", "TIPO_DE_AC": null, "VEHICULOS1": "Peatón", "VEHICULOS2": null, "comuna": 3.0, "nombre": "Comuna 3", "id_barrio": 307.0, "barrio": "Santa Rosa", "Unnamed_ 0": null, "Unnamed_ 1": null, "Unnamed_ 2": null, "Unnamed_ 3": null, "Unnamed_ 4": null, "Id": 0, "area": 136572.15568900001 }, "geometry": { "type": "Point", "coordinates": [ -76.532469687824516, 3.446832728955632 ] } },
{ "type": "Feature", "properties": { "ID": 8109.0, "X": 1060565.2425, "Y": 872922.3724, "Municipio": "CALI", "Codigo": "AI010808", "Fecha": "2024-08-27 00:00:00", "horah": "08:01:00", "hora": 8.0, "semana": 35.0, "mes": 8.0, "Año": 2024.0, "dia_sem": 2.0, "Tipo_Confi": "Lesiones", "direccion": "CALLE 10  , CARRERA 10", "Clase_acci": "CHOQUE", "Tipo_Choqu": "VEHICULO", "placas": "SBB596", "No_Vehicul": "1", "Tipo_de_Ve": "VOLQUETA", "Ipat": 1633239.0, "Spoa": 82595.0, "SEXO": null, "EDAD": "0", "CONDICION": null, "TIPO_DE_AC": null, "VEHICULOS1": null, "VEHICULOS2": null, "comuna": 3.0, "nombre": "Comuna 3", "id_barrio": 307.0, "barrio": "Santa Rosa", "Unnamed_ 0": null, "Unnamed_ 1": null, "Unnamed_ 2": null, "Unnamed_ 3": null, "Unnamed_ 4": null, "Id": 0, "area": 136572.15568900001 }, "geometry": { "type": "Point", "coordinates": [ -76.532469896864711, 3.446849654779442 ] } },
{ "type": "Feature", "properties": { "ID": 8136.0, "X": 1060695.6, "Y": 872951.8, "Municipio": "CALI", "Codigo": "AI017995", "Fecha": "2025-02-15 00:00:00", "horah": "13:32:00", "hora": 13.0, "semana": 6.0, "mes": 2.0, "Año": 2025.0, "dia_sem": 6.0, "Tipo_Confi": "Lesiones", "direccion": "CALLE 11  , CARRERA 10", "Clase_acci": "CHOQUE", "Tipo_Choqu": "VEHICULO", "placas": "GEO12E, LNO242", "No_Vehicul": "2", "Tipo_de_Ve": "MOTOCICLETA,CAMIONETA", "Ipat": 1635543.0, "Spoa": 80474.0, "SEXO": null, "EDAD": null, "CONDICION": null, "TIPO_DE_AC": null, "VEHICULOS1": null, "VEHICULOS2": null, "comuna": 3.0, "nombre": "Comuna 3", "id_barrio": 310.0, "barrio": "El Calvario", "Unnamed_ 0": null, "Unnamed_ 1": null, "Unnamed_ 2": null, "Unnamed_ 3": null, "Unnamed_ 4": null, "Id": 0, "area": 136572.15568900001 }, "geometry": { "type": "Point", "coordinates": [ -76.531296669253109, 3.447115092231794 ] } },
{ "type": "Feature", "properties": { "ID": 8137.0, "X": 1060695.6, "Y": 872951.8, "Municipio": "CALI", "Codigo": "AI020776", "Fecha": "2025-04-15 00:00:00", "horah": "10:51:00", "hora": 10.0, "semana": 15.0, "mes": 4.0, "Año": 2025.0, "dia_sem": 2.0, "Tipo_Confi": "Lesiones", "direccion": "CALLE 11 , CARRERA 10", "Clase_acci": "ATROPELLO", "Tipo_Choqu": null, "placas": "MOTO00", "No_Vehicul": "1", "Tipo_de_Ve": "MOTOCICLETA", "Ipat": 1636301.0, "Spoa": 81167.0, "SEXO": null, "EDAD": null, "CONDICION": null, "TIPO_DE_AC": null, "VEHICULOS1": null, "VEHICULOS2": null, "comuna": 3.0, "nombre": "Comuna 3", "id_barrio": 310.0, "barrio": "El Calvario", "Unnamed_ 0": null, "Unnamed_ 1": null, "Unnamed_ 2": null, "Unnamed_ 3": null, "Unnamed_ 4": null, "Id": 0, "area": 136572.15568900001 }, "geometry": { "type": "Point", "coordinates": [ -76.531296669253109, 3.447115092231794 ] } },
{ "type": "Feature", "properties": { "ID": 8138.0, "X": 1060695.6, "Y": 872951.8, "Municipio": null, "Codigo": "<Null>", "Fecha": "2023-08-30 00:00:00", "horah": "00:00:00", "hora": 19.0, "semana": 35.0, "mes": 8.0, "Año": 2023.0, "dia_sem": 4.0, "Tipo_Confi": "Mortal", "direccion": "CL 11 KR 10", "Clase_acci": "ATROPELLO", "Tipo_Choqu": null, "placas": null, "No_Vehicul": "0", "Tipo_de_Ve": "PEATÓN,MOTOCICLETA", "Ipat": 0.0, "Spoa": 16520233303.0, "SEXO": "Femenino", "EDAD": "78", "CONDICION": "Peatón", "TIPO_DE_AC": "Peatón atropellado", "VEHICULOS1": "Peatón", "VEHICULOS2": "Motocicleta", "comuna": 3.0, "nombre": "Comuna 3", "id_barrio": 310.0, "barrio": "El Calvario", "Unnamed_ 0": null, "Unnamed_ 1": null, "Unnamed_ 2": null, "Unnamed_ 3": null, "Unnamed_ 4": null, "Id": 0, "area": 136572.15568900001 }, "geometry": { "type": "Point", "coordinates": [ -76.531296669253109, 3.447115092231794 ] } },
{ "type": "Feature", "properties": { "ID": 8146.0, "X": 1060683.954, "Y": 872956.6854, "Municipio": "CALI", "Codigo": "AI016276", "Fecha": "2025-01-02 00:00:00", "horah": "08:52:00", "hora": 8.0, "semana": 53.0, "mes": 1.0, "Año": 2025.0, "dia_sem": 4.0, "Tipo_Confi": "Lesiones", "direccion": "CALLE 11  , CARRERA 10", "Clase_acci": "CHOQUE", "Tipo_Choqu": "VEHICULO", "placas": "KLM38C, VAH532", "No_Vehicul": "1", "Tipo_de_Ve": "MOTOCICLETA", "Ipat": 1634585.0, "Spoa": 80016.0, "SEXO": null, "EDAD": null, "CONDICION": null, "TIPO_DE_AC": null, "VEHICULOS1": null, "VEHICULOS2": null, "comuna": 3.0, "nombre": "Comuna 3", "id_barrio": 310.0, "barrio": "El Calvario", "Unnamed_ 0": null, "Unnamed_ 1": null, "Unnamed_ 2": null, "Unnamed_ 3": null, "Unnamed_ 4": null, "Id": 0, "area": 136572.15568900001 }, "geometry": { "type": "Point", "coordinates": [ -76.531401445419149, 3.447159331036632 ] } },
{ "type": "Feature", "properties": { "ID": 8147.0, "X": 1060683.954, "Y": 872956.6854, "Municipio": "CALI", "Codigo": "AI016278", "Fecha": "2025-01-02 00:00:00", "horah": "12:05:00", "hora": 12.0, "semana": 53.0, "mes": 1.0, "Año": 2025.0, "dia_sem": 4.0, "Tipo_Confi": "Lesiones", "direccion": "CALLE 11  , CARRERA 10", "Clase_acci": "CHOQUE", "Tipo_Choqu": "VEHICULO", "placas": "QPR07F, MWT999", "No_Vehicul": "2", "Tipo_de_Ve": "MOTOCICLETA,AUTOMOVIL", "Ipat": 1634786.0, "Spoa": 80018.0, "SEXO": null, "EDAD": null, "CONDICION": null, "TIPO_DE_AC": null, "VEHICULOS1": null, "VEHICULOS2": null, "comuna": 3.0, "nombre": "Comuna 3", "id_barrio": 310.0, "barrio": "El Calvario", "Unnamed_ 0": null, "Unnamed_ 1": null, "Unnamed_ 2": null, "Unnamed_ 3": null, "Unnamed_ 4": null, "Id": 0, "area": 136572.15568900001 }, "geometry": { "type": "Point", "coordinates": [ -76.531401445419149, 3.447159331036632 ] } },
{ "type": "Feature", "properties": { "ID": 8153.0, "X": 1060672.75553, "Y": 872962.252415, "Municipio": "Cali", "Codigo": "<Null>", "Fecha": "2023-06-11 00:00:00", "horah": "<Null>", "hora": 0.0, "semana": 24.0, "mes": 6.0, "Año": 2023.0, "dia_sem": 7.0, "Tipo_Confi": "Daños", "direccion": "Calle 11 Con Carrera 10", "Clase_acci": null, "Tipo_Choqu": null, "placas": "GSY079, TZN756, ONL059", "No_Vehicul": "3", "Tipo_de_Ve": "AUTOMOVIL,AUTOMOVIL,CAMIONETA", "Ipat": 1527060.0, "Spoa": 0.0, "SEXO": null, "EDAD": "0", "CONDICION": null, "TIPO_DE_AC": null, "VEHICULOS1": null, "VEHICULOS2": null, "comuna": 3.0, "nombre": "Comuna 3", "id_barrio": 307.0, "barrio": "Santa Rosa", "Unnamed_ 0": null, "Unnamed_ 1": null, "Unnamed_ 2": null, "Unnamed_ 3": null, "Unnamed_ 4": null, "Id": 0, "area": 136572.15568900001 }, "geometry": { "type": "Point", "coordinates": [ -76.531502190796758, 3.447209731324853 ] } },
{ "type": "Feature", "properties": { "ID": 8154.0, "X": 1060672.0893699999, "Y": 872962.41432500002, "Municipio": "Cali", "Codigo": "<Null>", "Fecha": "2023-04-02 00:00:00", "horah": "<Null>", "hora": 0.0, "semana": 14.0, "mes": 4.0, "Año": 2023.0, "dia_sem": 7.0, "Tipo_Confi": "Lesiones", "direccion": "Calle 11 Con Carrera 10", "Clase_acci": null, "Tipo_Choqu": null, "placas": "QWX89D, MAI671", "No_Vehicul": "2", "Tipo_de_Ve": "CAMPERO,MOTOCICLETA", "Ipat": 1525787.0, "Spoa": 80950.0, "SEXO": null, "EDAD": "0", "CONDICION": null, "TIPO_DE_AC": null, "VEHICULOS1": null, "VEHICULOS2": null, "comuna": 3.0, "nombre": "Comuna 3", "id_barrio": 307.0, "barrio": "Santa Rosa", "Unnamed_ 0": null, "Unnamed_ 1": null, "Unnamed_ 2": null, "Unnamed_ 3": null, "Unnamed_ 4": null, "Id": 0, "area": 136572.15568900001 }, "geometry": { "type": "Point", "coordinates": [ -76.531508184679723, 3.447211198921279 ] } },
{ "type": "Feature", "properties": { "ID": 8155.0, "X": 1060671.84243, "Y": 872962.43196399999, "Municipio": "Cali", "Codigo": "<Null>", "Fecha": "2023-01-28 00:00:00", "horah": "<Null>", "hora": 0.0, "semana": 4.0, "mes": 1.0, "Año": 2023.0, "dia_sem": 6.0, "Tipo_Confi": "Lesiones", "direccion": "Calle 11 Con Carrera 10", "Clase_acci": "Atropello", "Tipo_Choqu": null, "placas": "MURO, PEATON, LEX026", "No_Vehicul": "3", "Tipo_de_Ve": "AUTOMOVIL", "Ipat": 1525028.0, "Spoa": 80226.0, "SEXO": null, "EDAD": "0", "CONDICION": null, "TIPO_DE_AC": null, "VEHICULOS1": null, "VEHICULOS2": null, "comuna": 3.0, "nombre": "Comuna 3", "id_barrio": 307.0, "barrio": "Santa Rosa", "Unnamed_ 0": null, "Unnamed_ 1": null, "Unnamed_ 2": null, "Unnamed_ 3": null, "Unnamed_ 4": null, "Id": 0, "area": 136572.15568900001 }, "geometry": { "type": "Point", "coordinates": [ -76.531510406781095, 3.447211359709507 ] } },
{ "type": "Feature", "properties": { "ID": 8156.0, "X": 1060671.29893, "Y": 872962.46662299999, "Municipio": "Cali", "Codigo": "<Null>", "Fecha": "2023-07-16 00:00:00", "horah": "<Null>", "hora": 0.0, "semana": 29.0, "mes": 7.0, "Año": 2023.0, "dia_sem": 7.0, "Tipo_Confi": "Lesiones", "direccion": "Calle 11 Kr 10", "Clase_acci": "Choque", "Tipo_Choqu": null, "placas": "GJU300, VCU676", "No_Vehicul": "2", "Tipo_de_Ve": "AUTOMOVIL,AUTOMOVIL", "Ipat": 1527439.0, "Spoa": 82095.0, "SEXO": null, "EDAD": "0", "CONDICION": null, "TIPO_DE_AC": null, "VEHICULOS1": null, "VEHICULOS2": null, "comuna": 3.0, "nombre": "Comuna 3", "id_barrio": 307.0, "barrio": "Santa Rosa", "Unnamed_ 0": null, "Unnamed_ 1": null, "Unnamed_ 2": null, "Unnamed_ 3": null, "Unnamed_ 4": null, "Id": 0, "area": 136572.15568900001 }, "geometry": { "type": "Point", "coordinates": [ -76.531515297513209, 3.447211675945477 ] } },
{ "type": "Feature", "properties": { "ID": 8157.0, "X": 1060671.9611899999, "Y": 872962.93754499999, "Municipio": "Cali", "Codigo": "<Null>", "Fecha": "2023-04-16 00:00:00", "horah": "<Null>", "hora": 0.0, "semana": 16.0, "mes": 4.0, "Año": 2023.0, "dia_sem": 7.0, "Tipo_Confi": "Lesiones", "direccion": "Carrera 10 Con Calle 11", "Clase_acci": "Choque", "Tipo_Choqu": null, "placas": "QFS 36E, HYX 476", "No_Vehicul": "2", "Tipo_de_Ve": "AUTOMOVIL,MOTOCICLETA", "Ipat": 1526117.0, "Spoa": 81093.0, "SEXO": null, "EDAD": "0", "CONDICION": null, "TIPO_DE_AC": null, "VEHICULOS1": null, "VEHICULOS2": null, "comuna": 3.0, "nombre": "Comuna 3", "id_barrio": 307.0, "barrio": "Santa Rosa", "Unnamed_ 0": null, "Unnamed_ 1": null, "Unnamed_ 2": null, "Unnamed_ 3": null, "Unnamed_ 4": null, "Id": 0, "area": 136572.15568900001 }, "geometry": { "type": "Point", "coordinates": [ -76.531509335462786, 3.447215931039384 ] } },
{ "type": "Feature", "properties": { "ID": 8158.0, "X": 1060672.20028, "Y": 872963.54710600001, "Municipio": null, "Codigo": "<Null>", "Fecha": "2023-08-27 00:00:00", "horah": "<Null>", "hora": 0.0, "semana": 35.0, "mes": 8.0, "Año": 2023.0, "dia_sem": 7.0, "Tipo_Confi": "Lesiones", "direccion": "Calle 11 Con Carrera 10", "Clase_acci": "Choque", "Tipo_Choqu": null, "placas": "LLM73B, NKM387", "No_Vehicul": "2", "Tipo_de_Ve": "AUTOMOVIL,MOTOCICLETA", "Ipat": 1528034.0, "Spoa": 82547.0, "SEXO": null, "EDAD": "0", "CONDICION": null, "TIPO_DE_AC": null, "VEHICULOS1": null, "VEHICULOS2": null, "comuna": 3.0, "nombre": "Comuna 3", "id_barrio": 307.0, "barrio": "Santa Rosa", "Unnamed_ 0": null, "Unnamed_ 1": null, "Unnamed_ 2": null, "Unnamed_ 3": null, "Unnamed_ 4": null, "Id": 0, "area": 136572.15568900001 }, "geometry": { "type": "Point", "coordinates": [ -76.531507180768742, 3.447221442031996 ] } },
{ "type": "Feature", "properties": { "ID": 8164.0, "X": 1060683.2627000001, "Y": 872954.0018, "Municipio": "Cali", "Codigo": null, "Fecha": "2024-03-11 00:00:00", "horah": "0", "hora": 19.0, "semana": 35.0, "mes": 8.0, "Año": 2023.0, "dia_sem": 3.0, "Tipo_Confi": "Mortal", "direccion": "Calle 11 10", "Clase_acci": "Peatón atropellado", "Tipo_Choqu": null, "placas": null, "No_Vehicul": "0", "Tipo_de_Ve": "Motocicleta", "Ipat": 0.0, "Spoa": 16520233300.0, "SEXO": "Femenino", "EDAD": "78", "CONDICION": "Peatón", "TIPO_DE_AC": "Peatón atropellado", "VEHICULOS1": "Peatón", "VEHICULOS2": "Motocicleta", "comuna": 3.0, "nombre": "Comuna 3", "id_barrio": 310.0, "barrio": "El Calvario", "Unnamed_ 0": null, "Unnamed_ 1": null, "Unnamed_ 2": null, "Unnamed_ 3": null, "Unnamed_ 4": null, "Id": 0, "area": 136572.15568900001 }, "geometry": { "type": "Point", "coordinates": [ -76.531407680209639, 3.447135066950904 ] } },
{ "type": "Feature", "properties": { "ID": 8170.0, "X": 1060780.5, "Y": 872977.9, "Municipio": "CALI", "Codigo": "AI022136", "Fecha": "2025-05-16 00:00:00", "horah": "10:11:00", "hora": 10.0, "semana": 19.0, "mes": 5.0, "Año": 2025.0, "dia_sem": 5.0, "Tipo_Confi": "Lesiones", "direccion": "CALLE 12 CARRERA 10", "Clase_acci": "CHOQUE", "Tipo_Choqu": "VEHICULO", "placas": "IZR287", "No_Vehicul": "1", "Tipo_de_Ve": "AUTOMOVIL", "Ipat": 1636621.0, "Spoa": 81470.0, "SEXO": null, "EDAD": null, "CONDICION": null, "TIPO_DE_AC": null, "VEHICULOS1": null, "VEHICULOS2": null, "comuna": 3.0, "nombre": "Comuna 3", "id_barrio": 310.0, "barrio": "El Calvario", "Unnamed_ 0": null, "Unnamed_ 1": null, "Unnamed_ 2": null, "Unnamed_ 3": null, "Unnamed_ 4": null, "Id": 0, "area": 136572.15568900001 }, "geometry": { "type": "Point", "coordinates": [ -76.53053252661357, 3.447350672871652 ] } },
{ "type": "Feature", "properties": { "ID": 8183.0, "X": 1060861.7734000001, "Y": 872995.2151, "Municipio": "Cali", "Codigo": "<Null>", "Fecha": "2023-08-01 00:00:00", "horah": "<Null>", "hora": 0.0, "semana": 31.0, "mes": 8.0, "Año": 2023.0, "dia_sem": 2.0, "Tipo_Confi": "Lesiones", "direccion": "Carrera 10 Con Calle 13", "Clase_acci": "Choque", "Tipo_Choqu": null, "placas": "VCS466, HEL770", "No_Vehicul": "2", "Tipo_de_Ve": "AUTOMOVIL,\"BUS PADRON\"", "Ipat": 1527680.0, "Spoa": 82278.0, "SEXO": null, "EDAD": "0", "CONDICION": null, "TIPO_DE_AC": null, "VEHICULOS1": null, "VEHICULOS2": null, "comuna": 3.0, "nombre": "Comuna 3", "id_barrio": 310.0, "barrio": "El Calvario", "Unnamed_ 0": null, "Unnamed_ 1": null, "Unnamed_ 2": null, "Unnamed_ 3": null, "Unnamed_ 4": null, "Id": 0, "area": 136572.15568900001 }, "geometry": { "type": "Point", "coordinates": [ -76.529801064603973, 3.447506830272641 ] } },
{ "type": "Feature", "properties": { "ID": 8188.0, "X": 1060877.2, "Y": 873003.3, "Municipio": "CALI", "Codigo": "AI021244", "Fecha": "2025-04-27 00:00:00", "horah": "09:20:00", "hora": 9.0, "semana": 17.0, "mes": 4.0, "Año": 2025.0, "dia_sem": 7.0, "Tipo_Confi": "Lesiones", "direccion": "CALLE 13 CARRERA 10", "Clase_acci": "CHOQUE", "Tipo_Choqu": "VEHICULO", "placas": "TPO96A, VCV669", "No_Vehicul": "2", "Tipo_de_Ve": "MOTOCICLETA,AUTOMOVIL", "Ipat": 1636427.0, "Spoa": 81284.0, "SEXO": null, "EDAD": null, "CONDICION": null, "TIPO_DE_AC": null, "VEHICULOS1": null, "VEHICULOS2": null, "comuna": 3.0, "nombre": "Comuna 3", "id_barrio": 310.0, "barrio": "El Calvario", "Unnamed_ 0": null, "Unnamed_ 1": null, "Unnamed_ 2": null, "Unnamed_ 3": null, "Unnamed_ 4": null, "Id": 0, "area": 136572.15568900001 }, "geometry": { "type": "Point", "coordinates": [ -76.529662200090442, 3.447579861417039 ] } },
{ "type": "Feature", "properties": { "ID": 8189.0, "X": 1060877.2, "Y": 873003.3, "Municipio": "CALI", "Codigo": "AI021506", "Fecha": "2025-05-02 00:00:00", "horah": "08:32:00", "hora": 8.0, "semana": 17.0, "mes": 5.0, "Año": 2025.0, "dia_sem": 5.0, "Tipo_Confi": "Lesiones", "direccion": "CALLE 13 CARRERA 10", "Clase_acci": "ATROPELLO", "Tipo_Choqu": null, "placas": "VCX033", "No_Vehicul": "1", "Tipo_de_Ve": "BUS", "Ipat": 1636240.0, "Spoa": 81340.0, "SEXO": null, "EDAD": null, "CONDICION": null, "TIPO_DE_AC": null, "VEHICULOS1": null, "VEHICULOS2": null, "comuna": 3.0, "nombre": "Comuna 3", "id_barrio": 310.0, "barrio": "El Calvario", "Unnamed_ 0": null, "Unnamed_ 1": null, "Unnamed_ 2": null, "Unnamed_ 3": null, "Unnamed_ 4": null, "Id": 0, "area": 136572.15568900001 }, "geometry": { "type": "Point", "coordinates": [ -76.529662200090442, 3.447579861417039 ] } },
{ "type": "Feature", "properties": { "ID": 8190.0, "X": 1060877.2, "Y": 873003.3, "Municipio": "CALI", "Codigo": "AI022960", "Fecha": "2025-06-03 00:00:00", "horah": "15:02:00", "hora": 15.0, "semana": 22.0, "mes": 6.0, "Año": 2025.0, "dia_sem": 2.0, "Tipo_Confi": "Daños", "direccion": "CALLE 13 CARRERA 10", "Clase_acci": "CHOQUE", "Tipo_Choqu": "OBJETO FIJO", "placas": "SMB902", "No_Vehicul": "1", "Tipo_de_Ve": "CAMION", "Ipat": 1636661.0, "Spoa": 0.0, "SEXO": null, "EDAD": null, "CONDICION": null, "TIPO_DE_AC": null, "VEHICULOS1": null, "VEHICULOS2": null, "comuna": 3.0, "nombre": "Comuna 3", "id_barrio": 310.0, "barrio": "El Calvario", "Unnamed_ 0": null, "Unnamed_ 1": null, "Unnamed_ 2": null, "Unnamed_ 3": null, "Unnamed_ 4": null, "Id": 0, "area": 136572.15568900001 }, "geometry": { "type": "Point", "coordinates": [ -76.529662200090442, 3.447579861417039 ] } },
{ "type": "Feature", "properties": { "ID": 8191.0, "X": 1060877.2, "Y": 873003.3, "Municipio": "CALI", "Codigo": "AI023383", "Fecha": "2025-06-12 00:00:00", "horah": "11:48:00", "hora": 11.0, "semana": 23.0, "mes": 6.0, "Año": 2025.0, "dia_sem": 4.0, "Tipo_Confi": "Lesiones", "direccion": "CALLE 13 CARRERA 10", "Clase_acci": "ATROPELLO", "Tipo_Choqu": null, "placas": "VCX244", "No_Vehicul": "1", "Tipo_de_Ve": "BUS", "Ipat": 1636895.0, "Spoa": 81775.0, "SEXO": null, "EDAD": null, "CONDICION": null, "TIPO_DE_AC": null, "VEHICULOS1": null, "VEHICULOS2": null, "comuna": 3.0, "nombre": "Comuna 3", "id_barrio": 310.0, "barrio": "El Calvario", "Unnamed_ 0": null, "Unnamed_ 1": null, "Unnamed_ 2": null, "Unnamed_ 3": null, "Unnamed_ 4": null, "Id": 0, "area": 136572.15568900001 }, "geometry": { "type": "Point", "coordinates": [ -76.529662200090442, 3.447579861417039 ] } },
{ "type": "Feature", "properties": { "ID": 8199.0, "X": 1060960.1135, "Y": 873005.4049, "Municipio": "Cali", "Codigo": "AI0001779", "Fecha": "2024-01-12 00:00:00", "horah": "3:39:08 p. m.", "hora": 15.0, "semana": 2.0, "mes": 1.0, "Año": 2024.0, "dia_sem": 5.0, "Tipo_Confi": "Lesiones", "direccion": "Kr 10 Cl 13 a", "Clase_acci": "CHOQUE", "Tipo_Choqu": "VEHICULO", "placas": "zzj76e,vcj880", "No_Vehicul": "2", "Tipo_de_Ve": "MOTOCICLETA,AUTOMOVIL", "Ipat": 1630046.0, "Spoa": 80099.0, "SEXO": null, "EDAD": "0", "CONDICION": null, "TIPO_DE_AC": null, "VEHICULOS1": null, "VEHICULOS2": null, "comuna": 3.0, "nombre": "Comuna 3", "id_barrio": 310.0, "barrio": "El Calvario", "Unnamed_ 0": null, "Unnamed_ 1": null, "Unnamed_ 2": null, "Unnamed_ 3": null, "Unnamed_ 4": null, "Id": 0, "area": 136572.15568900001 }, "geometry": { "type": "Point", "coordinates": [ -76.528916057555108, 3.447598464491139 ] } },
{ "type": "Feature", "properties": { "ID": 8200.0, "X": 1060966.2977, "Y": 873016.5812, "Municipio": "CALI", "Codigo": "AI012858", "Fecha": "2024-10-17 00:00:00", "horah": "10:04:00", "hora": 10.0, "semana": 42.0, "mes": 10.0, "Año": 2024.0, "dia_sem": 4.0, "Tipo_Confi": "Lesiones", "direccion": "CARRERA 10  , CALLE 13 A", "Clase_acci": "CHOQUE", "Tipo_Choqu": "VEHICULO", "placas": "EFO866, CFE06D", "No_Vehicul": "2", "Tipo_de_Ve": "AUTOMOVIL,MOTOCICLETA", "Ipat": 1633990.0, "Spoa": 83258.0, "SEXO": null, "EDAD": "0", "CONDICION": null, "TIPO_DE_AC": null, "VEHICULOS1": null, "VEHICULOS2": null, "comuna": 3.0, "nombre": "Comuna 3", "id_barrio": 310.0, "barrio": "El Calvario", "Unnamed_ 0": null, "Unnamed_ 1": null, "Unnamed_ 2": null, "Unnamed_ 3": null, "Unnamed_ 4": null, "Id": 0, "area": 136572.15568900001 }, "geometry": { "type": "Point", "coordinates": [ -76.528860348543276, 3.447699498999388 ] } },
{ "type": "Feature", "properties": { "ID": 8210.0, "X": 1060854.38876, "Y": 873014.46778599999, "Municipio": "Cali", "Codigo": "<Null>", "Fecha": "2023-06-13 00:00:00", "horah": "<Null>", "hora": 0.0, "semana": 24.0, "mes": 6.0, "Año": 2023.0, "dia_sem": 2.0, "Tipo_Confi": "Daños", "direccion": "Calle 13 Con Carrera 10", "Clase_acci": "Choque", "Tipo_Choqu": null, "placas": "FDB32C, JCS951", "No_Vehicul": "2", "Tipo_de_Ve": "AUTOMOVIL,MOTOCICLETA", "Ipat": 1526933.0, "Spoa": 0.0, "SEXO": null, "EDAD": "0", "CONDICION": null, "TIPO_DE_AC": null, "VEHICULOS1": null, "VEHICULOS2": null, "comuna": 3.0, "nombre": "Comuna 3", "id_barrio": 310.0, "barrio": "El Calvario", "Unnamed_ 0": null, "Unnamed_ 1": null, "Unnamed_ 2": null, "Unnamed_ 3": null, "Unnamed_ 4": null, "Id": 0, "area": 136572.15568900001 }, "geometry": { "type": "Point", "coordinates": [ -76.52986741877443, 3.447680969745403 ] } },
{ "type": "Feature", "properties": { "ID": 8216.0, "X": 1061076.6, "Y": 873018.7, "Municipio": "CALI", "Codigo": "AI018495", "Fecha": "2025-02-25 00:00:00", "horah": "17:51:00", "hora": 17.0, "semana": 8.0, "mes": 2.0, "Año": 2025.0, "dia_sem": 2.0, "Tipo_Confi": "Lesiones", "direccion": "CALLE 14  , CARRERA 10", "Clase_acci": "CHOQUE", "Tipo_Choqu": null, "placas": "VCD858, LLJ96F, VKI730", "No_Vehicul": "3", "Tipo_de_Ve": "BUSETA,MOTOCICLETA,BUSETA", "Ipat": 1635167.0, "Spoa": 80596.0, "SEXO": null, "EDAD": null, "CONDICION": null, "TIPO_DE_AC": null, "VEHICULOS1": null, "VEHICULOS2": null, "comuna": 3.0, "nombre": "Comuna 3", "id_barrio": 310.0, "barrio": "El Calvario", "Unnamed_ 0": null, "Unnamed_ 1": null, "Unnamed_ 2": null, "Unnamed_ 3": null, "Unnamed_ 4": null, "Id": 0, "area": 136572.15568900001 }, "geometry": { "type": "Point", "coordinates": [ -76.527867736432299, 3.447718084264683 ] } },
{ "type": "Feature", "properties": { "ID": 8223.0, "X": 1061064.4093, "Y": 873023.4484, "Municipio": "CALI", "Codigo": "AI014337", "Fecha": "2024-11-21 00:00:00", "horah": "12:52:00", "hora": 12.0, "semana": 47.0, "mes": 11.0, "Año": 2024.0, "dia_sem": 4.0, "Tipo_Confi": "Daños", "direccion": "CARRERA 10  , CALLE 14", "Clase_acci": "CHOQUE", "Tipo_Choqu": "VEHICULO", "placas": "OKZ062, TSP482", "No_Vehicul": "2", "Tipo_de_Ve": "CAMION,CAMIONETA", "Ipat": 1634391.0, "Spoa": 0.0, "SEXO": null, "EDAD": "0", "CONDICION": null, "TIPO_DE_AC": null, "VEHICULOS1": null, "VEHICULOS2": null, "comuna": 3.0, "nombre": "Comuna 3", "id_barrio": 310.0, "barrio": "El Calvario", "Unnamed_ 0": null, "Unnamed_ 1": null, "Unnamed_ 2": null, "Unnamed_ 3": null, "Unnamed_ 4": null, "Id": 0, "area": 136572.15568900001 }, "geometry": { "type": "Point", "coordinates": [ -76.527977414861894, 3.447761087390481 ] } },
{ "type": "Feature", "properties": { "ID": 8232.0, "X": 1061053.4773800001, "Y": 873029.34189799998, "Municipio": "Cali", "Codigo": "<Null>", "Fecha": "2023-05-08 00:00:00", "horah": "<Null>", "hora": 0.0, "semana": 19.0, "mes": 5.0, "Año": 2023.0, "dia_sem": 1.0, "Tipo_Confi": "Daños", "direccion": "Calle 14 Con Carrera 10", "Clase_acci": "Choque", "Tipo_Choqu": null, "placas": "VCQ502, CXL930", "No_Vehicul": "2", "Tipo_de_Ve": "AUTOMOVIL,AUTOMOVIL", "Ipat": 1526388.0, "Spoa": 0.0, "SEXO": null, "EDAD": "0", "CONDICION": null, "TIPO_DE_AC": null, "VEHICULOS1": null, "VEHICULOS2": null, "comuna": 3.0, "nombre": "Comuna 3", "id_barrio": 310.0, "barrio": "El Calvario", "Unnamed_ 0": null, "Unnamed_ 1": null, "Unnamed_ 2": null, "Unnamed_ 3": null, "Unnamed_ 4": null, "Id": 0, "area": 136572.15568900001 }, "geometry": { "type": "Point", "coordinates": [ -76.528075759704251, 3.447814439001766 ] } },
{ "type": "Feature", "properties": { "ID": 8236.0, "X": 1061055.06488, "Y": 873030.08273300005, "Municipio": "Cali", "Codigo": "<Null>", "Fecha": "2023-11-16 00:00:00", "horah": "<Null>", "hora": 0.0, "semana": 46.0, "mes": 11.0, "Año": 2023.0, "dia_sem": 4.0, "Tipo_Confi": "Lesiones", "direccion": "Calle 14 Con Carrera 10", "Clase_acci": "Choque", "Tipo_Choqu": null, "placas": "XUE84E, GJS633", "No_Vehicul": "2", "Tipo_de_Ve": "AUTOMOVIL,MOTOCICLETA", "Ipat": 1629868.0, "Spoa": 83516.0, "SEXO": null, "EDAD": "0", "CONDICION": null, "TIPO_DE_AC": null, "VEHICULOS1": null, "VEHICULOS2": null, "comuna": 3.0, "nombre": "Comuna 3", "id_barrio": 310.0, "barrio": "El Calvario", "Unnamed_ 0": null, "Unnamed_ 1": null, "Unnamed_ 2": null, "Unnamed_ 3": null, "Unnamed_ 4": null, "Id": 0, "area": 136572.15568900001 }, "geometry": { "type": "Point", "coordinates": [ -76.528061470079464, 3.447821130054646 ] } },
{ "type": "Feature", "properties": { "ID": 8238.0, "X": 1061118.4802000001, "Y": 873029.2566, "Municipio": "CALI", "Codigo": "AI007258", "Fecha": "2024-05-20 00:00:00", "horah": "20:58:00", "hora": 20.0, "semana": 21.0, "mes": 5.0, "Año": 2024.0, "dia_sem": 2.0, "Tipo_Confi": "Lesiones", "direccion": "CARRERA 10  , CALLE 15", "Clase_acci": "CHOQUE", "Tipo_Choqu": "VEHICULO", "placas": "MKG37G, PTC56G", "No_Vehicul": "2", "Tipo_de_Ve": "MOTOCICLETA,MOTOCICLETA", "Ipat": 1632092.0, "Spoa": 81541.0, "SEXO": null, "EDAD": "0", "CONDICION": null, "TIPO_DE_AC": null, "VEHICULOS1": null, "VEHICULOS2": null, "comuna": 9.0, "nombre": "Comuna 9", "id_barrio": 909.0, "barrio": "Sucre", "Unnamed_ 0": null, "Unnamed_ 1": null, "Unnamed_ 2": null, "Unnamed_ 3": null, "Unnamed_ 4": null, "Id": 0, "area": 136572.15568900001 }, "geometry": { "type": "Point", "coordinates": [ -76.527490805229988, 3.447813328470848 ] } },
{ "type": "Feature", "properties": { "ID": 8239.0, "X": 1061117.2878, "Y": 873033.9943, "Municipio": "CALI", "Codigo": "AI009769", "Fecha": "2024-07-28 00:00:00", "horah": "12:03:00", "hora": 12.0, "semana": 31.0, "mes": 7.0, "Año": 2024.0, "dia_sem": 7.0, "Tipo_Confi": "Lesiones", "direccion": "CARRERA 10  , CALLE 15", "Clase_acci": "CHOQUE", "Tipo_Choqu": "VEHICULO", "placas": "EQK462, JFB04G", "No_Vehicul": "2", "Tipo_de_Ve": "AUTOMOVIL,MOTOCICLETA", "Ipat": 1632732.0, "Spoa": 82251.0, "SEXO": null, "EDAD": "0", "CONDICION": null, "TIPO_DE_AC": null, "VEHICULOS1": null, "VEHICULOS2": null, "comuna": 9.0, "nombre": "Comuna 9", "id_barrio": 909.0, "barrio": "Sucre", "Unnamed_ 0": null, "Unnamed_ 1": null, "Unnamed_ 2": null, "Unnamed_ 3": null, "Unnamed_ 4": null, "Id": 0, "area": 136572.15568900001 }, "geometry": { "type": "Point", "coordinates": [ -76.527501510923145, 3.447856177465436 ] } },
{ "type": "Feature", "properties": { "ID": 8240.0, "X": 1061117.2878, "Y": 873037.5475, "Municipio": "CALI", "Codigo": "AI010550", "Fecha": "2024-08-18 00:00:00", "horah": "22:04:00", "hora": 22.0, "semana": 34.0, "mes": 8.0, "Año": 2024.0, "dia_sem": 7.0, "Tipo_Confi": "Lesiones", "direccion": "CARRERA 10  , CALLE 15", "Clase_acci": "CHOQUE", "Tipo_Choqu": "VEHICULO", "placas": "VCY166, BLN44D", "No_Vehicul": "2", "Tipo_de_Ve": "AUTOMOVIL,MOTOCICLETA", "Ipat": 1632853.0, "Spoa": 82502.0, "SEXO": null, "EDAD": "0", "CONDICION": null, "TIPO_DE_AC": null, "VEHICULOS1": null, "VEHICULOS2": null, "comuna": 9.0, "nombre": "Comuna 9", "id_barrio": 909.0, "barrio": "Sucre", "Unnamed_ 0": null, "Unnamed_ 1": null, "Unnamed_ 2": null, "Unnamed_ 3": null, "Unnamed_ 4": null, "Id": 0, "area": 136572.15568900001 }, "geometry": { "type": "Point", "coordinates": [ -76.527501492463003, 3.447888308864224 ] } },
{ "type": "Feature", "properties": { "ID": 8242.0, "X": 1061119.6726, "Y": 873035.1786, "Municipio": "CALI", "Codigo": "AI010840", "Fecha": "2024-08-27 00:00:00", "horah": "23:29:00", "hora": 23.0, "semana": 35.0, "mes": 8.0, "Año": 2024.0, "dia_sem": 2.0, "Tipo_Confi": "Lesiones", "direccion": "CALLE 15  , CARRERA 10", "Clase_acci": "CHOQUE", "Tipo_Choqu": "VEHICULO", "placas": "ALR69F, XRO45F", "No_Vehicul": "2", "Tipo_de_Ve": "MOTOCICLETA,MOTOCICLETA", "Ipat": 1633221.0, "Spoa": 82609.0, "SEXO": null, "EDAD": "0", "CONDICION": null, "TIPO_DE_AC": null, "VEHICULOS1": null, "VEHICULOS2": null, "comuna": 9.0, "nombre": "Comuna 9", "id_barrio": 909.0, "barrio": "Sucre", "Unnamed_ 0": null, "Unnamed_ 1": null, "Unnamed_ 2": null, "Unnamed_ 3": null, "Unnamed_ 4": null, "Id": 0, "area": 136572.15568900001 }, "geometry": { "type": "Point", "coordinates": [ -76.527480044155297, 3.447866874576675 ] } },
{ "type": "Feature", "properties": { "ID": 8244.0, "X": 1061117.2883, "Y": 873038.7323, "Municipio": "CALI", "Codigo": "AI013428", "Fecha": "2024-10-31 00:00:00", "horah": "08:07:00", "hora": 8.0, "semana": 44.0, "mes": 10.0, "Año": 2024.0, "dia_sem": 4.0, "Tipo_Confi": "Lesiones", "direccion": "CALLE 15  , CARRERA 10", "Clase_acci": "CHOQUE", "Tipo_Choqu": "VEHICULO", "placas": "FPI26H, DOK05H", "No_Vehicul": "2", "Tipo_de_Ve": "MOTOCICLETA,MOTOCICLETA", "Ipat": 1634074.0, "Spoa": 83413.0, "SEXO": null, "EDAD": "0", "CONDICION": null, "TIPO_DE_AC": null, "VEHICULOS1": null, "VEHICULOS2": null, "comuna": 9.0, "nombre": "Comuna 9", "id_barrio": 909.0, "barrio": "Sucre", "Unnamed_ 0": null, "Unnamed_ 1": null, "Unnamed_ 2": null, "Unnamed_ 3": null, "Unnamed_ 4": null, "Id": 0, "area": 136572.15568900001 }, "geometry": { "type": "Point", "coordinates": [ -76.527501481808059, 3.447899022945051 ] } },
{ "type": "Feature", "properties": { "ID": 8247.0, "X": 1061112.3077700001, "Y": 873038.08790200006, "Municipio": "Cali", "Codigo": "<Null>", "Fecha": "2023-02-06 00:00:00", "horah": "<Null>", "hora": 0.0, "semana": 6.0, "mes": 2.0, "Año": 2023.0, "dia_sem": 1.0, "Tipo_Confi": "Lesiones", "direccion": "Calle 15 Carrera 10", "Clase_acci": "Atropello", "Tipo_Choqu": null, "placas": "PEATON, VCQ777", "No_Vehicul": "2", "Tipo_de_Ve": "BUS PADRON", "Ipat": 1524923.0, "Spoa": 80330.0, "SEXO": null, "EDAD": "0", "CONDICION": null, "TIPO_DE_AC": null, "VEHICULOS1": null, "VEHICULOS2": null, "comuna": 3.0, "nombre": "Comuna 3", "id_barrio": 310.0, "barrio": "El Calvario", "Unnamed_ 0": null, "Unnamed_ 1": null, "Unnamed_ 2": null, "Unnamed_ 3": null, "Unnamed_ 4": null, "Id": 0, "area": 136572.15568900001 }, "geometry": { "type": "Point", "coordinates": [ -76.527546304528826, 3.447893221689515 ] } },
{ "type": "Feature", "properties": { "ID": 8248.0, "X": 1061112.8369400001, "Y": 873038.08790200006, "Municipio": "Cali", "Codigo": "<Null>", "Fecha": "2023-06-17 00:00:00", "horah": "<Null>", "hora": 0.0, "semana": 24.0, "mes": 6.0, "Año": 2023.0, "dia_sem": 6.0, "Tipo_Confi": "Lesiones", "direccion": "Calle 15 Con Carrera 10", "Clase_acci": "Choque", "Tipo_Choqu": null, "placas": "SIQ42F, VCS073", "No_Vehicul": "2", "Tipo_de_Ve": "MOTOCICLETA,\"BUS ALIMENTADOR\"", "Ipat": 1526789.0, "Spoa": 81779.0, "SEXO": null, "EDAD": "0", "CONDICION": null, "TIPO_DE_AC": null, "VEHICULOS1": null, "VEHICULOS2": null, "comuna": 3.0, "nombre": "Comuna 3", "id_barrio": 310.0, "barrio": "El Calvario", "Unnamed_ 0": null, "Unnamed_ 1": null, "Unnamed_ 2": null, "Unnamed_ 3": null, "Unnamed_ 4": null, "Id": 0, "area": 136572.15568900001 }, "geometry": { "type": "Point", "coordinates": [ -76.527541542572237, 3.447893218927033 ] } },
{ "type": "Feature", "properties": { "ID": 13038.0, "X": 1060692.1, "Y": 872964.7, "Municipio": "CALI", "Codigo": "AI033407", "Fecha": "2026-01-03 00:00:00", "horah": "09:51:00", "hora": 9.0, "semana": 1.0, "mes": 1.0, "Año": 2026.0, "dia_sem": 7.0, "Tipo_Confi": "Lesiones", "direccion": "CALLE 11 CARRERA 10", "Clase_acci": "ATROPELLO", "Tipo_Choqu": null, "placas": "BOH57E", "No_Vehicul": null, "Tipo_de_Ve": "MOTOCICLETA,PEATÓN", "Ipat": 1721990.0, "Spoa": 80023.0, "SEXO": null, "EDAD": null, "CONDICION": null, "TIPO_DE_AC": null, "VEHICULOS1": null, "VEHICULOS2": null, "comuna": 16.0, "nombre": "Comuna 16", "id_barrio": 1601.0, "barrio": "Mariano Ramos", "Unnamed_ 0": null, "Unnamed_ 1": null, "Unnamed_ 2": null, "Unnamed_ 3": null, "Unnamed_ 4": null, "Id": 0, "area": 136572.15568900001 }, "geometry": { "type": "Point", "coordinates": [ -76.531328098914514, 3.447231764465185 ] } },
{ "type": "Feature", "properties": { "ID": 13632.0, "X": 1061007.3, "Y": 872471.3, "Municipio": "CALI", "Codigo": null, "Fecha": "2026-03-10 00:00:00", "horah": "17:15:00", "hora": 17.0, "semana": 11.0, "mes": 3.0, "Año": 2026.0, "dia_sem": 3.0, "Tipo_Confi": "Mortal", "direccion": "KR 15 CL 13", "Clase_acci": "ATROPELLO", "Tipo_Choqu": null, "placas": "VCQ481", "No_Vehicul": "1", "Tipo_de_Ve": "AUTOBUS,PEATÓN", "Ipat": 0.0, "Spoa": 165202516143.0, "SEXO": "Masculino", "EDAD": "45", "CONDICION": "Peatón", "TIPO_DE_AC": "Peatón atropellado", "VEHICULOS1": "Peatón", "VEHICULOS2": "Bus", "comuna": 3.0, "nombre": "Comuna 3", "id_barrio": 309.0, "barrio": "San Pascual", "Unnamed_ 0": null, "Unnamed_ 1": null, "Unnamed_ 2": null, "Unnamed_ 3": null, "Unnamed_ 4": null, "Id": 0, "area": 136572.15568900001 }, "geometry": { "type": "Point", "coordinates": [ -76.528494197933512, 3.442768335389784 ] } },
{ "type": "Feature", "properties": { "ID": 13642.0, "X": 1060622.5, "Y": 872556.6, "Municipio": "CALI", "Codigo": "AI035218", "Fecha": "2026-02-14 00:00:00", "horah": "17:10:00", "hora": 17.0, "semana": 7.0, "mes": 2.0, "Año": 2026.0, "dia_sem": 7.0, "Tipo_Confi": "Lesiones", "direccion": "CARRERA 14 CALLE 10", "Clase_acci": "CHOQUE", "Tipo_Choqu": "VEHICULO", "placas": "JBZ14G, QJS359", "No_Vehicul": "2", "Tipo_de_Ve": "MOTOCICLETA,AUTOMOVIL", "Ipat": 1797030.0, "Spoa": 80439.0, "SEXO": null, "EDAD": null, "CONDICION": null, "TIPO_DE_AC": null, "VEHICULOS1": null, "VEHICULOS2": null, "comuna": 3.0, "nombre": "Comuna 3", "id_barrio": 306.0, "barrio": "San Juan Bosco", "Unnamed_ 0": null, "Unnamed_ 1": null, "Unnamed_ 2": null, "Unnamed_ 3": null, "Unnamed_ 4": null, "Id": 0, "area": 136572.15568900001 }, "geometry": { "type": "Point", "coordinates": [ -76.531956525029699, 3.443541695461179 ] } },
{ "type": "Feature", "properties": { "ID": 13678.0, "X": 1060750.1, "Y": 872756.9, "Municipio": "CALI", "Codigo": "AI037966", "Fecha": "2026-04-11 00:00:00", "horah": "14:42:00", "hora": 14.0, "semana": 14.0, "mes": 4.0, "Año": 2026.0, "dia_sem": 7.0, "Tipo_Confi": "Lesiones", "direccion": "CALLE 11 CARRERA 12", "Clase_acci": "CHOQUE", "Tipo_Choqu": "VEHICULO", "placas": "DSY23I, KQK967", "No_Vehicul": "2", "Tipo_de_Ve": "MOTOCICLETA,AUTOMOVIL", "Ipat": 1797749.0, "Spoa": 81073.0, "SEXO": null, "EDAD": null, "CONDICION": null, "TIPO_DE_AC": null, "VEHICULOS1": null, "VEHICULOS2": null, "comuna": 3.0, "nombre": "Comuna 3", "id_barrio": 306.0, "barrio": "San Juan Bosco", "Unnamed_ 0": null, "Unnamed_ 1": null, "Unnamed_ 2": null, "Unnamed_ 3": null, "Unnamed_ 4": null, "Id": 0, "area": 136572.15568900001 }, "geometry": { "type": "Point", "coordinates": [ -76.530807234430114, 3.445352338214246 ] } },
{ "type": "Feature", "properties": { "ID": 13712.0, "X": 1060877.2, "Y": 873003.3, "Municipio": "CALI", "Codigo": "AI035237", "Fecha": "2026-02-15 00:00:00", "horah": "04:19:00", "hora": 4.0, "semana": 7.0, "mes": 2.0, "Año": 2026.0, "dia_sem": 1.0, "Tipo_Confi": "Lesiones", "direccion": "CALLE 13 CARRERA 10", "Clase_acci": "CHOQUE", "Tipo_Choqu": "VEHICULO", "placas": "HBV522, BSO83H", "No_Vehicul": "2", "Tipo_de_Ve": "AUTOMOVIL,MOTOCICLETA", "Ipat": 1797028.0, "Spoa": 80448.0, "SEXO": null, "EDAD": null, "CONDICION": null, "TIPO_DE_AC": null, "VEHICULOS1": null, "VEHICULOS2": null, "comuna": 3.0, "nombre": "Comuna 3", "id_barrio": 310.0, "barrio": "El Calvario", "Unnamed_ 0": null, "Unnamed_ 1": null, "Unnamed_ 2": null, "Unnamed_ 3": null, "Unnamed_ 4": null, "Id": 0, "area": 136572.15568900001 }, "geometry": { "type": "Point", "coordinates": [ -76.529662200090442, 3.447579861417039 ] } }
]
}
