{
"type": "FeatureCollection",
"name": "DATIC_violencia_intrafamiliar_2023_2026T1_poligono_ciudad_Paraiso",
"crs": { "type": "name", "properties": { "name": "urn:ogc:def:crs:OGC:1.3:CRS84" } },
"features": [
{ "type": "Feature", "properties": { "dinamica": "VIOLENCIA INTRAFAMILIAR", "titulo": "DELITOS CONTRA LA FAMILIA", "capitulo": "DE LA VIOLENCIA INTRAFAMILIAR", "articulo": "VIOLENCIA INTRAFAMILIAR ART. 229 C.P.", "grado_deli": "AGRAVADO", "tipo_notic": "DENUNCIA", "caracteriz": null, "modalidad": null, "modo": null, "motivo": null, "pais": "COLOMBIA", "dane_dep": 76, "departamen": "VALLE DEL CAUCA", "dane_mpio": 76001, "municipio": "CALI", "cod_comuna": 3.0, "comuna": "Comuna 3", "cod_barrio": 309.0, "nom_barrio": "San Pascual", "direccion": "76001 Calle 13A, San Pascual, Comuna 3, Cali, Valle del Cauca, COL,SAN PASCUAL", "sitio": "SIN INFORMACION", "x": -76.528312683110002, "y": 3.4442710876499998, "anio": 2023, "mes": "febrero", "dia": 28, "dia_semana": 3, "hora_hecho": "21:00", "barrio": "SAN PASCUAL", "estrato": 1, "geom": "0101000020E6100000000000E0CF2153C000000000DE8D0B40", "fecha_hech": "2023-02-28 00:00:00", "Id": 0, "area": 136572.15568900001 }, "geometry": { "type": "Point", "coordinates": [ -76.528312683110002, 3.44427108765 ] } },
{ "type": "Feature", "properties": { "dinamica": "VIOLENCIA INTRAFAMILIAR", "titulo": "DELITOS CONTRA LA FAMILIA", "capitulo": "DE LA VIOLENCIA INTRAFAMILIAR", "articulo": "VIOLENCIA INTRAFAMILIAR ART. 229 C.P.", "grado_deli": "AGRAVADO", "tipo_notic": "ACTOS URGENTES", "caracteriz": null, "modalidad": null, "modo": null, "motivo": null, "pais": "COLOMBIA", "dane_dep": 76, "departamen": "VALLE DEL CAUCA", "dane_mpio": 76001, "municipio": "CALI", "cod_comuna": 3.0, "comuna": "Comuna 3", "cod_barrio": 310.0, "nom_barrio": "El Calvario", "direccion": "76001 CARRERA 12 13 77", "sitio": "OTRO", "x": -76.528839111330001, "y": 3.4456939697300002, "anio": 2023, "mes": "abril", "dia": 4, "dia_semana": 3, "hora_hecho": "17:00", "barrio": "EL CALVARIO", "estrato": 3, "geom": "0101000020E610000000000080D82153C000000000C8900B40", "fecha_hech": "2023-04-04 00:00:00", "Id": 0, "area": 136572.15568900001 }, "geometry": { "type": "Point", "coordinates": [ -76.528839111330001, 3.44569396973 ] } },
{ "type": "Feature", "properties": { "dinamica": "VIOLENCIA INTRAFAMILIAR", "titulo": "DELITOS CONTRA LA FAMILIA", "capitulo": "DE LA VIOLENCIA INTRAFAMILIAR", "articulo": "VIOLENCIA INTRAFAMILIAR ART. 229 C.P.", "grado_deli": "AGRAVADO", "tipo_notic": "DENUNCIA", "caracteriz": null, "modalidad": null, "modo": null, "motivo": null, "pais": "COLOMBIA", "dane_dep": 76, "departamen": "VALLE DEL CAUCA", "dane_mpio": 76001, "municipio": "CALI", "cod_comuna": 3.0, "comuna": "Comuna 3", "cod_barrio": 310.0, "nom_barrio": "El Calvario", "direccion": "76001 BARRIO/LOCALIDAD/COMUNA:EL CALVARIO/COMUNA 3,CALI/VALLE DEL CAUCA,EL CALVARIO", "sitio": "SIN INFORMACION", "x": -76.529014587399999, "y": 3.4476010799400001, "anio": 2023, "mes": "mayo", "dia": 2, "dia_semana": 3, "hora_hecho": "16:00", "barrio": "EL CALVARIO", "estrato": 3, "geom": "0101000020E610000000000060DB2153C0000000E0AF940B40", "fecha_hech": "2023-05-02 00:00:00", "Id": 0, "area": 136572.15568900001 }, "geometry": { "type": "Point", "coordinates": [ -76.529014587399999, 3.44760107994 ] } },
{ "type": "Feature", "properties": { "dinamica": "VIOLENCIA INTRAFAMILIAR", "titulo": "DELITOS CONTRA LA FAMILIA", "capitulo": "DE LA VIOLENCIA INTRAFAMILIAR", "articulo": "VIOLENCIA INTRAFAMILIAR ART. 229 C.P.", "grado_deli": "NINGUNO", "tipo_notic": "DENUNCIA", "caracteriz": null, "modalidad": null, "modo": null, "motivo": null, "pais": "COLOMBIA", "dane_dep": 76, "departamen": "VALLE DEL CAUCA", "dane_mpio": 76001, "municipio": "CALI", "cod_comuna": 3.0, "comuna": "Comuna 3", "cod_barrio": 309.0, "nom_barrio": "San Pascual", "direccion": "76001 BARRIO/LOCALIDAD/COMUNA:SAN PASCUAL/COMUNA 3,CALI/VALLE DEL CAUCA,SAN PASCUAL", "sitio": "SIN INFORMACION", "x": -76.528213500980002, "y": 3.4443368911699999, "anio": 2023, "mes": "julio", "dia": 8, "dia_semana": 7, "hora_hecho": "11:27", "barrio": "SAN PASCUAL", "estrato": 1, "geom": "0101000020E610000000000040CE2153C000000080008E0B40", "fecha_hech": "2023-07-08 00:00:00", "Id": 0, "area": 136572.15568900001 }, "geometry": { "type": "Point", "coordinates": [ -76.528213500980002, 3.44433689117 ] } },
{ "type": "Feature", "properties": { "dinamica": "VIOLENCIA INTRAFAMILIAR", "titulo": "DELITOS CONTRA LA FAMILIA", "capitulo": "DE LA VIOLENCIA INTRAFAMILIAR", "articulo": "VIOLENCIA INTRAFAMILIAR ART. 229 C.P.", "grado_deli": "NINGUNO", "tipo_notic": "DENUNCIA", "caracteriz": null, "modalidad": null, "modo": null, "motivo": null, "pais": "COLOMBIA", "dane_dep": 76, "departamen": "VALLE DEL CAUCA", "dane_mpio": 76001, "municipio": "CALI", "cod_comuna": 3.0, "comuna": "Comuna 3", "cod_barrio": 309.0, "nom_barrio": "San Pascual", "direccion": "76001 Carrera 14 13A 19, San Pascual, Comuna 3, Cali, Valle del Cauca, COL,SAN PASCUAL", "sitio": "SIN INFORMACION", "x": -76.527473449710001, "y": 3.44341993332, "anio": 2023, "mes": "julio", "dia": 8, "dia_semana": 7, "hora_hecho": "15:00", "barrio": "SAN PASCUAL", "estrato": 1, "geom": "0101000020E610000000000020C22153C0000000C01F8C0B40", "fecha_hech": "2023-07-08 00:00:00", "Id": 0, "area": 136572.15568900001 }, "geometry": { "type": "Point", "coordinates": [ -76.527473449710001, 3.44341993332 ] } },
{ "type": "Feature", "properties": { "dinamica": "VIOLENCIA INTRAFAMILIAR", "titulo": "DELITOS CONTRA LA FAMILIA", "capitulo": "DE LA VIOLENCIA INTRAFAMILIAR", "articulo": "VIOLENCIA INTRAFAMILIAR ART. 229 C.P.", "grado_deli": "NINGUNO", "tipo_notic": "DENUNCIA", "caracteriz": null, "modalidad": null, "modo": null, "motivo": null, "pais": "COLOMBIA", "dane_dep": 76, "departamen": "VALLE DEL CAUCA", "dane_mpio": 76001, "municipio": "CALI", "cod_comuna": 3.0, "comuna": "Comuna 3", "cod_barrio": 309.0, "nom_barrio": "San Pascual", "direccion": "76001 Carrera 14 13A 19, San Pascual, Comuna 3, Cali, Valle del Cauca, COL,SAN PASCUAL", "sitio": "SIN INFORMACION", "x": -76.527473449710001, "y": 3.44341993332, "anio": 2023, "mes": "julio", "dia": 22, "dia_semana": 7, "hora_hecho": "09:00", "barrio": "SAN PASCUAL", "estrato": 1, "geom": "0101000020E610000000000020C22153C0000000C01F8C0B40", "fecha_hech": "2023-07-22 00:00:00", "Id": 0, "area": 136572.15568900001 }, "geometry": { "type": "Point", "coordinates": [ -76.527473449710001, 3.44341993332 ] } },
{ "type": "Feature", "properties": { "dinamica": "VIOLENCIA INTRAFAMILIAR", "titulo": "DELITOS CONTRA LA FAMILIA", "capitulo": "DE LA VIOLENCIA INTRAFAMILIAR", "articulo": "VIOLENCIA INTRAFAMILIAR ART. 229 C.P.", "grado_deli": "AGRAVADO", "tipo_notic": "DENUNCIA", "caracteriz": null, "modalidad": null, "modo": null, "motivo": null, "pais": "COLOMBIA", "dane_dep": 76, "departamen": "VALLE DEL CAUCA", "dane_mpio": 76001, "municipio": "CALI", "cod_comuna": 3.0, "comuna": "Comuna 3", "cod_barrio": 309.0, "nom_barrio": "San Pascual", "direccion": "76001 Carrera 12A 14 15, San Pascual, Comuna 3, Cali, Valle del Cauca, COL,SAN PASCUAL", "sitio": "SIN INFORMACION", "x": -76.527465820309999, "y": 3.44534993172, "anio": 2023, "mes": "agosto", "dia": 15, "dia_semana": 3, "hora_hecho": "14:30", "barrio": "SAN PASCUAL", "estrato": 1, "geom": "0101000020E610000000000000C22153C0000000A013900B40", "fecha_hech": "2023-08-15 00:00:00", "Id": 0, "area": 136572.15568900001 }, "geometry": { "type": "Point", "coordinates": [ -76.527465820309999, 3.44534993172 ] } },
{ "type": "Feature", "properties": { "dinamica": "VIOLENCIA INTRAFAMILIAR", "titulo": "DELITOS CONTRA LA FAMILIA", "capitulo": "DE LA VIOLENCIA INTRAFAMILIAR", "articulo": "VIOLENCIA INTRAFAMILIAR ART. 229 C.P.", "grado_deli": "AGRAVADO", "tipo_notic": "ACTOS URGENTES", "caracteriz": null, "modalidad": null, "modo": null, "motivo": null, "pais": "COLOMBIA", "dane_dep": 76, "departamen": "VALLE DEL CAUCA", "dane_mpio": 76001, "municipio": "CALI", "cod_comuna": 3.0, "comuna": "Comuna 3", "cod_barrio": 306.0, "nom_barrio": "San Juan Bosco", "direccion": "76001 CARRERA 14 11 72, SAN JUAN BOSCO, COMUNA 3, CALI, VALLE DEL CAUCA", "sitio": "DOMICILIO", "x": -76.530052185060001, "y": 3.4433600902600001, "anio": 2023, "mes": "septiembre", "dia": 6, "dia_semana": 4, "hora_hecho": "23:29", "barrio": "SAN JUAN BOSCO", "estrato": 3, "geom": "0101000020E610000000000060EC2153C000000060008C0B40", "fecha_hech": "2023-09-06 00:00:00", "Id": 0, "area": 136572.15568900001 }, "geometry": { "type": "Point", "coordinates": [ -76.530052185060001, 3.44336009026 ] } },
{ "type": "Feature", "properties": { "dinamica": "VIOLENCIA INTRAFAMILIAR", "titulo": "DELITOS CONTRA LA FAMILIA", "capitulo": "DE LA VIOLENCIA INTRAFAMILIAR", "articulo": "VIOLENCIA INTRAFAMILIAR ART. 229 C.P.", "grado_deli": "NINGUNO", "tipo_notic": "DENUNCIA", "caracteriz": null, "modalidad": null, "modo": null, "motivo": null, "pais": "COLOMBIA", "dane_dep": 76, "departamen": "VALLE DEL CAUCA", "dane_mpio": 76001, "municipio": "CALI", "cod_comuna": 3.0, "comuna": "Comuna 3", "cod_barrio": 309.0, "nom_barrio": "San Pascual", "direccion": "76001 Carrera 12 14, El Calvario, Comuna 3, Cali, Valle del Cauca, COL,EL CALVARIO", "sitio": "SIN INFORMACION", "x": -76.527320861820002, "y": 3.4458549022699998, "anio": 2023, "mes": "noviembre", "dia": 12, "dia_semana": 1, "hora_hecho": "01:00", "barrio": "EL CALVARIO", "estrato": 1, "geom": "0101000020E6100000000000A0BF2153C0000000601C910B40", "fecha_hech": "2023-11-12 00:00:00", "Id": 0, "area": 136572.15568900001 }, "geometry": { "type": "Point", "coordinates": [ -76.527320861820002, 3.44585490227 ] } },
{ "type": "Feature", "properties": { "dinamica": "VIOLENCIA INTRAFAMILIAR", "titulo": "DELITOS CONTRA LA FAMILIA", "capitulo": "DE LA VIOLENCIA INTRAFAMILIAR", "articulo": "VIOLENCIA INTRAFAMILIAR ART. 229 C.P.", "grado_deli": "NINGUNO", "tipo_notic": "ACTOS URGENTES", "caracteriz": null, "modalidad": null, "modo": null, "motivo": null, "pais": "COLOMBIA", "dane_dep": 76, "departamen": "VALLE DEL CAUCA", "dane_mpio": 76001, "municipio": "CALI", "cod_comuna": 3.0, "comuna": "Comuna 3", "cod_barrio": 309.0, "nom_barrio": "San Pascual", "direccion": "76001 CARRERA 14 12 1", "sitio": "DOMICILIO", "x": -76.529739379879999, "y": 3.4434518814100001, "anio": 2023, "mes": "noviembre", "dia": 26, "dia_semana": 1, "hora_hecho": "11:30", "barrio": "SAN PASCUAL", "estrato": 1, "geom": "0101000020E610000000000040E72153C000000080308C0B40", "fecha_hech": "2023-11-26 00:00:00", "Id": 0, "area": 136572.15568900001 }, "geometry": { "type": "Point", "coordinates": [ -76.529739379879999, 3.44345188141 ] } },
{ "type": "Feature", "properties": { "dinamica": "VIOLENCIA INTRAFAMILIAR", "titulo": "DELITOS CONTRA LA FAMILIA", "capitulo": "DE LA VIOLENCIA INTRAFAMILIAR", "articulo": "VIOLENCIA INTRAFAMILIAR ART. 229 C.P.", "grado_deli": "AGRAVADO", "tipo_notic": "DENUNCIA", "caracteriz": null, "modalidad": null, "modo": null, "motivo": null, "pais": "COLOMBIA", "dane_dep": 76, "departamen": "VALLE DEL CAUCA", "dane_mpio": 76001, "municipio": "CALI", "cod_comuna": 3.0, "comuna": "Comuna 3", "cod_barrio": 309.0, "nom_barrio": "San Pascual", "direccion": "76001 Calle 14 12A 20, San Pascual, Comuna 3, Cali, Valle del Cauca, COL,SAN PASCUAL", "sitio": "SIN INFORMACION", "x": -76.527610778810001, "y": 3.4451229572300002, "anio": 2023, "mes": "diciembre", "dia": 15, "dia_semana": 6, "hora_hecho": "13:00", "barrio": "SAN PASCUAL", "estrato": 1, "geom": "0101000020E610000000000060C42153C0000000A09C8F0B40", "fecha_hech": "2023-12-15 00:00:00", "Id": 0, "area": 136572.15568900001 }, "geometry": { "type": "Point", "coordinates": [ -76.527610778810001, 3.44512295723 ] } },
{ "type": "Feature", "properties": { "dinamica": "VIOLENCIA INTRAFAMILIAR", "titulo": "DELITOS CONTRA LA FAMILIA", "capitulo": "DE LA VIOLENCIA INTRAFAMILIAR", "articulo": "VIOLENCIA INTRAFAMILIAR ART. 229 C.P.", "grado_deli": "AGRAVADO", "tipo_notic": "DENUNCIA", "caracteriz": null, "modalidad": null, "modo": null, "motivo": null, "pais": "COLOMBIA", "dane_dep": 76, "departamen": "VALLE DEL CAUCA", "dane_mpio": 76001, "municipio": "CALI", "cod_comuna": 3.0, "comuna": "Comuna 3", "cod_barrio": 306.0, "nom_barrio": "San Juan Bosco", "direccion": "76001 Carrera 14 11 72, San Juan Bosco, Comuna 3, Cali, Valle del Cauca, COL,SAN JUAN BOSCO", "sitio": "SIN INFORMACION", "x": -76.530052185060001, "y": 3.4433600902600001, "anio": 2024, "mes": "enero", "dia": 9, "dia_semana": 3, "hora_hecho": "16:09", "barrio": "SAN JUAN BOSCO", "estrato": 3, "geom": "0101000020E610000000000060EC2153C000000060008C0B40", "fecha_hech": "2024-01-09 00:00:00", "Id": 0, "area": 136572.15568900001 }, "geometry": { "type": "Point", "coordinates": [ -76.530052185060001, 3.44336009026 ] } },
{ "type": "Feature", "properties": { "dinamica": "VIOLENCIA INTRAFAMILIAR", "titulo": "DELITOS CONTRA LA FAMILIA", "capitulo": "DE LA VIOLENCIA INTRAFAMILIAR", "articulo": "VIOLENCIA INTRAFAMILIAR ART. 229 C.P.", "grado_deli": "AGRAVADO", "tipo_notic": "ACTOS URGENTES", "caracteriz": null, "modalidad": null, "modo": null, "motivo": null, "pais": "COLOMBIA", "dane_dep": 76, "departamen": "VALLE DEL CAUCA", "dane_mpio": 76001, "municipio": "CALI", "cod_comuna": 3.0, "comuna": "Comuna 3", "cod_barrio": 306.0, "nom_barrio": "San Juan Bosco", "direccion": "76001 CALLE 11 13 24, SAN JUAN BOSCO, COMUNA 3, CALI, VALLE DEL CAUCA", "sitio": "DOMICILIO", "x": -76.530792236330001, "y": 3.4441900253300002, "anio": 2024, "mes": "enero", "dia": 9, "dia_semana": 3, "hora_hecho": "17:30", "barrio": "SAN JUAN BOSCO", "estrato": 3, "geom": "0101000020E610000000000080F82153C000000080B38D0B40", "fecha_hech": "2024-01-09 00:00:00", "Id": 0, "area": 136572.15568900001 }, "geometry": { "type": "Point", "coordinates": [ -76.530792236330001, 3.44419002533 ] } },
{ "type": "Feature", "properties": { "dinamica": "VIOLENCIA INTRAFAMILIAR", "titulo": "DELITOS CONTRA LA FAMILIA", "capitulo": "DE LA VIOLENCIA INTRAFAMILIAR", "articulo": "VIOLENCIA INTRAFAMILIAR ART. 229 C.P.", "grado_deli": "NINGUNO", "tipo_notic": "DENUNCIA", "caracteriz": null, "modalidad": null, "modo": null, "motivo": null, "pais": "COLOMBIA", "dane_dep": 76, "departamen": "VALLE DEL CAUCA", "dane_mpio": 76001, "municipio": "CALI", "cod_comuna": 3.0, "comuna": "Comuna 3", "cod_barrio": 309.0, "nom_barrio": "San Pascual", "direccion": "76001 Carrera 12A 13A 29, San Pascual, Comuna 3, Cali, Valle del Cauca, COL,SAN PASCUAL", "sitio": "SIN INFORMACION", "x": -76.528106689449999, "y": 3.4452760219599998, "anio": 2024, "mes": "enero", "dia": 19, "dia_semana": 6, "hora_hecho": "11:00", "barrio": "SAN PASCUAL", "estrato": 1, "geom": "0101000020E610000000000080CC2153C0000000E0EC8F0B40", "fecha_hech": "2024-01-19 00:00:00", "Id": 0, "area": 136572.15568900001 }, "geometry": { "type": "Point", "coordinates": [ -76.528106689449999, 3.44527602196 ] } },
{ "type": "Feature", "properties": { "dinamica": "VIOLENCIA INTRAFAMILIAR", "titulo": "DELITOS CONTRA LA FAMILIA", "capitulo": "DE LA VIOLENCIA INTRAFAMILIAR", "articulo": "VIOLENCIA INTRAFAMILIAR ART. 229 C.P.", "grado_deli": "NINGUNO", "tipo_notic": "ACTOS URGENTES", "caracteriz": null, "modalidad": null, "modo": null, "motivo": null, "pais": "COLOMBIA", "dane_dep": 76, "departamen": "VALLE DEL CAUCA", "dane_mpio": 76001, "municipio": "CALI", "cod_comuna": 3.0, "comuna": "Comuna 3", "cod_barrio": 309.0, "nom_barrio": "San Pascual", "direccion": "76001 CARRERA 14 13A-46, SAN PASCUAL, CALI, VALLE DEL CAUCA", "sitio": "DOMICILIO", "x": -76.527206420900001, "y": 3.4430820941900002, "anio": 2024, "mes": "marzo", "dia": 31, "dia_semana": 1, "hora_hecho": "20:00", "barrio": "SAN PASCUAL", "estrato": 1, "geom": "0101000020E6100000000000C0BD2153C0000000A06E8B0B40", "fecha_hech": "2024-03-31 00:00:00", "Id": 0, "area": 136572.15568900001 }, "geometry": { "type": "Point", "coordinates": [ -76.527206420900001, 3.44308209419 ] } },
{ "type": "Feature", "properties": { "dinamica": "VIOLENCIA INTRAFAMILIAR", "titulo": "DELITOS CONTRA LA FAMILIA", "capitulo": "DE LA VIOLENCIA INTRAFAMILIAR", "articulo": "VIOLENCIA INTRAFAMILIAR ART. 229 C.P.", "grado_deli": "NINGUNO", "tipo_notic": "ACTOS URGENTES", "caracteriz": null, "modalidad": null, "modo": null, "motivo": null, "pais": "COLOMBIA", "dane_dep": 76, "departamen": "VALLE DEL CAUCA", "dane_mpio": 76001, "municipio": "CALI", "cod_comuna": 3.0, "comuna": "Comuna 3", "cod_barrio": 307.0, "nom_barrio": "Santa Rosa", "direccion": "76001 CALLE 10 3, SANTA ROSA, CALI, VALLE DEL CAUCA", "sitio": "DOMICILIO", "x": -76.532531738279999, "y": 3.44685101509, "anio": 2024, "mes": "abril", "dia": 5, "dia_semana": 6, "hora_hecho": "19:00", "barrio": "SANTA ROSA", "estrato": 3, "geom": "0101000020E610000000000000152253C0000000A026930B40", "fecha_hech": "2024-04-05 00:00:00", "Id": 0, "area": 136572.15568900001 }, "geometry": { "type": "Point", "coordinates": [ -76.532531738279999, 3.44685101509 ] } },
{ "type": "Feature", "properties": { "dinamica": "VIOLENCIA INTRAFAMILIAR", "titulo": "DELITOS CONTRA LA FAMILIA", "capitulo": "DE LA VIOLENCIA INTRAFAMILIAR", "articulo": "VIOLENCIA INTRAFAMILIAR ART. 229 C.P.", "grado_deli": "NINGUNO", "tipo_notic": "ACTOS URGENTES", "caracteriz": null, "modalidad": null, "modo": null, "motivo": null, "pais": "COLOMBIA", "dane_dep": 76, "departamen": "VALLE DEL CAUCA", "dane_mpio": 76001, "municipio": "CALI", "cod_comuna": 3.0, "comuna": "Comuna 3", "cod_barrio": 307.0, "nom_barrio": "Santa Rosa", "direccion": "76001 CALLE 10 3, SANTA ROSA, CALI, VALLE DEL CAUCA", "sitio": "VIA PUBLICA", "x": -76.532531738279999, "y": 3.44685101509, "anio": 2024, "mes": "abril", "dia": 5, "dia_semana": 6, "hora_hecho": "19:00", "barrio": "SANTA ROSA", "estrato": 3, "geom": "0101000020E610000000000000152253C0000000A026930B40", "fecha_hech": "2024-04-05 00:00:00", "Id": 0, "area": 136572.15568900001 }, "geometry": { "type": "Point", "coordinates": [ -76.532531738279999, 3.44685101509 ] } },
{ "type": "Feature", "properties": { "dinamica": "VIOLENCIA INTRAFAMILIAR", "titulo": "DELITOS CONTRA LA FAMILIA", "capitulo": "DE LA VIOLENCIA INTRAFAMILIAR", "articulo": "VIOLENCIA INTRAFAMILIAR ART. 229 C.P.", "grado_deli": "NINGUNO", "tipo_notic": "DENUNCIA", "caracteriz": null, "modalidad": null, "modo": null, "motivo": null, "pais": "COLOMBIA", "dane_dep": 76, "departamen": "VALLE DEL CAUCA", "dane_mpio": 76001, "municipio": "CALI", "cod_comuna": 3.0, "comuna": "Comuna 3", "cod_barrio": 307.0, "nom_barrio": "Santa Rosa", "direccion": "76001 Calle 11 49, Santa Rosa, Cali, Valle del Cauca, COL,SANTA ROSA", "sitio": "SIN INFORMACION", "x": -76.531494140619998, "y": 3.4469370842, "anio": 2024, "mes": "mayo", "dia": 14, "dia_semana": 3, "hora_hecho": "18:39", "barrio": "SANTA ROSA", "estrato": 3, "geom": "0101000020E610000000000000042253C0000000C053930B40", "fecha_hech": "2024-05-14 00:00:00", "Id": 0, "area": 136572.15568900001 }, "geometry": { "type": "Point", "coordinates": [ -76.531494140619998, 3.4469370842 ] } },
{ "type": "Feature", "properties": { "dinamica": "VIOLENCIA INTRAFAMILIAR", "titulo": "DELITOS CONTRA LA FAMILIA", "capitulo": "DE LA VIOLENCIA INTRAFAMILIAR", "articulo": "VIOLENCIA INTRAFAMILIAR ART. 229 C.P.", "grado_deli": "NINGUNO", "tipo_notic": "DENUNCIA", "caracteriz": null, "modalidad": null, "modo": null, "motivo": null, "pais": "COLOMBIA", "dane_dep": 76, "departamen": "VALLE DEL CAUCA", "dane_mpio": 76001, "municipio": "CALI", "cod_comuna": 3.0, "comuna": "Comuna 3", "cod_barrio": 310.0, "nom_barrio": "El Calvario", "direccion": "76001 Calle 11 42, Santa Rosa, Cali, Valle del Cauca, COL,EL CALVARIO", "sitio": "SIN INFORMACION", "x": -76.531372070309999, "y": 3.4469380378699999, "anio": 2024, "mes": "junio", "dia": 10, "dia_semana": 2, "hora_hecho": "05:40", "barrio": "EL CALVARIO", "estrato": 3, "geom": "0101000020E610000000000000022253C00000004054930B40", "fecha_hech": "2024-06-10 00:00:00", "Id": 0, "area": 136572.15568900001 }, "geometry": { "type": "Point", "coordinates": [ -76.531372070309999, 3.44693803787 ] } },
{ "type": "Feature", "properties": { "dinamica": "VIOLENCIA INTRAFAMILIAR", "titulo": "DELITOS CONTRA LA FAMILIA", "capitulo": "DE LA VIOLENCIA INTRAFAMILIAR", "articulo": "VIOLENCIA INTRAFAMILIAR ART. 229 C.P.", "grado_deli": "AGRAVADO", "tipo_notic": "DENUNCIA", "caracteriz": null, "modalidad": null, "modo": null, "motivo": null, "pais": "COLOMBIA", "dane_dep": 76, "departamen": "VALLE DEL CAUCA", "dane_mpio": 76001, "municipio": "CALI", "cod_comuna": 3.0, "comuna": "Comuna 3", "cod_barrio": 306.0, "nom_barrio": "San Juan Bosco", "direccion": "76001 Calle 10 12 79, Santiago De Cali, Cali, Valle Del Cauca, COL,SAN JUAN BOSCO", "sitio": "SIN INFORMACION", "x": -76.532188415530001, "y": 3.4448959827399999, "anio": 2024, "mes": "julio", "dia": 2, "dia_semana": 3, "hora_hecho": "16:30", "barrio": "SAN JUAN BOSCO", "estrato": 3, "geom": "0101000020E6100000000000600F2253C0000000A0258F0B40", "fecha_hech": "2024-07-02 00:00:00", "Id": 0, "area": 136572.15568900001 }, "geometry": { "type": "Point", "coordinates": [ -76.532188415530001, 3.44489598274 ] } },
{ "type": "Feature", "properties": { "dinamica": "VIOLENCIA INTRAFAMILIAR", "titulo": "DELITOS CONTRA LA FAMILIA", "capitulo": "DE LA VIOLENCIA INTRAFAMILIAR", "articulo": "VIOLENCIA INTRAFAMILIAR ART. 229 C.P.", "grado_deli": "NINGUNO", "tipo_notic": "DENUNCIA", "caracteriz": null, "modalidad": null, "modo": null, "motivo": null, "pais": "COLOMBIA", "dane_dep": 76, "departamen": "VALLE DEL CAUCA", "dane_mpio": 76001, "municipio": "CALI", "cod_comuna": 3.0, "comuna": "Comuna 3", "cod_barrio": 306.0, "nom_barrio": "San Juan Bosco", "direccion": "76001 Calle 10 12 79, Santiago De Cali, Cali, Valle Del Cauca, COL,SAN JUAN BOSCO", "sitio": "SIN INFORMACION", "x": -76.532188415530001, "y": 3.4448959827399999, "anio": 2024, "mes": "julio", "dia": 2, "dia_semana": 3, "hora_hecho": "16:36", "barrio": "SAN JUAN BOSCO", "estrato": 3, "geom": "0101000020E6100000000000600F2253C0000000A0258F0B40", "fecha_hech": "2024-07-02 00:00:00", "Id": 0, "area": 136572.15568900001 }, "geometry": { "type": "Point", "coordinates": [ -76.532188415530001, 3.44489598274 ] } },
{ "type": "Feature", "properties": { "dinamica": "VIOLENCIA INTRAFAMILIAR", "titulo": "DELITOS CONTRA LA FAMILIA", "capitulo": "DE LA VIOLENCIA INTRAFAMILIAR", "articulo": "VIOLENCIA INTRAFAMILIAR ART. 229 C.P.", "grado_deli": "AGRAVADO", "tipo_notic": "DENUNCIA", "caracteriz": null, "modalidad": null, "modo": null, "motivo": null, "pais": "COLOMBIA", "dane_dep": 76, "departamen": "VALLE DEL CAUCA", "dane_mpio": 76001, "municipio": "CALI", "cod_comuna": 3.0, "comuna": "Comuna 3", "cod_barrio": 309.0, "nom_barrio": "San Pascual", "direccion": "76001 Calle 13A con Carrera 13, San Pascual, Cali, Valle del Cauca, COL,SAN PASCUAL", "sitio": "SIN INFORMACION", "x": -76.528099060060001, "y": 3.4446189403499998, "anio": 2024, "mes": "julio", "dia": 4, "dia_semana": 5, "hora_hecho": "16:34", "barrio": "SAN PASCUAL", "estrato": 1, "geom": "0101000020E610000000000060CC2153C000000060948E0B40", "fecha_hech": "2024-07-04 00:00:00", "Id": 0, "area": 136572.15568900001 }, "geometry": { "type": "Point", "coordinates": [ -76.528099060060001, 3.44461894035 ] } },
{ "type": "Feature", "properties": { "dinamica": "VIOLENCIA INTRAFAMILIAR", "titulo": "DELITOS CONTRA LA FAMILIA", "capitulo": "DE LA VIOLENCIA INTRAFAMILIAR", "articulo": "VIOLENCIA INTRAFAMILIAR ART. 229 C.P.", "grado_deli": "AGRAVADO", "tipo_notic": "DENUNCIA", "caracteriz": null, "modalidad": null, "modo": null, "motivo": null, "pais": "COLOMBIA", "dane_dep": 76, "departamen": "VALLE DEL CAUCA", "dane_mpio": 76001, "municipio": "CALI", "cod_comuna": 3.0, "comuna": "Comuna 3", "cod_barrio": 307.0, "nom_barrio": "Santa Rosa", "direccion": "76001 Carrera 12 10-84, Santa Rosa, Cali, Valle del Cauca, COL,SANTA ROSA", "sitio": "SIN INFORMACION", "x": -76.53212738037, "y": 3.4453659057600001, "anio": 2024, "mes": "julio", "dia": 20, "dia_semana": 7, "hora_hecho": "08:00", "barrio": "SANTA ROSA", "estrato": 3, "geom": "0101000020E6100000000000600E2253C0000000001C900B40", "fecha_hech": "2024-07-20 00:00:00", "Id": 0, "area": 136572.15568900001 }, "geometry": { "type": "Point", "coordinates": [ -76.53212738037, 3.44536590576 ] } },
{ "type": "Feature", "properties": { "dinamica": "VIOLENCIA INTRAFAMILIAR", "titulo": "DELITOS CONTRA LA FAMILIA", "capitulo": "DE LA VIOLENCIA INTRAFAMILIAR", "articulo": "VIOLENCIA INTRAFAMILIAR ART. 229 C.P.", "grado_deli": "NINGUNO", "tipo_notic": "DENUNCIA", "caracteriz": null, "modalidad": null, "modo": null, "motivo": null, "pais": "COLOMBIA", "dane_dep": 76, "departamen": "VALLE DEL CAUCA", "dane_mpio": 76001, "municipio": "CALI", "cod_comuna": 3.0, "comuna": "Comuna 3", "cod_barrio": 306.0, "nom_barrio": "San Juan Bosco", "direccion": "76001 Calle 10 12 79, Santiago De Cali, Cali, Valle Del Cauca, COL,SAN JUAN BOSCO", "sitio": "SIN INFORMACION", "x": -76.532188415530001, "y": 3.4448959827399999, "anio": 2024, "mes": "septiembre", "dia": 3, "dia_semana": 3, "hora_hecho": "17:00", "barrio": "SAN JUAN BOSCO", "estrato": 3, "geom": "0101000020E6100000000000600F2253C0000000A0258F0B40", "fecha_hech": "2024-09-03 00:00:00", "Id": 0, "area": 136572.15568900001 }, "geometry": { "type": "Point", "coordinates": [ -76.532188415530001, 3.44489598274 ] } },
{ "type": "Feature", "properties": { "dinamica": "VIOLENCIA INTRAFAMILIAR", "titulo": "DELITOS CONTRA LA FAMILIA", "capitulo": "DE LA VIOLENCIA INTRAFAMILIAR", "articulo": "VIOLENCIA INTRAFAMILIAR ART. 229 C.P.", "grado_deli": "NINGUNO", "tipo_notic": "DENUNCIA", "caracteriz": null, "modalidad": null, "modo": null, "motivo": null, "pais": "COLOMBIA", "dane_dep": 76, "departamen": "VALLE DEL CAUCA", "dane_mpio": 76001, "municipio": "CALI", "cod_comuna": 3.0, "comuna": "Comuna 3", "cod_barrio": 310.0, "nom_barrio": "El Calvario", "direccion": "76001 Calle 12, El Calvario, Cali, Valle del Cauca, COL,EL CALVARIO", "sitio": "SIN INFORMACION", "x": -76.530654907230002, "y": 3.44710707664, "anio": 2024, "mes": "octubre", "dia": 14, "dia_semana": 2, "hora_hecho": "15:46", "barrio": "EL CALVARIO", "estrato": 3, "geom": "0101000020E610000000000040F62153C0000000E0AC930B40", "fecha_hech": "2024-10-14 00:00:00", "Id": 0, "area": 136572.15568900001 }, "geometry": { "type": "Point", "coordinates": [ -76.530654907230002, 3.44710707664 ] } },
{ "type": "Feature", "properties": { "dinamica": "VIOLENCIA INTRAFAMILIAR", "titulo": "DELITOS CONTRA LA FAMILIA", "capitulo": "DE LA VIOLENCIA INTRAFAMILIAR", "articulo": "VIOLENCIA INTRAFAMILIAR ART. 229 C.P.", "grado_deli": "NINGUNO", "tipo_notic": "ACTOS URGENTES", "caracteriz": null, "modalidad": null, "modo": null, "motivo": null, "pais": "COLOMBIA", "dane_dep": 76, "departamen": "VALLE DEL CAUCA", "dane_mpio": 76001, "municipio": "CALI", "cod_comuna": 3.0, "comuna": "Comuna 3", "cod_barrio": 309.0, "nom_barrio": "San Pascual", "direccion": "76001 CALLE 13A 13A 57", "sitio": "VIA PUBLICA", "x": -76.527793884280001, "y": 3.44356894493, "anio": 2024, "mes": "octubre", "dia": 15, "dia_semana": 3, "hora_hecho": "16:00", "barrio": "SAN PASCUAL", "estrato": 1, "geom": "0101000020E610000000000060C72153C0000000E06D8C0B40", "fecha_hech": "2024-10-15 00:00:00", "Id": 0, "area": 136572.15568900001 }, "geometry": { "type": "Point", "coordinates": [ -76.527793884280001, 3.44356894493 ] } },
{ "type": "Feature", "properties": { "dinamica": "VIOLENCIA INTRAFAMILIAR", "titulo": "DELITOS CONTRA LA FAMILIA", "capitulo": "DE LA VIOLENCIA INTRAFAMILIAR", "articulo": "VIOLENCIA INTRAFAMILIAR ART. 229 C.P.", "grado_deli": "NINGUNO", "tipo_notic": "DENUNCIA", "caracteriz": null, "modalidad": null, "modo": null, "motivo": null, "pais": "COLOMBIA", "dane_dep": 76, "departamen": "VALLE DEL CAUCA", "dane_mpio": 76001, "municipio": "CALI", "cod_comuna": 3.0, "comuna": "Comuna 3", "cod_barrio": 306.0, "nom_barrio": "San Juan Bosco", "direccion": "76001 Calle 10 14 13, Santiago De Cali, Cali, Valle Del Cauca, COL,SAN JUAN BOSCO", "sitio": "SIN INFORMACION", "x": -76.53190612793, "y": 3.4433479309099999, "anio": 2024, "mes": "octubre", "dia": 17, "dia_semana": 5, "hora_hecho": "02:30", "barrio": "SAN JUAN BOSCO", "estrato": 3, "geom": "0101000020E6100000000000C00A2253C000000000FA8B0B40", "fecha_hech": "2024-10-17 00:00:00", "Id": 0, "area": 136572.15568900001 }, "geometry": { "type": "Point", "coordinates": [ -76.53190612793, 3.44334793091 ] } },
{ "type": "Feature", "properties": { "dinamica": "VIOLENCIA INTRAFAMILIAR", "titulo": "DELITOS CONTRA LA FAMILIA", "capitulo": "DE LA VIOLENCIA INTRAFAMILIAR", "articulo": "VIOLENCIA INTRAFAMILIAR ART. 229 C.P.", "grado_deli": "NINGUNO", "tipo_notic": "ACTOS URGENTES", "caracteriz": null, "modalidad": null, "modo": null, "motivo": null, "pais": "COLOMBIA", "dane_dep": 76, "departamen": "VALLE DEL CAUCA", "dane_mpio": 76001, "municipio": "CALI", "cod_comuna": 3.0, "comuna": "Comuna 3", "cod_barrio": 306.0, "nom_barrio": "San Juan Bosco", "direccion": "76001 CARRERA 13 10 69", "sitio": "DOMICILIO", "x": -76.53173828125, "y": 3.4445970058399999, "anio": 2024, "mes": "noviembre", "dia": 3, "dia_semana": 1, "hora_hecho": "15:30", "barrio": "SAN JUAN BOSCO", "estrato": 3, "geom": "0101000020E610000000000000082253C0000000E0888E0B40", "fecha_hech": "2024-11-03 00:00:00", "Id": 0, "area": 136572.15568900001 }, "geometry": { "type": "Point", "coordinates": [ -76.53173828125, 3.44459700584 ] } },
{ "type": "Feature", "properties": { "dinamica": "VIOLENCIA INTRAFAMILIAR", "titulo": "DELITOS CONTRA LA FAMILIA", "capitulo": "DE LA VIOLENCIA INTRAFAMILIAR", "articulo": "VIOLENCIA INTRAFAMILIAR ART. 229 C.P.", "grado_deli": "NINGUNO", "tipo_notic": "DENUNCIA", "caracteriz": null, "modalidad": null, "modo": null, "motivo": null, "pais": "COLOMBIA", "dane_dep": 76, "departamen": "VALLE DEL CAUCA", "dane_mpio": 76001, "municipio": "CALI", "cod_comuna": 3.0, "comuna": "Comuna 3", "cod_barrio": 309.0, "nom_barrio": "San Pascual", "direccion": "76001 Carrera 13 13 72, Santiago De Cali, Cali, Valle Del Cauca, COL,SAN PASCUAL", "sitio": "SIN INFORMACION", "x": -76.52833557129, "y": 3.4444119930300001, "anio": 2025, "mes": "febrero", "dia": 19, "dia_semana": 4, "hora_hecho": "20:00", "barrio": "SAN PASCUAL", "estrato": 1, "geom": "0101000020E610000000000040D02153C0000000E0278E0B40", "fecha_hech": "2025-02-19 00:00:00", "Id": 0, "area": 136572.15568900001 }, "geometry": { "type": "Point", "coordinates": [ -76.52833557129, 3.44441199303 ] } },
{ "type": "Feature", "properties": { "dinamica": "VIOLENCIA INTRAFAMILIAR", "titulo": "DELITOS CONTRA LA FAMILIA", "capitulo": "DE LA VIOLENCIA INTRAFAMILIAR", "articulo": "VIOLENCIA INTRAFAMILIAR ART. 229 C.P.", "grado_deli": "NINGUNO", "tipo_notic": "ACTOS URGENTES", "caracteriz": null, "modalidad": null, "modo": null, "motivo": null, "pais": "COLOMBIA", "dane_dep": 76, "departamen": "VALLE DEL CAUCA", "dane_mpio": 76001, "municipio": "CALI", "cod_comuna": 3.0, "comuna": "Comuna 3", "cod_barrio": 306.0, "nom_barrio": "San Juan Bosco", "direccion": "76001 CALLE 10 CON CARRERA 15 10, SAN JUAN BOSCO, CALI, VALLE DEL CAUCA", "sitio": "HOTEL / HOSTAL", "x": -76.53197479248, "y": 3.4424951076500001, "anio": 2025, "mes": "febrero", "dia": 21, "dia_semana": 6, "hora_hecho": "09:00", "barrio": "SAN JUAN BOSCO", "estrato": 3, "geom": "0101000020E6100000000000E00B2253C0000000E03A8A0B40", "fecha_hech": "2025-02-21 00:00:00", "Id": 0, "area": 136572.15568900001 }, "geometry": { "type": "Point", "coordinates": [ -76.53197479248, 3.44249510765 ] } },
{ "type": "Feature", "properties": { "dinamica": "VIOLENCIA INTRAFAMILIAR", "titulo": "DELITOS CONTRA LA FAMILIA", "capitulo": "DE LA VIOLENCIA INTRAFAMILIAR", "articulo": "VIOLENCIA INTRAFAMILIAR ART. 229 C.P.", "grado_deli": "NINGUNO", "tipo_notic": "ACTOS URGENTES", "caracteriz": null, "modalidad": null, "modo": null, "motivo": null, "pais": "COLOMBIA", "dane_dep": 76, "departamen": "VALLE DEL CAUCA", "dane_mpio": 76001, "municipio": "CALI", "cod_comuna": 3.0, "comuna": "Comuna 3", "cod_barrio": 309.0, "nom_barrio": "San Pascual", "direccion": "76001 CALLE 13A 13 88, SANTIAGO DE CALI, CALI, VALLE DEL CAUCA", "sitio": "DOMICILIO", "x": -76.52840423584, "y": 3.44436311722, "anio": 2025, "mes": "marzo", "dia": 4, "dia_semana": 3, "hora_hecho": "09:22", "barrio": "SAN PASCUAL", "estrato": 1, "geom": "0101000020E610000000000060D12153C0000000400E8E0B40", "fecha_hech": "2025-03-04 00:00:00", "Id": 0, "area": 136572.15568900001 }, "geometry": { "type": "Point", "coordinates": [ -76.52840423584, 3.44436311722 ] } },
{ "type": "Feature", "properties": { "dinamica": "VIOLENCIA INTRAFAMILIAR", "titulo": "DELITOS CONTRA LA FAMILIA", "capitulo": "DE LA VIOLENCIA INTRAFAMILIAR", "articulo": "VIOLENCIA INTRAFAMILIAR ART. 229 C.P.", "grado_deli": "NINGUNO", "tipo_notic": "ACTOS URGENTES", "caracteriz": null, "modalidad": null, "modo": null, "motivo": null, "pais": "COLOMBIA", "dane_dep": 76, "departamen": "VALLE DEL CAUCA", "dane_mpio": 76001, "municipio": "CALI", "cod_comuna": 3.0, "comuna": "Comuna 3", "cod_barrio": 306.0, "nom_barrio": "San Juan Bosco", "direccion": "76001 CARRERA 12 CON CALLE 11, SANTA ROSA, CALI, VALLE DEL CAUCA", "sitio": "OTRO", "x": -76.53101348877, "y": 3.4454290866899999, "anio": 2025, "mes": "marzo", "dia": 10, "dia_semana": 2, "hora_hecho": "19:00", "barrio": "SAN JUAN BOSCO", "estrato": 3, "geom": "0101000020E610000000000020FC2153C0000000203D900B40", "fecha_hech": "2025-03-10 00:00:00", "Id": 0, "area": 136572.15568900001 }, "geometry": { "type": "Point", "coordinates": [ -76.53101348877, 3.44542908669 ] } },
{ "type": "Feature", "properties": { "dinamica": "VIOLENCIA INTRAFAMILIAR", "titulo": "DELITOS CONTRA LA FAMILIA", "capitulo": "DE LA VIOLENCIA INTRAFAMILIAR", "articulo": "VIOLENCIA INTRAFAMILIAR ART. 229 C.P.", "grado_deli": "NINGUNO", "tipo_notic": "DENUNCIA", "caracteriz": null, "modalidad": null, "modo": null, "motivo": null, "pais": "COLOMBIA", "dane_dep": 76, "departamen": "VALLE DEL CAUCA", "dane_mpio": 76001, "municipio": "CALI", "cod_comuna": 3.0, "comuna": "Comuna 3", "cod_barrio": 306.0, "nom_barrio": "San Juan Bosco", "direccion": "76001", "sitio": "SIN INFORMACION", "x": -76.530601501459998, "y": 3.4436070919000001, "anio": 2025, "mes": "marzo", "dia": 17, "dia_semana": 2, "hora_hecho": "13:00", "barrio": null, "estrato": 3, "geom": "0101000020E610000000000060F52153C0000000E0818C0B40", "fecha_hech": "2025-03-17 00:00:00", "Id": 0, "area": 136572.15568900001 }, "geometry": { "type": "Point", "coordinates": [ -76.530601501459998, 3.4436070919 ] } },
{ "type": "Feature", "properties": { "dinamica": "VIOLENCIA INTRAFAMILIAR", "titulo": "DELITOS CONTRA LA FAMILIA", "capitulo": "DE LA VIOLENCIA INTRAFAMILIAR", "articulo": "VIOLENCIA INTRAFAMILIAR ART. 229 C.P.", "grado_deli": "NINGUNO", "tipo_notic": "DENUNCIA", "caracteriz": null, "modalidad": null, "modo": null, "motivo": null, "pais": "COLOMBIA", "dane_dep": 76, "departamen": "VALLE DEL CAUCA", "dane_mpio": 76001, "municipio": "CALI", "cod_comuna": 3.0, "comuna": "Comuna 3", "cod_barrio": 309.0, "nom_barrio": "San Pascual", "direccion": "76001 Carrera 13, San Pascual, Cali, Valle del Cauca, COL,SAN PASCUAL", "sitio": "SIN INFORMACION", "x": -76.528678894039999, "y": 3.4445691108699998, "anio": 2025, "mes": "abril", "dia": 7, "dia_semana": 2, "hora_hecho": "13:00", "barrio": "SAN PASCUAL", "estrato": 1, "geom": "0101000020E6100000000000E0D52153C0000000407A8E0B40", "fecha_hech": "2025-04-07 00:00:00", "Id": 0, "area": 136572.15568900001 }, "geometry": { "type": "Point", "coordinates": [ -76.528678894039999, 3.44456911087 ] } },
{ "type": "Feature", "properties": { "dinamica": "VIOLENCIA INTRAFAMILIAR", "titulo": "DELITOS CONTRA LA FAMILIA", "capitulo": "DE LA VIOLENCIA INTRAFAMILIAR", "articulo": "VIOLENCIA INTRAFAMILIAR ART. 229 C.P.", "grado_deli": "NINGUNO", "tipo_notic": "DENUNCIA", "caracteriz": null, "modalidad": null, "modo": null, "motivo": null, "pais": "COLOMBIA", "dane_dep": 76, "departamen": "VALLE DEL CAUCA", "dane_mpio": 76001, "municipio": "CALI", "cod_comuna": 3.0, "comuna": "Comuna 3", "cod_barrio": 309.0, "nom_barrio": "San Pascual", "direccion": "76001 Calle 15 14 22, San Pascual, Cali, Valle del Cauca, COL,SAN PASCUAL", "sitio": "SIN INFORMACION", "x": -76.526222228999998, "y": 3.4429590702100001, "anio": 2025, "mes": "mayo", "dia": 14, "dia_semana": 4, "hora_hecho": "07:00", "barrio": "SAN PASCUAL", "estrato": 1, "geom": "0101000020E6100000000000A0AD2153C0000000202E8B0B40", "fecha_hech": "2025-05-14 00:00:00", "Id": 0, "area": 136572.15568900001 }, "geometry": { "type": "Point", "coordinates": [ -76.526222229, 3.44295907021 ] } },
{ "type": "Feature", "properties": { "dinamica": "VIOLENCIA INTRAFAMILIAR", "titulo": "DELITOS CONTRA LA FAMILIA", "capitulo": "DE LA VIOLENCIA INTRAFAMILIAR", "articulo": "VIOLENCIA INTRAFAMILIAR ART. 229 C.P.", "grado_deli": "AGRAVADO", "tipo_notic": "DENUNCIA", "caracteriz": null, "modalidad": null, "modo": null, "motivo": null, "pais": "COLOMBIA", "dane_dep": 76, "departamen": "VALLE DEL CAUCA", "dane_mpio": 76001, "municipio": "CALI", "cod_comuna": 3.0, "comuna": "Comuna 3", "cod_barrio": 309.0, "nom_barrio": "San Pascual", "direccion": "76001 Calle 15 14 22, San Pascual, Cali, Valle del Cauca, COL,SAN PASCUAL", "sitio": "SIN INFORMACION", "x": -76.526222228999998, "y": 3.4429590702100001, "anio": 2025, "mes": "mayo", "dia": 14, "dia_semana": 4, "hora_hecho": "13:00", "barrio": "SAN PASCUAL", "estrato": 1, "geom": "0101000020E6100000000000A0AD2153C0000000202E8B0B40", "fecha_hech": "2025-05-14 00:00:00", "Id": 0, "area": 136572.15568900001 }, "geometry": { "type": "Point", "coordinates": [ -76.526222229, 3.44295907021 ] } },
{ "type": "Feature", "properties": { "dinamica": "VIOLENCIA INTRAFAMILIAR", "titulo": "DELITOS CONTRA LA FAMILIA", "capitulo": "DE LA VIOLENCIA INTRAFAMILIAR", "articulo": "VIOLENCIA INTRAFAMILIAR ART. 229 C.P.", "grado_deli": "NINGUNO", "tipo_notic": "DENUNCIA", "caracteriz": null, "modalidad": null, "modo": null, "motivo": null, "pais": "COLOMBIA", "dane_dep": 76, "departamen": "VALLE DEL CAUCA", "dane_mpio": 76001, "municipio": "CALI", "cod_comuna": 3.0, "comuna": "Comuna 3", "cod_barrio": 309.0, "nom_barrio": "San Pascual", "direccion": "76001 San Pascual, Cali, Valle del Cauca, COL,SAN PASCUAL", "sitio": "SIN INFORMACION", "x": -76.528007507319998, "y": 3.4441530704500001, "anio": 2025, "mes": "junio", "dia": 8, "dia_semana": 1, "hora_hecho": "13:00", "barrio": "SAN PASCUAL", "estrato": 1, "geom": "0101000020E6100000000000E0CA2153C000000020A08D0B40", "fecha_hech": "2025-06-08 00:00:00", "Id": 0, "area": 136572.15568900001 }, "geometry": { "type": "Point", "coordinates": [ -76.528007507319998, 3.44415307045 ] } },
{ "type": "Feature", "properties": { "dinamica": "VIOLENCIA INTRAFAMILIAR", "titulo": "DELITOS CONTRA LA FAMILIA", "capitulo": "DE LA VIOLENCIA INTRAFAMILIAR", "articulo": "VIOLENCIA INTRAFAMILIAR ART. 229 C.P.", "grado_deli": "NINGUNO", "tipo_notic": "DENUNCIA", "caracteriz": null, "modalidad": null, "modo": null, "motivo": null, "pais": "COLOMBIA", "dane_dep": 76, "departamen": "VALLE DEL CAUCA", "dane_mpio": 76001, "municipio": "CALI", "cod_comuna": 3.0, "comuna": "Comuna 3", "cod_barrio": 310.0, "nom_barrio": "El Calvario", "direccion": "76001 Calle 12 11 84, El Calvario, Cali, Valle del Cauca, COL,EL CALVARIO", "sitio": "SIN INFORMACION", "x": -76.53044128418, "y": 3.4457910060899999, "anio": 2025, "mes": "julio", "dia": 21, "dia_semana": 2, "hora_hecho": "15:00", "barrio": "EL CALVARIO", "estrato": 3, "geom": "0101000020E6100000000000C0F22153C0000000E0FA900B40", "fecha_hech": "2025-07-21 00:00:00", "Id": 0, "area": 136572.15568900001 }, "geometry": { "type": "Point", "coordinates": [ -76.53044128418, 3.44579100609 ] } },
{ "type": "Feature", "properties": { "dinamica": "VIOLENCIA INTRAFAMILIAR", "titulo": "DELITOS CONTRA LA FAMILIA", "capitulo": "DE LA VIOLENCIA INTRAFAMILIAR", "articulo": "VIOLENCIA INTRAFAMILIAR ART. 229 C.P.", "grado_deli": "AGRAVADO", "tipo_notic": "DENUNCIA", "caracteriz": null, "modalidad": null, "modo": null, "motivo": null, "pais": "COLOMBIA", "dane_dep": 76, "departamen": "VALLE DEL CAUCA", "dane_mpio": 76001, "municipio": "CALI", "cod_comuna": 3.0, "comuna": "Comuna 3", "cod_barrio": 310.0, "nom_barrio": "El Calvario", "direccion": "76001 CALLE 13 11 62", "sitio": "VIA PUBLICA", "x": -76.52970123291, "y": 3.4460010528599998, "anio": 2025, "mes": "julio", "dia": 30, "dia_semana": 4, "hora_hecho": "21:00", "barrio": "EL CALVARIO", "estrato": 3, "geom": "0101000020E6100000000000A0E62153C00000000069910B40", "fecha_hech": "2025-07-30 00:00:00", "Id": 0, "area": 136572.15568900001 }, "geometry": { "type": "Point", "coordinates": [ -76.52970123291, 3.44600105286 ] } },
{ "type": "Feature", "properties": { "dinamica": "VIOLENCIA INTRAFAMILIAR", "titulo": "DELITOS CONTRA LA FAMILIA", "capitulo": "DE LA VIOLENCIA INTRAFAMILIAR", "articulo": "VIOLENCIA INTRAFAMILIAR ART. 229 C.P.", "grado_deli": "NINGUNO", "tipo_notic": "DENUNCIA", "caracteriz": null, "modalidad": null, "modo": null, "motivo": null, "pais": "COLOMBIA", "dane_dep": 76, "departamen": "VALLE DEL CAUCA", "dane_mpio": 76001, "municipio": "CALI", "cod_comuna": 3.0, "comuna": "Comuna 3", "cod_barrio": 309.0, "nom_barrio": "San Pascual", "direccion": "76001 Carrera 14 14 86, San Pascual, Cali, Valle del Cauca, COL,SAN PASCUAL", "sitio": "SIN INFORMACION", "x": -76.52675628662, "y": 3.4433660507199999, "anio": 2025, "mes": "agosto", "dia": 21, "dia_semana": 5, "hora_hecho": "04:50", "barrio": "SAN PASCUAL", "estrato": 1, "geom": "0101000020E610000000000060B62153C000000080038C0B40", "fecha_hech": "2025-08-21 00:00:00", "Id": 0, "area": 136572.15568900001 }, "geometry": { "type": "Point", "coordinates": [ -76.52675628662, 3.44336605072 ] } },
{ "type": "Feature", "properties": { "dinamica": "VIOLENCIA INTRAFAMILIAR", "titulo": "DELITOS CONTRA LA FAMILIA", "capitulo": "DE LA VIOLENCIA INTRAFAMILIAR", "articulo": "VIOLENCIA INTRAFAMILIAR ART. 229 C.P.", "grado_deli": "NINGUNO", "tipo_notic": "DENUNCIA", "caracteriz": null, "modalidad": null, "modo": null, "motivo": null, "pais": "COLOMBIA", "dane_dep": 76, "departamen": "VALLE DEL CAUCA", "dane_mpio": 76001, "municipio": "CALI", "cod_comuna": 3.0, "comuna": "Comuna 3", "cod_barrio": 309.0, "nom_barrio": "San Pascual", "direccion": "76001 Carrera 14 13A 71, San Pascual, Cali, Valle del Cauca, COL,SAN PASCUAL", "sitio": "SIN INFORMACION", "x": -76.527046203609999, "y": 3.4434790611300001, "anio": 2025, "mes": "octubre", "dia": 5, "dia_semana": 1, "hora_hecho": "23:30", "barrio": "SAN PASCUAL", "estrato": 1, "geom": "0101000020E610000000000020BB2153C0000000C03E8C0B40", "fecha_hech": "2025-10-05 00:00:00", "Id": 0, "area": 136572.15568900001 }, "geometry": { "type": "Point", "coordinates": [ -76.527046203609999, 3.44347906113 ] } },
{ "type": "Feature", "properties": { "dinamica": "VIOLENCIA INTRAFAMILIAR", "titulo": "DELITOS CONTRA LA FAMILIA", "capitulo": "DE LA VIOLENCIA INTRAFAMILIAR", "articulo": "VIOLENCIA INTRAFAMILIAR ART. 229 C.P.", "grado_deli": "NINGUNO", "tipo_notic": "DENUNCIA", "caracteriz": null, "modalidad": null, "modo": null, "motivo": null, "pais": "COLOMBIA", "dane_dep": 76, "departamen": "VALLE DEL CAUCA", "dane_mpio": 76001, "municipio": "CALI", "cod_comuna": 3.0, "comuna": "Comuna 3", "cod_barrio": 310.0, "nom_barrio": "El Calvario", "direccion": "76001 Carrera 10 12 100, El Calvario, Cali, Valle del Cauca, COL,EL CALVARIO", "sitio": "SIN INFORMACION", "x": -76.529891967769998, "y": 3.44762706757, "anio": 2025, "mes": "noviembre", "dia": 18, "dia_semana": 3, "hora_hecho": "13:02", "barrio": "EL CALVARIO", "estrato": 3, "geom": "0101000020E6100000000000C0E92153C000000080BD940B40", "fecha_hech": "2025-11-18 00:00:00", "Id": 0, "area": 136572.15568900001 }, "geometry": { "type": "Point", "coordinates": [ -76.529891967769998, 3.44762706757 ] } },
{ "type": "Feature", "properties": { "dinamica": "VIOLENCIA INTRAFAMILIAR", "titulo": "DELITOS CONTRA LA FAMILIA", "capitulo": "DE LA VIOLENCIA INTRAFAMILIAR", "articulo": "VIOLENCIA INTRAFAMILIAR ART. 229 C.P.", "grado_deli": "NINGUNO", "tipo_notic": "DENUNCIA", "caracteriz": null, "modalidad": null, "modo": null, "motivo": null, "pais": "COLOMBIA", "dane_dep": 76, "departamen": "VALLE DEL CAUCA", "dane_mpio": 76001, "municipio": "CALI", "cod_comuna": 3.0, "comuna": "Comuna 3", "cod_barrio": 310.0, "nom_barrio": "El Calvario", "direccion": "76001 Carrera 10 12 100, El Calvario, Cali, Valle del Cauca, COL,EL CALVARIO", "sitio": "SIN INFORMACION", "x": -76.529891967769998, "y": 3.44762706757, "anio": 2025, "mes": "diciembre", "dia": 3, "dia_semana": 4, "hora_hecho": "08:02", "barrio": "EL CALVARIO", "estrato": 3, "geom": "0101000020E6100000000000C0E92153C000000080BD940B40", "fecha_hech": "2025-12-03 00:00:00", "Id": 0, "area": 136572.15568900001 }, "geometry": { "type": "Point", "coordinates": [ -76.529891967769998, 3.44762706757 ] } },
{ "type": "Feature", "properties": { "dinamica": "VIOLENCIA INTRAFAMILIAR", "titulo": "DELITOS CONTRA LA FAMILIA", "capitulo": "DE LA VIOLENCIA INTRAFAMILIAR", "articulo": "VIOLENCIA INTRAFAMILIAR ART. 229 C.P.", "grado_deli": "NINGUNO", "tipo_notic": "DENUNCIA", "caracteriz": null, "modalidad": null, "modo": null, "motivo": null, "pais": "COLOMBIA", "dane_dep": 76, "departamen": "VALLE DEL CAUCA", "dane_mpio": 76001, "municipio": "CALI", "cod_comuna": 3.0, "comuna": "Comuna 3", "cod_barrio": 310.0, "nom_barrio": "El Calvario", "direccion": "76001 Carrera 10 12 10, El Calvario, Cali, Valle del Cauca, COL,EL CALVARIO", "sitio": "SIN INFORMACION", "x": -76.530604, "y": 3.447417, "anio": 2026, "mes": "enero", "dia": 17, "dia_semana": 7, "hora_hecho": "00:00", "barrio": "EL CALVARIO", "estrato": 3, "geom": "0101000020E61000001DC87A6AF52153C03D65355D4F940B40", "fecha_hech": "2026-01-17 00:00:00", "Id": 0, "area": 136572.15568900001 }, "geometry": { "type": "Point", "coordinates": [ -76.530604, 3.447417 ] } },
{ "type": "Feature", "properties": { "dinamica": "VIOLENCIA INTRAFAMILIAR", "titulo": "DELITOS CONTRA LA FAMILIA", "capitulo": "DE LA VIOLENCIA INTRAFAMILIAR", "articulo": "VIOLENCIA INTRAFAMILIAR ART. 229 C.P.", "grado_deli": "AGRAVADO", "tipo_notic": "ACTOS URGENTES", "caracteriz": null, "modalidad": null, "modo": null, "motivo": null, "pais": "COLOMBIA", "dane_dep": 76, "departamen": "VALLE DEL CAUCA", "dane_mpio": 76001, "municipio": "CALI", "cod_comuna": 3.0, "comuna": "Comuna 3", "cod_barrio": 310.0, "nom_barrio": "El Calvario", "direccion": "76001 CALLE 12 10 60, EL CALVARIO, CALI, VALLE DEL CAUCA", "sitio": "DOMICILIO", "x": -76.530667, "y": 3.446919, "anio": 2026, "mes": "enero", "dia": 21, "dia_semana": 4, "hora_hecho": "11:18", "barrio": "EL CALVARIO", "estrato": 3, "geom": "0101000020E61000004084B872F62153C02DB0C7444A930B40", "fecha_hech": "2026-01-21 00:00:00", "Id": 0, "area": 136572.15568900001 }, "geometry": { "type": "Point", "coordinates": [ -76.530667, 3.446919 ] } },
{ "type": "Feature", "properties": { "dinamica": "VIOLENCIA INTRAFAMILIAR", "titulo": "DELITOS CONTRA LA FAMILIA", "capitulo": "DE LA VIOLENCIA INTRAFAMILIAR", "articulo": "VIOLENCIA INTRAFAMILIAR ART. 229 C.P.", "grado_deli": "NINGUNO", "tipo_notic": "DENUNCIA", "caracteriz": null, "modalidad": null, "modo": null, "motivo": null, "pais": "COLOMBIA", "dane_dep": 76, "departamen": "VALLE DEL CAUCA", "dane_mpio": 76001, "municipio": "CALI", "cod_comuna": 3.0, "comuna": "Comuna 3", "cod_barrio": 310.0, "nom_barrio": "El Calvario", "direccion": "76001 Carrera 10 12 100, El Calvario, Cali, Valle del Cauca, COL,EL CALVARIO", "sitio": "SIN INFORMACION", "x": -76.52989, "y": 3.447627, "anio": 2026, "mes": "enero", "dia": 28, "dia_semana": 4, "hora_hecho": "10:22", "barrio": "EL CALVARIO", "estrato": 3, "geom": "0101000020E61000008E1EBFB7E92153C0E773EE76BD940B40", "fecha_hech": "2026-01-28 00:00:00", "Id": 0, "area": 136572.15568900001 }, "geometry": { "type": "Point", "coordinates": [ -76.52989, 3.447627 ] } },
{ "type": "Feature", "properties": { "dinamica": "VIOLENCIA INTRAFAMILIAR", "titulo": "DELITOS CONTRA LA FAMILIA", "capitulo": "DE LA VIOLENCIA INTRAFAMILIAR", "articulo": "VIOLENCIA INTRAFAMILIAR ART. 229 C.P.", "grado_deli": "NINGUNO", "tipo_notic": "COMPULSACION DE COPIAS", "caracteriz": null, "modalidad": null, "modo": null, "motivo": null, "pais": "COLOMBIA", "dane_dep": 76, "departamen": "VALLE DEL CAUCA", "dane_mpio": 76001, "municipio": "CALI", "cod_comuna": 3.0, "comuna": "Comuna 3", "cod_barrio": 310.0, "nom_barrio": "El Calvario", "direccion": "76001 Carrera 10 12 100, El Calvario, Cali, Valle del Cauca, COL,EL CALVARIO", "sitio": "SIN INFORMACION", "x": -76.52989, "y": 3.447627, "anio": 2026, "mes": "enero", "dia": 31, "dia_semana": 7, "hora_hecho": "10:08", "barrio": "EL CALVARIO", "estrato": 3, "geom": "0101000020E61000008E1EBFB7E92153C0E773EE76BD940B40", "fecha_hech": "2026-01-31 00:00:00", "Id": 0, "area": 136572.15568900001 }, "geometry": { "type": "Point", "coordinates": [ -76.52989, 3.447627 ] } },
{ "type": "Feature", "properties": { "dinamica": "VIOLENCIA INTRAFAMILIAR", "titulo": "DELITOS CONTRA LA FAMILIA", "capitulo": "DE LA VIOLENCIA INTRAFAMILIAR", "articulo": "VIOLENCIA INTRAFAMILIAR ART. 229 C.P.", "grado_deli": "NINGUNO", "tipo_notic": "DENUNCIA", "caracteriz": null, "modalidad": null, "modo": null, "motivo": null, "pais": "COLOMBIA", "dane_dep": 76, "departamen": "VALLE DEL CAUCA", "dane_mpio": 76001, "municipio": "CALI", "cod_comuna": 3.0, "comuna": "Comuna 3", "cod_barrio": 310.0, "nom_barrio": "El Calvario", "direccion": "76001 Carrera 10 con Calle 12 10, El Calvario, Cali, Valle del Cauca, COL,EL CALVARIO", "sitio": "SIN INFORMACION", "x": -76.53074, "y": 3.447432, "anio": 2026, "mes": "febrero", "dia": 2, "dia_semana": 2, "hora_hecho": "05:00", "barrio": "EL CALVARIO", "estrato": 3, "geom": "0101000020E610000075ABE7A4F72153C09278793A57940B40", "fecha_hech": "2026-02-02 00:00:00", "Id": 0, "area": 136572.15568900001 }, "geometry": { "type": "Point", "coordinates": [ -76.53074, 3.447432 ] } },
{ "type": "Feature", "properties": { "dinamica": "VIOLENCIA INTRAFAMILIAR", "titulo": "DELITOS CONTRA LA FAMILIA", "capitulo": "DE LA VIOLENCIA INTRAFAMILIAR", "articulo": "VIOLENCIA INTRAFAMILIAR ART. 229 C.P.", "grado_deli": "AGRAVADO", "tipo_notic": "DENUNCIA", "caracteriz": null, "modalidad": null, "modo": null, "motivo": null, "pais": "COLOMBIA", "dane_dep": 76, "departamen": "VALLE DEL CAUCA", "dane_mpio": 76001, "municipio": "CALI", "cod_comuna": 3.0, "comuna": "Comuna 3", "cod_barrio": 310.0, "nom_barrio": "El Calvario", "direccion": "76001 Carrera 10 12 100, El Calvario, Cali, Valle del Cauca, COL,EL CALVARIO", "sitio": "SIN INFORMACION", "x": -76.52989, "y": 3.447627, "anio": 2026, "mes": "febrero", "dia": 22, "dia_semana": 1, "hora_hecho": "09:47", "barrio": "EL CALVARIO", "estrato": 3, "geom": "0101000020E61000008E1EBFB7E92153C0E773EE76BD940B40", "fecha_hech": "2026-02-22 00:00:00", "Id": 0, "area": 136572.15568900001 }, "geometry": { "type": "Point", "coordinates": [ -76.52989, 3.447627 ] } },
{ "type": "Feature", "properties": { "dinamica": "VIOLENCIA INTRAFAMILIAR", "titulo": "DELITOS CONTRA LA FAMILIA", "capitulo": "DE LA VIOLENCIA INTRAFAMILIAR", "articulo": "VIOLENCIA INTRAFAMILIAR ART. 229 C.P.", "grado_deli": "AGRAVADO", "tipo_notic": "DENUNCIA", "caracteriz": null, "modalidad": null, "modo": null, "motivo": null, "pais": "COLOMBIA", "dane_dep": 76, "departamen": "VALLE DEL CAUCA", "dane_mpio": 76001, "municipio": "CALI", "cod_comuna": 3.0, "comuna": "Comuna 3", "cod_barrio": 310.0, "nom_barrio": "El Calvario", "direccion": "76001 Carrera 10 12 100, El Calvario, Cali, Valle del Cauca, COL,EL CALVARIO", "sitio": "SIN INFORMACION", "x": -76.52989, "y": 3.447627, "anio": 2026, "mes": "febrero", "dia": 23, "dia_semana": 2, "hora_hecho": "11:26", "barrio": "EL CALVARIO", "estrato": 3, "geom": "0101000020E61000008E1EBFB7E92153C0E773EE76BD940B40", "fecha_hech": "2026-02-23 00:00:00", "Id": 0, "area": 136572.15568900001 }, "geometry": { "type": "Point", "coordinates": [ -76.52989, 3.447627 ] } },
{ "type": "Feature", "properties": { "dinamica": "VIOLENCIA INTRAFAMILIAR", "titulo": "DELITOS CONTRA LA FAMILIA", "capitulo": "DE LA VIOLENCIA INTRAFAMILIAR", "articulo": "VIOLENCIA INTRAFAMILIAR ART. 229 C.P.", "grado_deli": "AGRAVADO", "tipo_notic": "ACTOS URGENTES", "caracteriz": null, "modalidad": null, "modo": null, "motivo": null, "pais": "COLOMBIA", "dane_dep": 76, "departamen": "VALLE DEL CAUCA", "dane_mpio": 76001, "municipio": "CALI", "cod_comuna": 3.0, "comuna": "Comuna 3", "cod_barrio": 310.0, "nom_barrio": "El Calvario", "direccion": "76001 CARRERA 10 12 06, EL CALVARIO, CALI, VALLE DEL CAUCA", "sitio": "EDIFICIO", "x": -76.530632, "y": 3.447403, "anio": 2026, "mes": "febrero", "dia": 23, "dia_semana": 2, "hora_hecho": "16:07", "barrio": "EL CALVARIO", "estrato": 3, "geom": "0101000020E6100000828DEBDFF52153C0ED0E290648940B40", "fecha_hech": "2026-02-23 00:00:00", "Id": 0, "area": 136572.15568900001 }, "geometry": { "type": "Point", "coordinates": [ -76.530632, 3.447403 ] } },
{ "type": "Feature", "properties": { "dinamica": "VIOLENCIA INTRAFAMILIAR", "titulo": "DELITOS CONTRA LA FAMILIA", "capitulo": "DE LA VIOLENCIA INTRAFAMILIAR", "articulo": "VIOLENCIA INTRAFAMILIAR ART. 229 C.P.", "grado_deli": "AGRAVADO", "tipo_notic": "DENUNCIA", "caracteriz": null, "modalidad": null, "modo": null, "motivo": null, "pais": "COLOMBIA", "dane_dep": 76, "departamen": "VALLE DEL CAUCA", "dane_mpio": 76001, "municipio": "CALI", "cod_comuna": 3.0, "comuna": "Comuna 3", "cod_barrio": 310.0, "nom_barrio": "El Calvario", "direccion": "76001 Carrera 10 12 100, El Calvario, Cali, Valle del Cauca, COL,EL CALVARIO", "sitio": "SIN INFORMACION", "x": -76.52989, "y": 3.447627, "anio": 2026, "mes": "febrero", "dia": 24, "dia_semana": 3, "hora_hecho": "11:00", "barrio": "EL CALVARIO", "estrato": 3, "geom": "0101000020E61000008E1EBFB7E92153C0E773EE76BD940B40", "fecha_hech": "2026-02-24 00:00:00", "Id": 0, "area": 136572.15568900001 }, "geometry": { "type": "Point", "coordinates": [ -76.52989, 3.447627 ] } },
{ "type": "Feature", "properties": { "dinamica": "VIOLENCIA INTRAFAMILIAR", "titulo": "DELITOS CONTRA LA FAMILIA", "capitulo": "DE LA VIOLENCIA INTRAFAMILIAR", "articulo": "VIOLENCIA INTRAFAMILIAR ART. 229 C.P.", "grado_deli": "NINGUNO", "tipo_notic": "ACTOS URGENTES", "caracteriz": null, "modalidad": null, "modo": null, "motivo": null, "pais": "COLOMBIA", "dane_dep": 76, "departamen": "VALLE DEL CAUCA", "dane_mpio": 76001, "municipio": "CALI", "cod_comuna": 3.0, "comuna": "Comuna 3", "cod_barrio": 310.0, "nom_barrio": "El Calvario", "direccion": "76001 CARRERA 10 12 10, EL CALVARIO, CALI, VALLE DEL CAUCA", "sitio": "ENTIDAD PUBLICA / ESTATAL", "x": -76.530604, "y": 3.447417, "anio": 2026, "mes": "marzo", "dia": 6, "dia_semana": 6, "hora_hecho": "15:15", "barrio": "EL CALVARIO", "estrato": 3, "geom": "0101000020E61000001DC87A6AF52153C03D65355D4F940B40", "fecha_hech": "2026-03-06 00:00:00", "Id": 0, "area": 136572.15568900001 }, "geometry": { "type": "Point", "coordinates": [ -76.530604, 3.447417 ] } },
{ "type": "Feature", "properties": { "dinamica": "VIOLENCIA INTRAFAMILIAR", "titulo": "DELITOS CONTRA LA FAMILIA", "capitulo": "DE LA VIOLENCIA INTRAFAMILIAR", "articulo": "VIOLENCIA INTRAFAMILIAR ART. 229 C.P.", "grado_deli": "NINGUNO", "tipo_notic": "ACTOS URGENTES", "caracteriz": null, "modalidad": null, "modo": null, "motivo": null, "pais": "COLOMBIA", "dane_dep": 76, "departamen": "VALLE DEL CAUCA", "dane_mpio": 76001, "municipio": "CALI", "cod_comuna": 3.0, "comuna": "Comuna 3", "cod_barrio": 310.0, "nom_barrio": "El Calvario", "direccion": "76001 CARRERA 10 12 10, EL CALVARIO, CALI, VALLE DEL CAUCA", "sitio": "DOMICILIO", "x": -76.530604, "y": 3.447417, "anio": 2026, "mes": "marzo", "dia": 8, "dia_semana": 1, "hora_hecho": "14:16", "barrio": "EL CALVARIO", "estrato": 3, "geom": "0101000020E61000001DC87A6AF52153C03D65355D4F940B40", "fecha_hech": "2026-03-08 00:00:00", "Id": 0, "area": 136572.15568900001 }, "geometry": { "type": "Point", "coordinates": [ -76.530604, 3.447417 ] } },
{ "type": "Feature", "properties": { "dinamica": "VIOLENCIA INTRAFAMILIAR", "titulo": "DELITOS CONTRA LA FAMILIA", "capitulo": "DE LA VIOLENCIA INTRAFAMILIAR", "articulo": "VIOLENCIA INTRAFAMILIAR ART. 229 C.P.", "grado_deli": "AGRAVADO", "tipo_notic": "DENUNCIA", "caracteriz": null, "modalidad": null, "modo": null, "motivo": null, "pais": "COLOMBIA", "dane_dep": 76, "departamen": "VALLE DEL CAUCA", "dane_mpio": 76001, "municipio": "CALI", "cod_comuna": 3.0, "comuna": "Comuna 3", "cod_barrio": 310.0, "nom_barrio": "El Calvario", "direccion": "76001 Carrera 11 12 70, El Calvario, Cali, Valle del Cauca, COL,EL CALVARIO", "sitio": "SIN INFORMACION", "x": -76.530225, "y": 3.446698, "anio": 2026, "mes": "marzo", "dia": 9, "dia_semana": 2, "hora_hecho": "17:00", "barrio": "EL CALVARIO", "estrato": 3, "geom": "0101000020E610000062A1D634EF2153C04582A966D6920B40", "fecha_hech": "2026-03-09 00:00:00", "Id": 0, "area": 136572.15568900001 }, "geometry": { "type": "Point", "coordinates": [ -76.530225, 3.446698 ] } }
]
}
