{
"type": "FeatureCollection",
"name": "VBG_2025_poligono_ciudad_Paraiso",
"crs": { "type": "name", "properties": { "name": "urn:ogc:def:crs:OGC:1.3:CRS84" } },
"features": [
{ "type": "Feature", "properties": { "DELITO": "VIOLENCIA BASADA EN GÉNERO", "COD_COMUNA": 3, "COMUNA": "Comuna 3", "COD_BARRIO": 310, "BARRIO": "El Calvario", "DIRECCION": "KR 12 # 13 - 73", "LAT": 3.445809038, "LON": -76.52863254, "Id": 0, "area": 136572.15568900001 }, "geometry": { "type": "Point", "coordinates": [ -76.52863254, 3.445809038 ] } },
{ "type": "Feature", "properties": { "DELITO": "VIOLENCIA BASADA EN GÉNERO", "COD_COMUNA": 3, "COMUNA": "Comuna 3", "COD_BARRIO": 310, "BARRIO": "El Calvario", "DIRECCION": "CARRERA 12 13 73", "LAT": 3.445809038, "LON": -76.52863254, "Id": 0, "area": 136572.15568900001 }, "geometry": { "type": "Point", "coordinates": [ -76.52863254, 3.445809038 ] } },
{ "type": "Feature", "properties": { "DELITO": "VIOLENCIA BASADA EN GÉNERO", "COD_COMUNA": 3, "COMUNA": "Comuna 3", "COD_BARRIO": 310, "BARRIO": "El Calvario", "DIRECCION": "CL 11 # 10 - 65", "LAT": 3.446751182, "LON": -76.53127973, "Id": 0, "area": 136572.15568900001 }, "geometry": { "type": "Point", "coordinates": [ -76.53127973, 3.446751182 ] } },
{ "type": "Feature", "properties": { "DELITO": "VIOLENCIA BASADA EN GÉNERO", "COD_COMUNA": 3, "COMUNA": "Comuna 3", "COD_BARRIO": 309, "BARRIO": "San Pascual", "DIRECCION": "CL 14 12  141", "LAT": 3.445344292, "LON": -76.5274835, "Id": 0, "area": 136572.15568900001 }, "geometry": { "type": "Point", "coordinates": [ -76.5274835, 3.445344292 ] } },
{ "type": "Feature", "properties": { "DELITO": "VIOLENCIA BASADA EN GÉNERO", "COD_COMUNA": 3, "COMUNA": "Comuna 3", "COD_BARRIO": 310, "BARRIO": "El Calvario", "DIRECCION": "CALLE 15 10 02", "LAT": 3.447794657, "LON": -76.52760949, "Id": 0, "area": 136572.15568900001 }, "geometry": { "type": "Point", "coordinates": [ -76.52760949, 3.447794657 ] } },
{ "type": "Feature", "properties": { "DELITO": "VIOLENCIA BASADA EN GÉNERO", "COD_COMUNA": 3, "COMUNA": "Comuna 3", "COD_BARRIO": 306, "BARRIO": "San Juan Bosco", "DIRECCION": "CL 11 # 13-12", "LAT": 3.444248378, "LON": -76.53080372, "Id": 0, "area": 136572.15568900001 }, "geometry": { "type": "Point", "coordinates": [ -76.53080372, 3.444248378 ] } },
{ "type": "Feature", "properties": { "DELITO": "VIOLENCIA BASADA EN GÉNERO", "COD_COMUNA": 3, "COMUNA": "Comuna 3", "COD_BARRIO": 309, "BARRIO": "San Pascual", "DIRECCION": "CL 14  13  33", "LAT": 3.444425633, "LON": -76.52718927, "Id": 0, "area": 136572.15568900001 }, "geometry": { "type": "Point", "coordinates": [ -76.52718927, 3.444425633 ] } },
{ "type": "Feature", "properties": { "DELITO": "VIOLENCIA BASADA EN GÉNERO", "COD_COMUNA": 3, "COMUNA": "Comuna 3", "COD_BARRIO": 309, "BARRIO": "San Pascual", "DIRECCION": "CALLE 13 13 62", "LAT": 3.4439473, "LON": -76.52900054, "Id": 0, "area": 136572.15568900001 }, "geometry": { "type": "Point", "coordinates": [ -76.52900054, 3.4439473 ] } },
{ "type": "Feature", "properties": { "DELITO": "VIOLENCIA BASADA EN GÉNERO", "COD_COMUNA": 3, "COMUNA": "Comuna 3", "COD_BARRIO": 307, "BARRIO": "Santa Rosa", "DIRECCION": "KR 10 10 18", "LAT": 3.446749362, "LON": -76.53231719, "Id": 0, "area": 136572.15568900001 }, "geometry": { "type": "Point", "coordinates": [ -76.53231719, 3.446749362 ] } }
]
}
