{
"type": "FeatureCollection",
"name": "DATIC_homicidios_2023_2026T1_poligono_ciudad_Paraiso",
"crs": { "type": "name", "properties": { "name": "urn:ogc:def:crs:OGC:1.3:CRS84" } },
"features": [
{ "type": "Feature", "properties": { "no": 53323, "semana": 2, "identifica": 79635, "spoa": "26-00464", "spoa_compl": "760016000193202000000", "direccion": "KR 11 CL 11", "barrio": "EL CALVARIO", "comuna": "3", "idcombar": 310.0, "cuadrante": "3.0", "tipo_de_ar": "CORTOPUNZANTE", "tipo_ident": "CEDULA DE CIUDADANIA", "ocupacion": "SIN OCUPACION", "sexo": "M", "edad": 37, "horah": "11:05", "fechao": 2026, "fechah": "01/13/2026", "diasem": "MARTES", "jornadarh8": "09:00-11:59", "est28xrang": 4, "fh8": "MAÑANA", "est32xdian": 2.0, "diasanio": 13, "horam": "11:31", "fecham": "01/13/2026", "horai": "11:57", "fechai": "01/13/2026", "lugar_hech": "VIA PUBLICA", "nom_lugar_": "VIA PUBLICA", "inspeccion": "L.HECHOS", "direcion_d": "K39 CL 54", "barrio_res": "SIN DATO", "comuna_res": 99, "levantamie": "L.HECHOS", "estado_civ": "SOLTERO", "escolarida": "SIN ESTABLECER", "tipo_viole": "CONVIVENCIA", "categoria_": "HOMICIDIOS POR RIÑAS", "categori_1": null, "subcategor": "HOMICIDIOS POR RIÑAS O DIFERENCIAS ATRIBUIDOS A INTOLERANCIA", "tipo_agres": "SIN DATO", "jornada": "MAÑANA", "fec_especi": null, "x": -76.53122353453, "y": 3.4463337103199998, "feminicidi": "N", "procedimie": "N", "poblacion_": "N", "clasificac": "'00001000", "barrioplan": "El Calvario", "estratopla": 3.0, "semanaexce": null, "semanalund": null, "semanacons": null, "semanaco_1": null, "finsemanac": null, "multiples": "SIMPLE", "agresor_en": "NO APLICA", "genero": null, "orientacio": "POR ESTABLECER", "manera_mue": "VIOLENTA HOMICIDA", "nacionalid": null, "sector": null, "otra_nacio": null, "ancestro": "SIN INFORMACIÓN", "licor": 0, "drogas": 0, "bandas": 0, "pandillas": 0, "habitantes": 0, "barras": 0, "lgtbi": 0, "com_hecho": "Comuna 3", "comparendo": "N", "antecedent": "NO", "anotacione": "SIN DATOS", "movil": "RIÑA", "sicariato": "N", "desc_habca": "NO APLICA", "desc_droga": "NO APLICA", "Id": 0, "area": 136572.15568900001 }, "geometry": { "type": "Point", "coordinates": [ -76.53122353453, 3.44633371032 ] } },
{ "type": "Feature", "properties": { "no": 52265, "semana": 4, "identifica": 78165, "spoa": "25-00687", "spoa_compl": "760016000193202000000", "direccion": "CL 12 KR 11", "barrio": "EL CALVARIO", "comuna": "3", "idcombar": 310.0, "cuadrante": "3.0", "tipo_de_ar": "CORTOPUNZANTE", "tipo_ident": "CEDULA DE CIUDADANIA", "ocupacion": "VIGILANTE", "sexo": "M", "edad": 24, "horah": "03:10", "fechao": 2025, "fechah": "01/19/2025", "diasem": "DOMINGO", "jornadarh8": "03:00-05:59", "est28xrang": 2, "fh8": "MADRUGADA", "est32xdian": 8.0, "diasanio": 19, "horam": "03:40", "fecham": "01/19/2025", "horai": "04:00", "fechai": "01/19/2025", "lugar_hech": "VIA PUBLICA", "nom_lugar_": "VIA PUBLICA", "inspeccion": "L.HECHOS", "direcion_d": "K39 CL 54", "barrio_res": "SIN DATO", "comuna_res": 99, "levantamie": "L.HECHOS", "estado_civ": "SOLTERO", "escolarida": "PRIMARIA", "tipo_viole": "DELINCUENCIA", "categoria_": "HOMICIDIOS ASOCIADOS A PROBLEMAS CON EL PATRIMONIO", "categori_1": null, "subcategor": "HOMICIDIO POR EVITAR HURTO", "tipo_agres": "SIN DATO", "jornada": "MADRUGADA", "fec_especi": null, "x": -76.530562505999995, "y": 3.446512462, "feminicidi": "N", "procedimie": "N", "poblacion_": "N", "clasificac": "'00000000", "barrioplan": "El Calvario", "estratopla": 3.0, "semanaexce": 4.0, "semanalund": 3.0, "semanacons": 1674.0, "semanaco_1": 1673.0, "finsemanac": 1673.0, "multiples": "SIMPLE", "agresor_en": "NO APLICA", "genero": null, "orientacio": "POR ESTABLECER", "manera_mue": "VIOLENTA HOMICIDA", "nacionalid": null, "sector": null, "otra_nacio": null, "ancestro": "SIN INFORMACIÓN", "licor": 0, "drogas": 0, "bandas": 0, "pandillas": 0, "habitantes": 0, "barras": 0, "lgtbi": 0, "com_hecho": "Comuna 3", "comparendo": "S", "antecedent": "NO", "anotacione": "SIN DATOS", "movil": "POR EVITAR HURTO", "sicariato": "N", "desc_habca": "NO APLICA", "desc_droga": "NO APLICA", "Id": 0, "area": 136572.15568900001 }, "geometry": { "type": "Point", "coordinates": [ -76.530562506, 3.446512462 ] } },
{ "type": "Feature", "properties": { "no": 52301, "semana": 5, "identifica": 78205, "spoa": "25-01396", "spoa_compl": "760016000193202000000", "direccion": "KR 10 CL 11", "barrio": "SANTA ROSA", "comuna": "3", "idcombar": 307.0, "cuadrante": "3.0", "tipo_de_ar": "CORTOPUNZANTE", "tipo_ident": "CEDULA DE CIUDADANIA", "ocupacion": "ALBAÑIL", "sexo": "M", "edad": 36, "horah": "19:30", "fechao": 2025, "fechah": "02/01/2025", "diasem": "SABADO", "jornadarh8": "18:00-20:59", "est28xrang": 7, "fh8": "NOCHE", "est32xdian": 5.0, "diasanio": 32, "horam": "19:55", "fecham": "02/01/2025", "horai": "20:20", "fechai": "02/01/2025", "lugar_hech": "VIA PUBLICA", "nom_lugar_": "VIA PUBLICA", "inspeccion": "L.HECHOS", "direcion_d": "K39 CL 54", "barrio_res": "SIN DATO", "comuna_res": 99, "levantamie": "L.HECHOS", "estado_civ": "UNION LIBRE", "escolarida": "SECUNDARIA", "tipo_viole": "DELINCUENCIA", "categoria_": "HOMICIDIOS POR VENGANZA CON Y SIN ANTECEDENTES DE ATENTADOS Y AMENAZAS", "categori_1": null, "subcategor": "HOMICIDIO ATRIBUIDO A VENGANZA SIN CONTEXTO NI ATECEDENTES DE NINGUN TIPO", "tipo_agres": "SIN DATO", "jornada": "NOCHE", "fec_especi": null, "x": -76.531542646689999, "y": 3.44720616112, "feminicidi": "N", "procedimie": "N", "poblacion_": "N", "clasificac": "'10000100", "barrioplan": "Santa Rosa", "estratopla": 3.0, "semanaexce": 5.0, "semanalund": 5.0, "semanacons": 1675.0, "semanaco_1": 1675.0, "finsemanac": 1675.0, "multiples": "SIMPLE", "agresor_en": "NO APLICA", "genero": null, "orientacio": "POR ESTABLECER", "manera_mue": "VIOLENTA HOMICIDA", "nacionalid": null, "sector": null, "otra_nacio": null, "ancestro": "SIN INFORMACIÓN", "licor": 0, "drogas": 0, "bandas": 0, "pandillas": 0, "habitantes": 0, "barras": 0, "lgtbi": 0, "com_hecho": "Comuna 3", "comparendo": "N", "antecedent": "NO", "anotacione": "SIN DATOS", "movil": "VENGANZAS SIN ANTECEDENTES", "sicariato": "N", "desc_habca": "AGRESOR", "desc_droga": "VÍCTIMA CONSUMIDOR", "Id": 0, "area": 136572.15568900001 }, "geometry": { "type": "Point", "coordinates": [ -76.531542646689999, 3.44720616112 ] } },
{ "type": "Feature", "properties": { "no": 50335, "semana": 5, "identifica": 75385, "spoa": "23-01033", "spoa_compl": "760016000193202000000", "direccion": "CL 13 KR 12", "barrio": "SAN PASCUAL", "comuna": "3", "idcombar": 309.0, "cuadrante": "E3", "tipo_de_ar": "CORTOPUNZANTE", "tipo_ident": "CEDULA DE CIUDADANIA", "ocupacion": "GUARDA DE SEGURIDAD", "sexo": "M", "edad": 29, "horah": "19:45", "fechao": 2023, "fechah": "02/03/2023", "diasem": "VIERNES", "jornadarh8": "18:00-20:59", "est28xrang": 7, "fh8": "NOCHE", "est32xdian": 5.0, "diasanio": 34, "horam": "20:10", "fecham": "02/03/2023", "horai": "20:35", "fechai": "02/03/2023", "lugar_hech": "VIA PUBLICA", "nom_lugar_": "VIA PUBLICA", "inspeccion": "HOSPITAL SAN JUAN DE DIOS", "direcion_d": "K39 CL 54", "barrio_res": "SECTOR ALTO JORDAN", "comuna_res": 18, "levantamie": "H.SAN JUAN DE DIOS", "estado_civ": "UNION LIBRE", "escolarida": "SECUNDARIA", "tipo_viole": "CONVIVENCIA", "categoria_": "HOMICIDIOS POR RIÑAS", "categori_1": null, "subcategor": "HOMICIDIO POR RIÑA CON PRESENCIA DE CONSUMO DE SUSTANCIAS PSICOACTIVOS EN LOS HECHOS", "tipo_agres": "SIN DATO", "jornada": "NOCHE", "fec_especi": null, "x": -76.529442177990006, "y": 3.4455514599399999, "feminicidi": "N", "procedimie": "N", "poblacion_": "N", "clasificac": "'10000100", "barrioplan": "San Pascual", "estratopla": 1.0, "semanaexce": 5.0, "semanalund": 6.0, "semanacons": 1571.0, "semanaco_1": 1571.0, "finsemanac": 1571.0, "multiples": "SIMPLE", "agresor_en": "NO APLICA", "genero": null, "orientacio": "POR ESTABLECER", "manera_mue": "VIOLENTA HOMICIDA", "nacionalid": null, "sector": null, "otra_nacio": null, "ancestro": "SIN INFORMACIÓN", "licor": 0, "drogas": 0, "bandas": 0, "pandillas": 0, "habitantes": 0, "barras": 0, "lgtbi": 0, "com_hecho": "Comuna 3", "comparendo": "N", "antecedent": "SIN DATOS", "anotacione": "SIN DATOS", "movil": "RIÑA", "sicariato": "N", "desc_habca": "NO APLICA", "desc_droga": "VÍCTIMA CONSUMIDOR", "Id": 0, "area": 136572.15568900001 }, "geometry": { "type": "Point", "coordinates": [ -76.529442177990006, 3.44555145994 ] } },
{ "type": "Feature", "properties": { "no": 51348, "semana": 5, "identifica": 76927, "spoa": "24-80232", "spoa_compl": "760016000193202000000", "direccion": "KR 13 CL 10", "barrio": "SAN JUAN BOSCO", "comuna": "3", "idcombar": 306.0, "cuadrante": "E3", "tipo_de_ar": "CORTOPUNZANTE", "tipo_ident": "CEDULA DE CIUDADANIA", "ocupacion": "SIN OCUPACION", "sexo": "M", "edad": 27, "horah": "05:00", "fechao": 2024, "fechah": "02/03/2024", "diasem": "SABADO", "jornadarh8": "03:00-05:59", "est28xrang": 2, "fh8": "MADRUGADA", "est32xdian": 8.0, "diasanio": 34, "horam": "05:25", "fecham": "02/03/2024", "horai": "05:50", "fechai": "02/03/2024", "lugar_hech": "VIA PUBLICA", "nom_lugar_": "VIA PUBLICA", "inspeccion": "L.HECHOS", "direcion_d": "FLORALIA", "barrio_res": "SIN DATO", "comuna_res": 99, "levantamie": "L.HECHOS", "estado_civ": "SIN ESTABLECER", "escolarida": "SIN ESTABLECER", "tipo_viole": "CONVIVENCIA", "categoria_": "HOMICIDIOS POR RIÑAS", "categori_1": null, "subcategor": "HOMICIDIO POR RIÑA CON PRESENCIA DE CONSUMO DE SUSTANCIAS PSICOACTIVOS EN LOS HECHOS", "tipo_agres": "SIN DATO", "jornada": "MADRUGADA", "fec_especi": null, "x": -76.53220373660001, "y": 3.4443279600899999, "feminicidi": "N", "procedimie": "N", "poblacion_": "N", "clasificac": "'00000000", "barrioplan": "San Juan Bosco", "estratopla": 3.0, "semanaexce": 5.0, "semanalund": 5.0, "semanacons": 1623.0, "semanaco_1": 1623.0, "finsemanac": 1623.0, "multiples": "SIMPLE", "agresor_en": "NO APLICA", "genero": null, "orientacio": "POR ESTABLECER", "manera_mue": "VIOLENTA HOMICIDA", "nacionalid": null, "sector": null, "otra_nacio": null, "ancestro": "SIN INFORMACIÓN", "licor": 0, "drogas": 0, "bandas": 0, "pandillas": 0, "habitantes": 0, "barras": 0, "lgtbi": 0, "com_hecho": "Comuna 3", "comparendo": "S", "antecedent": "SIN DATOS", "anotacione": "SIN DATOS", "movil": "RIÑA", "sicariato": "N", "desc_habca": "NO APLICA", "desc_droga": "VÍCTIMA CONSUMIDOR", "Id": 0, "area": 136572.15568900001 }, "geometry": { "type": "Point", "coordinates": [ -76.53220373660001, 3.44432796009 ] } },
{ "type": "Feature", "properties": { "no": 51356, "semana": 6, "identifica": 76943, "spoa": "24-01166", "spoa_compl": "760016000193202000000", "direccion": "CL 13 A KR 12", "barrio": "SAN PASCUAL", "comuna": "3", "idcombar": 309.0, "cuadrante": "E3", "tipo_de_ar": "CORTOPUNZANTE", "tipo_ident": "CEDULA DE CIUDADANIA", "ocupacion": "DESEMPLEADO", "sexo": "M", "edad": 23, "horah": "22:47", "fechao": 2024, "fechah": "02/05/2024", "diasem": "LUNES", "jornadarh8": "21:00-23:59", "est28xrang": 8, "fh8": "NOCHE", "est32xdian": 6.0, "diasanio": 36, "horam": "23:12", "fecham": "02/05/2024", "horai": "23:37", "fechai": "02/05/2024", "lugar_hech": "RESIDENCIA", "nom_lugar_": "OTROS ESCENARIOS", "inspeccion": "HOSPITAL UNIVERSITARIO DEL VALLE", "direcion_d": "K39 CL 54", "barrio_res": "CGTO. MONTEBELLO", "comuna_res": 64, "levantamie": "H.U.V", "estado_civ": "SOLTERO", "escolarida": "SECUNDARIA", "tipo_viole": "DELINCUENCIA", "categoria_": "HOMICIDIOS ASOCIADOS A PROBLEMAS CON EL PATRIMONIO", "categori_1": null, "subcategor": "HOMICIDIO POR HURTARLE", "tipo_agres": "SIN DATO", "jornada": "NOCHE", "fec_especi": null, "x": -76.528447857100005, "y": 3.44569026882, "feminicidi": "N", "procedimie": "N", "poblacion_": "N", "clasificac": "'00000100", "barrioplan": "San Pascual", "estratopla": 1.0, "semanaexce": 6.0, "semanalund": 6.0, "semanacons": 1624.0, "semanaco_1": 1624.0, "finsemanac": null, "multiples": "SIMPLE", "agresor_en": "NO APLICA", "genero": null, "orientacio": "POR ESTABLECER", "manera_mue": "VIOLENTA HOMICIDA", "nacionalid": null, "sector": null, "otra_nacio": null, "ancestro": "SIN INFORMACIÓN", "licor": 0, "drogas": 0, "bandas": 0, "pandillas": 0, "habitantes": 0, "barras": 0, "lgtbi": 0, "com_hecho": "Comuna 3", "comparendo": "N", "antecedent": "SIN DATOS", "anotacione": "SIN DATOS", "movil": "POR HURTARLE", "sicariato": "N", "desc_habca": "AGRESOR", "desc_droga": "NO APLICA", "Id": 0, "area": 136572.15568900001 }, "geometry": { "type": "Point", "coordinates": [ -76.528447857100005, 3.44569026882 ] } },
{ "type": "Feature", "properties": { "no": 53441, "semana": 8, "identifica": 79809, "spoa": "26-02800", "spoa_compl": "760016000193202602800", "direccion": "CL 13 KR 13", "barrio": "SAN PASCUAL", "comuna": "3", "idcombar": 309.0, "cuadrante": "E3", "tipo_de_ar": "OTRAS ARMAS", "tipo_ident": "CÉDULA DE CIUDADANÍA", "ocupacion": "INDIGENTE O HABITANTE SIN TECHO O EN CONDICION DE CALLE", "sexo": "F", "edad": 16, "horah": "00:50", "fechao": 2026, "fechah": "02/28/2026", "diasem": "SABADO", "jornadarh8": "00:00-02:59", "est28xrang": 1, "fh8": "MADRUGADA", "est32xdian": null, "diasanio": 428, "horam": "01:15", "fecham": "02/28/2026", "horai": "01:40", "fechai": "02/28/2026", "lugar_hech": "VIA PUBLICA", "nom_lugar_": "VIA PUBLICA", "inspeccion": "L.HECHOS", "direcion_d": "SIN DATOS", "barrio_res": "SIN DATOS", "comuna_res": 99, "levantamie": "VÍA PÚBLICA", "estado_civ": "POR ESTABLECER", "escolarida": "SIN ESTABLECER", "tipo_viole": "SIN DATOS", "categoria_": "HOMICIDIOS POR AJUSTES DE CUENTAS DELINCUENCIALES ENTRE GRUPOS/BANDAS ORGANIZADAS", "categori_1": null, "subcategor": "HOMICIDIO ASOCIADO A DISPUTAS ENTRE ORGANIZACIONES DE NARCOTRAFICO RIVALES (ESTRUCTURAS DE CARTELES)  O ENTRE BANDAS DELINCUENCIALES RIVALES DEDICADAS A DIVERSOS DELITOS", "tipo_agres": "POR ESTABLECER", "jornada": "MADRUGADA", "fec_especi": null, "x": -76.529153581100005, "y": 3.44448254408, "feminicidi": "N", "procedimie": "N", "poblacion_": "N", "clasificac": "'00010010", "barrioplan": "San Pascual", "estratopla": 1.0, "semanaexce": 9.0, "semanalund": 9.0, "semanacons": 9.0, "semanaco_1": 9.0, "finsemanac": 1731.0, "multiples": "SIMPLE", "agresor_en": "N", "genero": "FEMENINO", "orientacio": "HETEROSEXUAL", "manera_mue": "VIOLENTA HOMICIDA", "nacionalid": "COLOMBIANO(A)", "sector": "NO APLICA", "otra_nacio": "NO APLICA", "ancestro": "SIN INFORMACIÓN", "licor": 0, "drogas": 0, "bandas": 1, "pandillas": 0, "habitantes": 1, "barras": 0, "lgtbi": 0, "com_hecho": "Comuna 3", "comparendo": "N", "antecedent": "NO", "anotacione": "N", "movil": "POR TESTIGO", "sicariato": "N", "desc_habca": "VÍCTIMA", "desc_droga": "VÍCTIMA EXPENDEDOR Y CONSUMIDOR", "Id": 0, "area": 136572.15568900001 }, "geometry": { "type": "Point", "coordinates": [ -76.529153581100005, 3.44448254408 ] } },
{ "type": "Feature", "properties": { "no": 50444, "semana": 11, "identifica": 75564, "spoa": "23-02528", "spoa_compl": "760016000193202000000", "direccion": "CL 12 KR12", "barrio": "SAN PASCUAL", "comuna": "3", "idcombar": 309.0, "cuadrante": "E3", "tipo_de_ar": "ARMA DE FUEGO", "tipo_ident": "CEDULA DE CIUDADANIA", "ocupacion": "OFICIOS VARIOS", "sexo": "M", "edad": 18, "horah": "05:52", "fechao": 2023, "fechah": "03/17/2023", "diasem": "VIERNES", "jornadarh8": "03:00-05:59", "est28xrang": 2, "fh8": "MADRUGADA", "est32xdian": 8.0, "diasanio": 76, "horam": "06:17", "fecham": "03/17/2023", "horai": "06:42", "fechai": "03/17/2023", "lugar_hech": "VIA PUBLICA", "nom_lugar_": "VIA PUBLICA", "inspeccion": "L.HECHOS", "direcion_d": "BARRIO NUEVA FLORESTA", "barrio_res": "SIN BARRIO", "comuna_res": 0, "levantamie": "L.HECHOS", "estado_civ": "SIN ESTABLECER", "escolarida": "SIN ESTABLECER", "tipo_viole": "OTRO", "categoria_": "HOMICIDIOS CON MOVIL POR ESTABLECER", "categori_1": null, "subcategor": "HOMICIDIO EN LOS QUE SE DESCONOCE EL CONTEXTO QUE MOTIVO LOS HECHOS", "tipo_agres": "SIN DATO", "jornada": "MADRUGADA", "fec_especi": null, "x": -76.530099531999994, "y": 3.445437171, "feminicidi": "N", "procedimie": "N", "poblacion_": "N", "clasificac": "'00000000", "barrioplan": "San Pascual", "estratopla": 1.0, "semanaexce": 11.0, "semanalund": 12.0, "semanacons": 1577.0, "semanaco_1": 1577.0, "finsemanac": 1577.0, "multiples": "SIMPLE", "agresor_en": "NO APLICA", "genero": null, "orientacio": "POR ESTABLECER", "manera_mue": "VIOLENTA HOMICIDA", "nacionalid": null, "sector": null, "otra_nacio": null, "ancestro": "SIN INFORMACIÓN", "licor": 0, "drogas": 0, "bandas": 0, "pandillas": 0, "habitantes": 0, "barras": 0, "lgtbi": 0, "com_hecho": "Comuna 3", "comparendo": "S", "antecedent": "SIN DATOS", "anotacione": "SIN DATOS", "movil": "POR ESTABLECER", "sicariato": "N", "desc_habca": "NO APLICA", "desc_droga": "NO APLICA", "Id": 0, "area": 136572.15568900001 }, "geometry": { "type": "Point", "coordinates": [ -76.530099532, 3.445437171 ] } },
{ "type": "Feature", "properties": { "no": 51447, "semana": 12, "identifica": 77101, "spoa": "24-02935", "spoa_compl": "760016000193202000000", "direccion": "KR 13 CL 12", "barrio": "SAN PASCUAL", "comuna": "3", "idcombar": 309.0, "cuadrante": "E3", "tipo_de_ar": "CORTOPUNZANTE", "tipo_ident": "CEDULA DE CIUDADANIA", "ocupacion": "INDIGENTE", "sexo": "F", "edad": 46, "horah": "09:15", "fechao": 2024, "fechah": "03/20/2024", "diasem": "MIERCOLES", "jornadarh8": "09:00-11:59", "est28xrang": 4, "fh8": "MAÑANA", "est32xdian": 2.0, "diasanio": 80, "horam": "09:40", "fecham": "03/25/2024", "horai": "10:05", "fechai": "03/25/2024", "lugar_hech": "VIA PUBLICA", "nom_lugar_": "VIA PUBLICA", "inspeccion": "SIN DATO", "direcion_d": "K39 CL 54", "barrio_res": "SIN DATO", "comuna_res": 99, "levantamie": "SIN DATO", "estado_civ": "SIN ESTABLECER", "escolarida": "SIN ESTABLECER", "tipo_viole": "OTRO", "categoria_": "HOMICIDIOS CON MOVIL POR ESTABLECER", "categori_1": null, "subcategor": "HOMICIDIO EN LOS QUE SE DESCONOCE EL CONTEXTO QUE MOTIVO LOS HECHOS", "tipo_agres": "SIN DATO", "jornada": "MAÑANA", "fec_especi": null, "x": -76.529976293100006, "y": 3.4443722015999998, "feminicidi": "S", "procedimie": "N", "poblacion_": "N", "clasificac": "'00000000", "barrioplan": "San Pascual", "estratopla": 1.0, "semanaexce": 12.0, "semanalund": 12.0, "semanacons": 1630.0, "semanaco_1": 1630.0, "finsemanac": null, "multiples": "SIMPLE", "agresor_en": "NO APLICA", "genero": null, "orientacio": "POR ESTABLECER", "manera_mue": "VIOLENTA HOMICIDA", "nacionalid": null, "sector": null, "otra_nacio": null, "ancestro": "SIN INFORMACIÓN", "licor": 0, "drogas": 0, "bandas": 0, "pandillas": 0, "habitantes": 0, "barras": 0, "lgtbi": 0, "com_hecho": "Comuna 3", "comparendo": "S", "antecedent": "SIN DATOS", "anotacione": "SIN DATOS", "movil": "POR ESTABLECER", "sicariato": "N", "desc_habca": "VÍCTIMA", "desc_droga": "NO APLICA", "Id": 0, "area": 136572.15568900001 }, "geometry": { "type": "Point", "coordinates": [ -76.529976293100006, 3.4443722016 ] } },
{ "type": "Feature", "properties": { "no": 50453, "semana": 12, "identifica": 75592, "spoa": "23-02656", "spoa_compl": "760016000193202000000", "direccion": "KR 15 CL 11", "barrio": "SAN JUAN BOSCO", "comuna": "3", "idcombar": 306.0, "cuadrante": "E3", "tipo_de_ar": "ARMA DE FUEGO", "tipo_ident": "CEDULA DE CIUDADANIA", "ocupacion": "ALBAÑIL", "sexo": "M", "edad": 35, "horah": "11:45", "fechao": 2023, "fechah": "03/21/2023", "diasem": "MARTES", "jornadarh8": "09:00-11:59", "est28xrang": 4, "fh8": "MAÑANA", "est32xdian": 2.0, "diasanio": 80, "horam": "12:10", "fecham": "03/21/2023", "horai": "12:35", "fechai": "03/21/2023", "lugar_hech": "VIA PUBLICA", "nom_lugar_": "VIA PUBLICA", "inspeccion": "L.HECHOS", "direcion_d": "K39 CL 54", "barrio_res": "SIN DATO", "comuna_res": 99, "levantamie": "L.HECHOS", "estado_civ": "UNION LIBRE", "escolarida": "PRIMARIA", "tipo_viole": "DELINCUENCIA", "categoria_": "TRÁFICO ESTUPEFACIENTES EN MENORES CANTIDADES (TEMC)", "categori_1": null, "subcategor": "HOMICIDIO ASOCIADO A DISPUTAS ENTRE REDES DE TRAFICO DE ESTUPEFACIENTES EN MENORES CANTIDADES (TEMC)", "tipo_agres": "SIN DATO", "jornada": "MAÑANA", "fec_especi": null, "x": -76.530792829000006, "y": 3.442735376, "feminicidi": "N", "procedimie": "N", "poblacion_": "N", "clasificac": "'10000000", "barrioplan": "San Juan Bosco", "estratopla": 3.0, "semanaexce": 12.0, "semanalund": 13.0, "semanacons": 1578.0, "semanaco_1": 1578.0, "finsemanac": null, "multiples": "SIMPLE", "agresor_en": "NO APLICA", "genero": null, "orientacio": "POR ESTABLECER", "manera_mue": "VIOLENTA HOMICIDA", "nacionalid": null, "sector": null, "otra_nacio": null, "ancestro": "SIN INFORMACIÓN", "licor": 0, "drogas": 0, "bandas": 0, "pandillas": 0, "habitantes": 0, "barras": 0, "lgtbi": 0, "com_hecho": "Comuna 3", "comparendo": "N", "antecedent": "SIN DATOS", "anotacione": "SIN DATOS", "movil": "POR TESTIGO", "sicariato": "N", "desc_habca": "NO APLICA", "desc_droga": "VÍCTIMA EXPENDEDOR Y CONSUMIDOR", "Id": 0, "area": 136572.15568900001 }, "geometry": { "type": "Point", "coordinates": [ -76.530792829, 3.442735376 ] } },
{ "type": "Feature", "properties": { "no": 52433, "semana": 12, "identifica": 78368, "spoa": "25-03876", "spoa_compl": "760016000193202000000", "direccion": "KR 12 A 13 A 29", "barrio": "SAN PASCUAL", "comuna": "3", "idcombar": 309.0, "cuadrante": "3.0", "tipo_de_ar": "ARMA DE FUEGO", "tipo_ident": "CEDULA DE CIUDADANIA", "ocupacion": "OFICIOS VARIOS", "sexo": "M", "edad": 36, "horah": "19:08", "fechao": 2025, "fechah": "03/22/2025", "diasem": "SABADO", "jornadarh8": "18:00-20:59", "est28xrang": 7, "fh8": "NOCHE", "est32xdian": 5.0, "diasanio": 81, "horam": "19:33", "fecham": "03/22/2025", "horai": "19:58", "fechai": "03/22/2025", "lugar_hech": "VIA PUBLICA", "nom_lugar_": "VIA PUBLICA", "inspeccion": "L.HECHOS", "direcion_d": "K39 CL 54", "barrio_res": "SIN DATO", "comuna_res": 99, "levantamie": "L.HECHOS", "estado_civ": "SIN ESTABLECER", "escolarida": "SIN ESTABLECER", "tipo_viole": "DELINCUENCIA", "categoria_": "HOMICIDIOS POR VENGANZA CON Y SIN ANTECEDENTES DE ATENTADOS Y AMENAZAS", "categori_1": null, "subcategor": "HOMICIDIO ATRIBUIDO A VENGANZA CON ANTECEDENTES PREVIOS DE ATENTADOS, AMENAZAS O DISPUTAS", "tipo_agres": "SIN DATO", "jornada": "NOCHE", "fec_especi": null, "x": -76.528131687300004, "y": 3.4452791709699988, "feminicidi": "N", "procedimie": "N", "poblacion_": "N", "clasificac": "'00000000", "barrioplan": "San Pascual", "estratopla": 1.0, "semanaexce": 12.0, "semanalund": 12.0, "semanacons": 1682.0, "semanaco_1": 1682.0, "finsemanac": 1682.0, "multiples": "SIMPLE", "agresor_en": "NO APLICA", "genero": null, "orientacio": "POR ESTABLECER", "manera_mue": "VIOLENTA HOMICIDA", "nacionalid": null, "sector": null, "otra_nacio": null, "ancestro": "SIN INFORMACIÓN", "licor": 0, "drogas": 0, "bandas": 0, "pandillas": 0, "habitantes": 0, "barras": 0, "lgtbi": 0, "com_hecho": "Comuna 3", "comparendo": "S", "antecedent": "NO", "anotacione": "SIN DATOS", "movil": "VENGANZAS CON ANTECEDENTES", "sicariato": "S", "desc_habca": "NO APLICA", "desc_droga": "VÍCTIMA CONSUMIDOR", "Id": 0, "area": 136572.15568900001 }, "geometry": { "type": "Point", "coordinates": [ -76.528131687300004, 3.445279170969999 ] } },
{ "type": "Feature", "properties": { "no": 52467, "semana": 14, "identifica": 78424, "spoa": "25-04436", "spoa_compl": "760016000193202000000", "direccion": "KR 15 CL 10", "barrio": "SAN JUAN BOSCO", "comuna": "3", "idcombar": 306.0, "cuadrante": "3.0", "tipo_de_ar": "CORTOPUNZANTE", "tipo_ident": "CEDULA DE CIUDADANIA", "ocupacion": "SIN OCUPACION", "sexo": "M", "edad": 30, "horah": "01:40", "fechao": 2025, "fechah": "04/04/2025", "diasem": "VIERNES", "jornadarh8": "00:00-02:59", "est28xrang": 1, "fh8": "MADRUGADA", "est32xdian": 7.0, "diasanio": 94, "horam": "02:05", "fecham": "04/04/2025", "horai": "02:30", "fechai": "04/04/2025", "lugar_hech": "VIA PUBLICA", "nom_lugar_": "VIA PUBLICA", "inspeccion": "L.HECHOS", "direcion_d": "K39 CL 54", "barrio_res": "SIN DATO", "comuna_res": 99, "levantamie": "L.HECHOS", "estado_civ": "SIN ESTABLECER", "escolarida": "SIN ESTABLECER", "tipo_viole": "DELINCUENCIA", "categoria_": "HOMICIDIOS POR AJUSTES DE CUENTAS DELINCUENCIALES ENTRE GRUPOS/BANDAS ORGANIZADAS", "categori_1": null, "subcategor": "HOMICIDIO ASOCIADO A DISPUTAS ENTRE ORGANIZACIONES DE NARCOTRAFICO RIVALES (ESTRUCTURAS DE CARTELES) O ENTRE BANDAS DELINCUENCIALES RIVALES DEDICADAS A DIVERSOS DELITOS", "tipo_agres": "SIN DATO", "jornada": "MADRUGADA", "fec_especi": null, "x": -76.531918047999994, "y": 3.442555165, "feminicidi": "N", "procedimie": "N", "poblacion_": "N", "clasificac": "'00000000", "barrioplan": "San Juan Bosco", "estratopla": 3.0, "semanaexce": 14.0, "semanalund": 14.0, "semanacons": 1684.0, "semanaco_1": 1684.0, "finsemanac": 1684.0, "multiples": "SIMPLE", "agresor_en": "NO APLICA", "genero": null, "orientacio": "POR ESTABLECER", "manera_mue": "VIOLENTA HOMICIDA", "nacionalid": null, "sector": null, "otra_nacio": null, "ancestro": "SIN INFORMACIÓN", "licor": 0, "drogas": 0, "bandas": 0, "pandillas": 0, "habitantes": 0, "barras": 0, "lgtbi": 0, "com_hecho": "Comuna 3", "comparendo": "N", "antecedent": "NO", "anotacione": "SIN DATOS", "movil": "POR TESTIGO", "sicariato": "N", "desc_habca": "VÍCTIMA", "desc_droga": "NO APLICA", "Id": 0, "area": 136572.15568900001 }, "geometry": { "type": "Point", "coordinates": [ -76.531918048, 3.442555165 ] } },
{ "type": "Feature", "properties": { "no": 52468, "semana": 14, "identifica": 78426, "spoa": "25-04477", "spoa_compl": "760016000193202000000", "direccion": "KR 12 CL 12", "barrio": "EL CALVARIO", "comuna": "3", "idcombar": 310.0, "cuadrante": "3.0", "tipo_de_ar": "ARMA DE FUEGO", "tipo_ident": "CEDULA DE CIUDADANIA", "ocupacion": "VENDEDOR AMBULANTE", "sexo": "M", "edad": 32, "horah": "20:28", "fechao": 2025, "fechah": "04/04/2025", "diasem": "VIERNES", "jornadarh8": "18:00-20:59", "est28xrang": 7, "fh8": "NOCHE", "est32xdian": 5.0, "diasanio": 94, "horam": "20:53", "fecham": "04/04/2025", "horai": "21:18", "fechai": "04/04/2025", "lugar_hech": "VIA PUBLICA", "nom_lugar_": "VIA PUBLICA", "inspeccion": "L.HECHOS", "direcion_d": "K39 CL 54", "barrio_res": "SIN DATO", "comuna_res": 99, "levantamie": "L.HECHOS", "estado_civ": "UNION LIBRE", "escolarida": "PRIMARIA", "tipo_viole": "DELINCUENCIA", "categoria_": "TRÁFICO ESTUPEFACIENTES EN MENORES CANTIDADES (TEMC)", "categori_1": null, "subcategor": "HOMICIDIO ASOCIADO A DISPUTAS ENTRE REDES DE TRAFICO DE ESTUPEFACIENTES EN MENORES CANTIDADES (TEMC)", "tipo_agres": "SIN DATO", "jornada": "NOCHE", "fec_especi": null, "x": -76.530220777500006, "y": 3.44556911388, "feminicidi": "N", "procedimie": "N", "poblacion_": "N", "clasificac": "'10000000", "barrioplan": "El Calvario", "estratopla": 3.0, "semanaexce": 14.0, "semanalund": 14.0, "semanacons": 1684.0, "semanaco_1": 1684.0, "finsemanac": 1684.0, "multiples": "SIMPLE", "agresor_en": "NO APLICA", "genero": null, "orientacio": "POR ESTABLECER", "manera_mue": "VIOLENTA HOMICIDA", "nacionalid": null, "sector": null, "otra_nacio": null, "ancestro": "SIN INFORMACIÓN", "licor": 0, "drogas": 0, "bandas": 0, "pandillas": 0, "habitantes": 0, "barras": 0, "lgtbi": 0, "com_hecho": "Comuna 3", "comparendo": "S", "antecedent": "NO", "anotacione": "SIN DATOS", "movil": "POR TESTIGO", "sicariato": "S", "desc_habca": "NO APLICA", "desc_droga": "VÍCTIMA EXPENDEDOR Y CONSUMIDOR", "Id": 0, "area": 136572.15568900001 }, "geometry": { "type": "Point", "coordinates": [ -76.530220777500006, 3.44556911388 ] } },
{ "type": "Feature", "properties": { "no": 52512, "semana": 17, "identifica": 78484, "spoa": "25-05427", "spoa_compl": "760016000193202000000", "direccion": "CL 14 KR 12", "barrio": "SAN PASCUAL", "comuna": "3", "idcombar": 309.0, "cuadrante": "3.0", "tipo_de_ar": "ARMA DE FUEGO", "tipo_ident": "CEDULA DE CIUDADANIA", "ocupacion": "SECRETARIA", "sexo": "M", "edad": 32, "horah": "16:50", "fechao": 2025, "fechah": "04/20/2025", "diasem": "DOMINGO", "jornadarh8": "15:00-17:59", "est28xrang": 6, "fh8": "TARDE", "est32xdian": 4.0, "diasanio": 110, "horam": "17:15", "fecham": "04/20/2025", "horai": "17:40", "fechai": "04/20/2025", "lugar_hech": "VIA PUBLICA", "nom_lugar_": "VIA PUBLICA", "inspeccion": "L.HECHOS", "direcion_d": "K39 CL 54", "barrio_res": "SIN DATO", "comuna_res": 99, "levantamie": "L.HECHOS", "estado_civ": "SOLTERO", "escolarida": "SECUNDARIA", "tipo_viole": "DELINCUENCIA", "categoria_": "HOMICIDIOS POR VENGANZA CON Y SIN ANTECEDENTES DE ATENTADOS Y AMENAZAS", "categori_1": null, "subcategor": "HOMICIDIO ATRIBUIDO A VENGANZA SIN CONTEXTO NI ATECEDENTES DE NINGUN TIPO", "tipo_agres": "SIN DATO", "jornada": "TARDE", "fec_especi": null, "x": -76.527690882190001, "y": 3.4457968604699998, "feminicidi": "N", "procedimie": "N", "poblacion_": "N", "clasificac": "'00000000", "barrioplan": "San Pascual", "estratopla": 1.0, "semanaexce": 17.0, "semanalund": 16.0, "semanacons": 1687.0, "semanaco_1": 1686.0, "finsemanac": 1686.0, "multiples": "SIMPLE", "agresor_en": "NO APLICA", "genero": null, "orientacio": "POR ESTABLECER", "manera_mue": "VIOLENTA HOMICIDA", "nacionalid": null, "sector": null, "otra_nacio": null, "ancestro": "SIN INFORMACIÓN", "licor": 0, "drogas": 0, "bandas": 0, "pandillas": 0, "habitantes": 0, "barras": 0, "lgtbi": 0, "com_hecho": "Comuna 3", "comparendo": "N", "antecedent": "NO", "anotacione": "SIN DATOS", "movil": "VENGANZAS SIN ANTECEDENTES", "sicariato": "S", "desc_habca": "NO APLICA", "desc_droga": "NO APLICA", "Id": 0, "area": 136572.15568900001 }, "geometry": { "type": "Point", "coordinates": [ -76.527690882190001, 3.44579686047 ] } },
{ "type": "Feature", "properties": { "no": 50560, "semana": 16, "identifica": 75740, "spoa": "23-03757", "spoa_compl": "760016000193202000000", "direccion": "KR 13 CL 11", "barrio": "SAN JUAN BOSCO", "comuna": "3", "idcombar": 306.0, "cuadrante": "E3", "tipo_de_ar": "CORTOPUNZANTE", "tipo_ident": "CEDULA DE CIUDADANIA", "ocupacion": "OFICIOS VARIOS", "sexo": "M", "edad": 18, "horah": "19:50", "fechao": 2023, "fechah": "04/22/2023", "diasem": "SABADO", "jornadarh8": "18:00-20:59", "est28xrang": 7, "fh8": "NOCHE", "est32xdian": 5.0, "diasanio": 112, "horam": "20:15", "fecham": "04/22/2023", "horai": "20:40", "fechai": "04/22/2023", "lugar_hech": "VIA PUBLICA", "nom_lugar_": "VIA PUBLICA", "inspeccion": "L.HECHOS", "direcion_d": "K39 CL 54", "barrio_res": "SAN JUAN BOSCO", "comuna_res": 3, "levantamie": "L.HECHOS", "estado_civ": "SOLTERO", "escolarida": "PRIMARIA", "tipo_viole": "CONVIVENCIA", "categoria_": "HOMICIDIOS POR RIÑAS", "categori_1": null, "subcategor": "HOMICIDIO POR RIÑA CON PRESENCIA DE CONSUMO DE SUSTANCIAS PSICOACTIVOS EN LOS HECHOS", "tipo_agres": "SIN DATO", "jornada": "NOCHE", "fec_especi": null, "x": -76.530727234600008, "y": 3.44435735339, "feminicidi": "N", "procedimie": "N", "poblacion_": "N", "clasificac": "'10000000", "barrioplan": "San Juan Bosco", "estratopla": 3.0, "semanaexce": 16.0, "semanalund": 17.0, "semanacons": 1582.0, "semanaco_1": 1582.0, "finsemanac": 1582.0, "multiples": "SIMPLE", "agresor_en": "NO APLICA", "genero": null, "orientacio": "POR ESTABLECER", "manera_mue": "VIOLENTA HOMICIDA", "nacionalid": null, "sector": null, "otra_nacio": null, "ancestro": "SIN INFORMACIÓN", "licor": 0, "drogas": 0, "bandas": 0, "pandillas": 0, "habitantes": 0, "barras": 0, "lgtbi": 0, "com_hecho": "Comuna 3", "comparendo": "N", "antecedent": "SIN DATOS", "anotacione": "SIN DATOS", "movil": "RIÑA", "sicariato": "N", "desc_habca": "NO APLICA", "desc_droga": "VÍCTIMA CONSUMIDOR", "Id": 0, "area": 136572.15568900001 }, "geometry": { "type": "Point", "coordinates": [ -76.530727234600008, 3.44435735339 ] } },
{ "type": "Feature", "properties": { "no": 50628, "semana": 19, "identifica": 75821, "spoa": "23-04530", "spoa_compl": "760016000193202000000", "direccion": "CL 12 KR 13", "barrio": "SAN PASCUAL", "comuna": "3", "idcombar": 309.0, "cuadrante": "E3", "tipo_de_ar": "ARMA DE FUEGO", "tipo_ident": "CEDULA DE CIUDADANIA", "ocupacion": "OPERARIO", "sexo": "M", "edad": 27, "horah": "16:30", "fechao": 2023, "fechah": "05/13/2023", "diasem": "SABADO", "jornadarh8": "15:00-17:59", "est28xrang": 6, "fh8": "TARDE", "est32xdian": 4.0, "diasanio": 133, "horam": "16:55", "fecham": "05/13/2023", "horai": "17:20", "fechai": "05/13/2023", "lugar_hech": "VIA PUBLICA", "nom_lugar_": "VIA PUBLICA", "inspeccion": "HOSPITAL SAN JUAN DE DIOS", "direcion_d": "CL 12 13 SAN PASCUAL", "barrio_res": "SAN JUAN BOSCO", "comuna_res": 3, "levantamie": "H.SAN JUAN DE DIOS", "estado_civ": "SOLTERO", "escolarida": "SECUNDARIA", "tipo_viole": "OTRO", "categoria_": "HOMICIDIOS CON MOVIL POR ESTABLECER", "categori_1": null, "subcategor": "HOMICIDIO EN LOS QUE SE DESCONOCE EL CONTEXTO QUE MOTIVO LOS HECHOS", "tipo_agres": "SIN DATO", "jornada": "TARDE", "fec_especi": null, "x": -76.52998655, "y": 3.44447169, "feminicidi": "N", "procedimie": "N", "poblacion_": "N", "clasificac": "'00000000", "barrioplan": "San Pascual", "estratopla": 1.0, "semanaexce": 19.0, "semanalund": 20.0, "semanacons": 1585.0, "semanaco_1": 1585.0, "finsemanac": 1585.0, "multiples": "SIMPLE", "agresor_en": "NO APLICA", "genero": null, "orientacio": "POR ESTABLECER", "manera_mue": "VIOLENTA HOMICIDA", "nacionalid": null, "sector": null, "otra_nacio": null, "ancestro": "SIN INFORMACIÓN", "licor": 0, "drogas": 0, "bandas": 0, "pandillas": 0, "habitantes": 0, "barras": 0, "lgtbi": 0, "com_hecho": "Comuna 3", "comparendo": "S", "antecedent": "SIN DATOS", "anotacione": "SIN DATOS", "movil": "POR ESTABLECER", "sicariato": "N", "desc_habca": "NO APLICA", "desc_droga": "NO APLICA", "Id": 0, "area": 136572.15568900001 }, "geometry": { "type": "Point", "coordinates": [ -76.52998655, 3.44447169 ] } },
{ "type": "Feature", "properties": { "no": 52636, "semana": 23, "identifica": 78647, "spoa": "25-07097", "spoa_compl": "760016000193202000000", "direccion": "CL 12 KR 13", "barrio": "SAN PASCUAL", "comuna": "3", "idcombar": 309.0, "cuadrante": "3.0", "tipo_de_ar": "CORTOPUNZANTE", "tipo_ident": "CEDULA DE CIUDADANIA", "ocupacion": "DESEMPLEADO", "sexo": "M", "edad": 31, "horah": "21:03", "fechao": 2025, "fechah": "06/01/2025", "diasem": "DOMINGO", "jornadarh8": "21:00-23:59", "est28xrang": 8, "fh8": "NOCHE", "est32xdian": 6.0, "diasanio": 152, "horam": "00:10", "fecham": "06/01/2025", "horai": "21:53", "fechai": "06/01/2025", "lugar_hech": "VIA PUBLICA", "nom_lugar_": "VIA PUBLICA", "inspeccion": "HOSPITAL SAN JUAN DE DIOS", "direcion_d": "Calle 12 No 41 16", "barrio_res": "SIN DATO", "comuna_res": 99, "levantamie": "H.SAN JUAN DE DIOS", "estado_civ": "SOLTERO", "escolarida": "SECUNDARIA", "tipo_viole": "CONVIVENCIA", "categoria_": "HOMICIDIOS POR RIÑAS", "categori_1": null, "subcategor": "HOMICIDIO POR RIÑA CON PRESENCIA DE CONSUMO DE SUSTANCIAS PSICOACTIVOS EN LOS HECHOS", "tipo_agres": "SIN DATO", "jornada": "NOCHE", "fec_especi": null, "x": -76.529811718999994, "y": 3.444556655, "feminicidi": "N", "procedimie": "N", "poblacion_": "N", "clasificac": "'00000100", "barrioplan": "San Pascual", "estratopla": 1.0, "semanaexce": 23.0, "semanalund": 22.0, "semanacons": 1693.0, "semanaco_1": 1692.0, "finsemanac": 1692.0, "multiples": "SIMPLE", "agresor_en": "NO APLICA", "genero": null, "orientacio": "POR ESTABLECER", "manera_mue": "VIOLENTA HOMICIDA", "nacionalid": null, "sector": null, "otra_nacio": null, "ancestro": "SIN INFORMACIÓN", "licor": 0, "drogas": 0, "bandas": 0, "pandillas": 0, "habitantes": 0, "barras": 0, "lgtbi": 0, "com_hecho": "Comuna 3", "comparendo": "S", "antecedent": "NO", "anotacione": "SIN DATOS", "movil": "RIÑA", "sicariato": "N", "desc_habca": "VICTIMA Y AGRESOR", "desc_droga": "VÍCTIMA EXPENDEDOR Y CONSUMIDOR", "Id": 0, "area": 136572.15568900001 }, "geometry": { "type": "Point", "coordinates": [ -76.529811719, 3.444556655 ] } },
{ "type": "Feature", "properties": { "no": 50697, "semana": 23, "identifica": 75935, "spoa": "23-05526", "spoa_compl": "760016000193202000000", "direccion": "KR 12 CL 10", "barrio": "SAN JUAN BOSCO", "comuna": "3", "idcombar": 306.0, "cuadrante": "E3", "tipo_de_ar": "ARMA DE FUEGO", "tipo_ident": "CEDULA DE CIUDADANIA", "ocupacion": "VENDEDOR AMBULANTE", "sexo": "M", "edad": 39, "horah": "21:40", "fechao": 2023, "fechah": "06/09/2023", "diasem": "VIERNES", "jornadarh8": "21:00-23:59", "est28xrang": 8, "fh8": "NOCHE", "est32xdian": 6.0, "diasanio": 160, "horam": "22:05", "fecham": "06/09/2023", "horai": "22:30", "fechai": "06/09/2023", "lugar_hech": "VIA PUBLICA", "nom_lugar_": "VIA PUBLICA", "inspeccion": "L.HECHOS", "direcion_d": "SAN BOSCO", "barrio_res": "SAN JUAN BOSCO", "comuna_res": 3, "levantamie": "L.HECHOS", "estado_civ": "SOLTERO", "escolarida": "SECUNDARIA", "tipo_viole": "DELINCUENCIA", "categoria_": "TRÁFICO ESTUPEFACIENTES EN MENORES CANTIDADES (TEMC)", "categori_1": null, "subcategor": "HOMICIDIO ASOCIADO A DISPUTAS ENTRE REDES DE TRAFICO DE ESTUPEFACIENTES EN MENORES CANTIDADES (TEMC)", "tipo_agres": "SIN DATO", "jornada": "NOCHE", "fec_especi": null, "x": -76.532332522999994, "y": 3.445221933880001, "feminicidi": "N", "procedimie": "N", "poblacion_": "N", "clasificac": "'00000000", "barrioplan": "San Juan Bosco", "estratopla": 3.0, "semanaexce": 23.0, "semanalund": 24.0, "semanacons": 1589.0, "semanaco_1": 1589.0, "finsemanac": 1589.0, "multiples": "SIMPLE", "agresor_en": "NO APLICA", "genero": null, "orientacio": "POR ESTABLECER", "manera_mue": "VIOLENTA HOMICIDA", "nacionalid": null, "sector": null, "otra_nacio": null, "ancestro": "SIN INFORMACIÓN", "licor": 0, "drogas": 0, "bandas": 0, "pandillas": 0, "habitantes": 0, "barras": 0, "lgtbi": 0, "com_hecho": "Comuna 3", "comparendo": "S", "antecedent": "SIN DATOS", "anotacione": "SIN DATOS", "movil": "POR TESTIGO", "sicariato": "N", "desc_habca": "NO APLICA", "desc_droga": "VÍCTIMA EXPENDEDOR", "Id": 0, "area": 136572.15568900001 }, "geometry": { "type": "Point", "coordinates": [ -76.532332523, 3.445221933880001 ] } },
{ "type": "Feature", "properties": { "no": 50700, "semana": 24, "identifica": 75964, "spoa": "23-05581", "spoa_compl": "760016000193202000000", "direccion": "CL 12 KR 11", "barrio": "EL CALVARIO", "comuna": "3", "idcombar": 310.0, "cuadrante": "E3", "tipo_de_ar": "ARMA DE FUEGO", "tipo_ident": "CEDULA DE CIUDADANIA", "ocupacion": "VENDEDOR AMBULANTE", "sexo": "F", "edad": 36, "horah": "17:03", "fechao": 2023, "fechah": "06/11/2023", "diasem": "DOMINGO", "jornadarh8": "15:00-17:59", "est28xrang": 6, "fh8": "TARDE", "est32xdian": 4.0, "diasanio": 162, "horam": "17:28", "fecham": "06/11/2023", "horai": "17:53", "fechai": "06/11/2023", "lugar_hech": "VIA PUBLICA", "nom_lugar_": "VIA PUBLICA", "inspeccion": "HOSPITAL SAN JUAN DE DIOS", "direcion_d": "K39 CL 54", "barrio_res": "SIMÓN BOLIVAR", "comuna_res": 8, "levantamie": "H.SAN JUAN DE DIOS", "estado_civ": "SOLTERO", "escolarida": "SECUNDARIA", "tipo_viole": "CONVIVENCIA", "categoria_": "HOMICIDIOS POR RIÑAS", "categori_1": null, "subcategor": "HOMICIDIOS POR RIÑAS O DIFERENCIAS ATRIBUIDOS A INTOLERANCIA", "tipo_agres": "SIN DATO", "jornada": "TARDE", "fec_especi": null, "x": -76.530562505999598, "y": 3.4465124620004399, "feminicidi": "N", "procedimie": "N", "poblacion_": "N", "clasificac": "'00000000", "barrioplan": "El Calvario", "estratopla": 3.0, "semanaexce": 24.0, "semanalund": 24.0, "semanacons": 1590.0, "semanaco_1": 1589.0, "finsemanac": 1589.0, "multiples": "SIMPLE", "agresor_en": "NO APLICA", "genero": null, "orientacio": "POR ESTABLECER", "manera_mue": "VIOLENTA HOMICIDA", "nacionalid": null, "sector": null, "otra_nacio": null, "ancestro": "SIN INFORMACIÓN", "licor": 0, "drogas": 0, "bandas": 0, "pandillas": 0, "habitantes": 0, "barras": 0, "lgtbi": 0, "com_hecho": "Comuna 3", "comparendo": "N", "antecedent": "SIN DATOS", "anotacione": "SIN DATOS", "movil": "RIÑA", "sicariato": "N", "desc_habca": "NO APLICA", "desc_droga": "NO APLICA", "Id": 0, "area": 136572.15568900001 }, "geometry": { "type": "Point", "coordinates": [ -76.530562505999598, 3.44651246200044 ] } },
{ "type": "Feature", "properties": { "no": 51687, "semana": 26, "identifica": 77424, "spoa": "24-07790", "spoa_compl": "760016000193202000000", "direccion": "KR 14 CL 12", "barrio": "SAN PASCUAL", "comuna": "3", "idcombar": 309.0, "cuadrante": "E74", "tipo_de_ar": "OTRAS ARMAS", "tipo_ident": "CEDULA DE CIUDADANIA", "ocupacion": "SIN OCUPACION", "sexo": "M", "edad": 35, "horah": "05:20", "fechao": 2024, "fechah": "06/29/2024", "diasem": "SABADO", "jornadarh8": "03:00-05:59", "est28xrang": 2, "fh8": "MADRUGADA", "est32xdian": 8.0, "diasanio": 181, "horam": "05:45", "fecham": "07/01/2024", "horai": "06:10", "fechai": "07/01/2024", "lugar_hech": "VIA PUBLICA", "nom_lugar_": "VIA PUBLICA", "inspeccion": "SIN DATO", "direcion_d": "K39 CL 54", "barrio_res": "SIN DATO", "comuna_res": 99, "levantamie": "SIN DATO", "estado_civ": "SIN ESTABLECER", "escolarida": "SIN ESTABLECER", "tipo_viole": "OTRO", "categoria_": "HOMICIDIOS CON MOVIL POR ESTABLECER", "categori_1": null, "subcategor": "HOMICIDIO EN LOS QUE SE DESCONOCE EL CONTEXTO QUE MOTIVO LOS HECHOS", "tipo_agres": "SIN DATO", "jornada": "MADRUGADA", "fec_especi": null, "x": -76.529772515999994, "y": 3.4433864611599998, "feminicidi": "N", "procedimie": "N", "poblacion_": "N", "clasificac": "'00000000", "barrioplan": "San Pascual", "estratopla": 1.0, "semanaexce": 26.0, "semanalund": 26.0, "semanacons": 1644.0, "semanaco_1": 1644.0, "finsemanac": 1644.0, "multiples": "SIMPLE", "agresor_en": "NO APLICA", "genero": null, "orientacio": "POR ESTABLECER", "manera_mue": "VIOLENTA HOMICIDA", "nacionalid": null, "sector": null, "otra_nacio": null, "ancestro": "SIN INFORMACIÓN", "licor": 0, "drogas": 0, "bandas": 0, "pandillas": 0, "habitantes": 0, "barras": 0, "lgtbi": 0, "com_hecho": "Comuna 3", "comparendo": "N", "antecedent": "SIN DATOS", "anotacione": "SIN DATOS", "movil": "POR ESTABLECER", "sicariato": "N", "desc_habca": "NO APLICA", "desc_droga": "NO APLICA", "Id": 0, "area": 136572.15568900001 }, "geometry": { "type": "Point", "coordinates": [ -76.529772516, 3.44338646116 ] } },
{ "type": "Feature", "properties": { "no": 50779, "semana": 27, "identifica": 76060, "spoa": "23-06486", "spoa_compl": "760016000193202000000", "direccion": "CL 15 KR 10", "barrio": "EL CALVARIO", "comuna": "3", "idcombar": 310.0, "cuadrante": "E3", "tipo_de_ar": "CORTOPUNZANTE", "tipo_ident": "CEDULA DE CIUDADANIA", "ocupacion": "INDIGENTE", "sexo": "M", "edad": 41, "horah": "02:54", "fechao": 2023, "fechah": "07/07/2023", "diasem": "VIERNES", "jornadarh8": "00:00-02:59", "est28xrang": 1, "fh8": "MADRUGADA", "est32xdian": 7.0, "diasanio": 188, "horam": "03:19", "fecham": "07/07/2023", "horai": "03:44", "fechai": "07/07/2023", "lugar_hech": "VIA PUBLICA", "nom_lugar_": "VIA PUBLICA", "inspeccion": "L.HECHOS", "direcion_d": "CALLE 29 # 23-22", "barrio_res": "COLSEGUROS ANDES", "comuna_res": 10, "levantamie": "L.HECHOS", "estado_civ": "SOLTERO", "escolarida": "SECUNDARIA", "tipo_viole": "CONVIVENCIA", "categoria_": "HOMICIDIOS POR RIÑAS", "categori_1": null, "subcategor": "HOMICIDIO POR RIÑA CON PRESENCIA DE CONSUMO DE SUSTANCIAS PSICOACTIVOS EN LOS HECHOS", "tipo_agres": "SIN DATO", "jornada": "MADRUGADA", "fec_especi": null, "x": -76.527634621000004, "y": 3.44784476829, "feminicidi": "N", "procedimie": "N", "poblacion_": "N", "clasificac": "'00000000", "barrioplan": "El Calvario", "estratopla": 3.0, "semanaexce": 27.0, "semanalund": 28.0, "semanacons": 1593.0, "semanaco_1": 1593.0, "finsemanac": 1593.0, "multiples": "SIMPLE", "agresor_en": "NO APLICA", "genero": null, "orientacio": "POR ESTABLECER", "manera_mue": "VIOLENTA HOMICIDA", "nacionalid": null, "sector": null, "otra_nacio": null, "ancestro": "SIN INFORMACIÓN", "licor": 0, "drogas": 0, "bandas": 0, "pandillas": 0, "habitantes": 0, "barras": 0, "lgtbi": 0, "com_hecho": "Comuna 3", "comparendo": "S", "antecedent": "SIN DATOS", "anotacione": "SIN DATOS", "movil": "RIÑA", "sicariato": "N", "desc_habca": "VÍCTIMA", "desc_droga": "NO APLICA", "Id": 0, "area": 136572.15568900001 }, "geometry": { "type": "Point", "coordinates": [ -76.527634621, 3.44784476829 ] } },
{ "type": "Feature", "properties": { "no": 50841, "semana": 30, "identifica": 76169, "spoa": "23-07265", "spoa_compl": "760016000193202000000", "direccion": "KR 12 CL 14", "barrio": "SAN PASCUAL", "comuna": "3", "idcombar": 309.0, "cuadrante": "E3", "tipo_de_ar": "ARMA DE FUEGO", "tipo_ident": "CEDULA DE CIUDADANIA", "ocupacion": "COMERCIANTE", "sexo": "M", "edad": 56, "horah": "23:58", "fechao": 2023, "fechah": "07/29/2023", "diasem": "SABADO", "jornadarh8": "21:00-23:59", "est28xrang": 8, "fh8": "NOCHE", "est32xdian": 6.0, "diasanio": 210, "horam": "00:20", "fecham": "07/29/2023", "horai": "00:45", "fechai": "07/29/2023", "lugar_hech": "VIA PUBLICA", "nom_lugar_": "VIA PUBLICA", "inspeccion": "HOSPITAL SAN JUAN DE DIOS", "direcion_d": "CALLE 15 #23_38", "barrio_res": "SUCRE", "comuna_res": 9, "levantamie": "H.SAN JUAN DE DIOS", "estado_civ": "SOLTERO", "escolarida": "PRIMARIA", "tipo_viole": "DELINCUENCIA", "categoria_": "HOMICIDIOS POR VENGANZA CON Y SIN ANTECEDENTES DE ATENTADOS Y AMENAZAS", "categori_1": null, "subcategor": "HOMICIDIO ATRIBUIDO A VENGANZA CON ANTECEDENTES PREVIOS DE ATENTADOS, AMENAZAS O DISPUTAS", "tipo_agres": "SIN DATO", "jornada": "NOCHE", "fec_especi": null, "x": -76.527604311899992, "y": 3.4457595463200001, "feminicidi": "N", "procedimie": "N", "poblacion_": "N", "clasificac": "'10000000", "barrioplan": "San Pascual", "estratopla": 1.0, "semanaexce": 30.0, "semanalund": 31.0, "semanacons": 1596.0, "semanaco_1": 1596.0, "finsemanac": 1596.0, "multiples": "SIMPLE", "agresor_en": "NO APLICA", "genero": null, "orientacio": "POR ESTABLECER", "manera_mue": "VIOLENTA HOMICIDA", "nacionalid": null, "sector": null, "otra_nacio": null, "ancestro": "SIN INFORMACIÓN", "licor": 0, "drogas": 0, "bandas": 0, "pandillas": 0, "habitantes": 0, "barras": 0, "lgtbi": 0, "com_hecho": "Comuna 3", "comparendo": "S", "antecedent": "SIN DATOS", "anotacione": "SIN DATOS", "movil": "VENGANZAS CON ANTECEDENTES", "sicariato": "N", "desc_habca": "NO APLICA", "desc_droga": "NO APLICA", "Id": 0, "area": 136572.15568900001 }, "geometry": { "type": "Point", "coordinates": [ -76.527604311899992, 3.44575954632 ] } },
{ "type": "Feature", "properties": { "no": 52810, "semana": 33, "identifica": 78892, "spoa": "25-30547", "spoa_compl": "760016000193202000000", "direccion": "CL 13 KR 11", "barrio": "EL CALVARIO", "comuna": "3", "idcombar": 310.0, "cuadrante": "3.0", "tipo_de_ar": "CORTOPUNZANTE", "tipo_ident": "CEDULA DE CIUDADANIA", "ocupacion": "INDIGENTE", "sexo": "M", "edad": 39, "horah": "21:03", "fechao": 2025, "fechah": "08/13/2025", "diasem": "MIERCOLES", "jornadarh8": "21:00-23:59", "est28xrang": 8, "fh8": "NOCHE", "est32xdian": 6.0, "diasanio": 225, "horam": "21:28", "fecham": "08/13/2025", "horai": "21:53", "fechai": "08/13/2025", "lugar_hech": "VIA PUBLICA", "nom_lugar_": "VIA PUBLICA", "inspeccion": "L.HECHOS", "direcion_d": "K39 CL 54", "barrio_res": "SIN DATO", "comuna_res": 99, "levantamie": "L.HECHOS", "estado_civ": "SIN ESTABLECER", "escolarida": "SIN ESTABLECER", "tipo_viole": "CONVIVENCIA", "categoria_": "HOMICIDIOS POR RIÑAS", "categori_1": null, "subcategor": "HOMICIDIOS POR RIÑAS O DIFERENCIAS ATRIBUIDOS A INTOLERANCIA", "tipo_agres": "SIN DATO", "jornada": "NOCHE", "fec_especi": null, "x": -76.529732426690003, "y": 3.446690306409999, "feminicidi": "N", "procedimie": "N", "poblacion_": "N", "clasificac": "'00000100", "barrioplan": "El Calvario", "estratopla": 3.0, "semanaexce": 33.0, "semanalund": 33.0, "semanacons": 1703.0, "semanaco_1": 1703.0, "finsemanac": null, "multiples": "SIMPLE", "agresor_en": "NO APLICA", "genero": null, "orientacio": "POR ESTABLECER", "manera_mue": "VIOLENTA HOMICIDA", "nacionalid": null, "sector": null, "otra_nacio": null, "ancestro": "SIN INFORMACIÓN", "licor": 0, "drogas": 0, "bandas": 0, "pandillas": 0, "habitantes": 0, "barras": 0, "lgtbi": 0, "com_hecho": "Comuna 3", "comparendo": "N", "antecedent": "NO", "anotacione": "SIN DATOS", "movil": "RIÑA", "sicariato": "N", "desc_habca": "AGRESOR", "desc_droga": "NO APLICA", "Id": 0, "area": 136572.15568900001 }, "geometry": { "type": "Point", "coordinates": [ -76.529732426690003, 3.446690306409999 ] } },
{ "type": "Feature", "properties": { "no": 52817, "semana": 33, "identifica": 78900, "spoa": "25-30703", "spoa_compl": "760016000193202000000", "direccion": "CL 13 LR 13", "barrio": "SAN PASCUAL", "comuna": "3", "idcombar": 309.0, "cuadrante": "3.0", "tipo_de_ar": "ARMA DE FUEGO", "tipo_ident": "CEDULA DE CIUDADANIA", "ocupacion": "ESTUDIANTE", "sexo": "M", "edad": 26, "horah": "20:33", "fechao": 2025, "fechah": "08/16/2025", "diasem": "SABADO", "jornadarh8": "18:00-20:59", "est28xrang": 7, "fh8": "NOCHE", "est32xdian": 5.0, "diasanio": 228, "horam": "20:58", "fecham": "08/16/2025", "horai": "21:23", "fechai": "08/16/2025", "lugar_hech": "VIA PUBLICA", "nom_lugar_": "VIA PUBLICA", "inspeccion": "L.HECHOS", "direcion_d": "K39 CL 54", "barrio_res": "SIN DATO", "comuna_res": 99, "levantamie": "L.HECHOS", "estado_civ": "UNION LIBRE", "escolarida": "SECUNDARIA", "tipo_viole": "DELINCUENCIA", "categoria_": "HOMICIDIOS POR VENGANZA CON Y SIN ANTECEDENTES DE ATENTADOS Y AMENAZAS", "categori_1": null, "subcategor": "HOMICIDIO ATRIBUIDO A VENGANZA SIN CONTEXTO NI ATECEDENTES DE NINGUN TIPO", "tipo_agres": "SIN DATO", "jornada": "NOCHE", "fec_especi": null, "x": -76.529153581000003, "y": 3.444482544, "feminicidi": "N", "procedimie": "N", "poblacion_": "N", "clasificac": "'00000000", "barrioplan": "San Pascual", "estratopla": 1.0, "semanaexce": 33.0, "semanalund": 33.0, "semanacons": 1703.0, "semanaco_1": 1703.0, "finsemanac": 1703.0, "multiples": "SIMPLE", "agresor_en": "NO APLICA", "genero": null, "orientacio": "POR ESTABLECER", "manera_mue": "VIOLENTA HOMICIDA", "nacionalid": null, "sector": null, "otra_nacio": null, "ancestro": "SIN INFORMACIÓN", "licor": 0, "drogas": 0, "bandas": 0, "pandillas": 0, "habitantes": 0, "barras": 0, "lgtbi": 0, "com_hecho": "Comuna 3", "comparendo": "S", "antecedent": "NO", "anotacione": "SIN DATOS", "movil": "VENGANZAS SIN ANTECEDENTES", "sicariato": "N", "desc_habca": "NO APLICA", "desc_droga": "NO APLICA", "Id": 0, "area": 136572.15568900001 }, "geometry": { "type": "Point", "coordinates": [ -76.529153581, 3.444482544 ] } },
{ "type": "Feature", "properties": { "no": 50909, "semana": 34, "identifica": 76262, "spoa": "23-08188", "spoa_compl": "760016000193202000000", "direccion": "KR 10 CL 13", "barrio": "EL CALVARIO", "comuna": "3", "idcombar": 310.0, "cuadrante": "3.0", "tipo_de_ar": "ARMA DE FUEGO", "tipo_ident": "CEDULA DE CIUDADANIA", "ocupacion": "TAXISTA", "sexo": "M", "edad": 26, "horah": "14:50", "fechao": 2023, "fechah": "08/25/2023", "diasem": "VIERNES", "jornadarh8": "12:00-14:59", "est28xrang": 5, "fh8": "TARDE", "est32xdian": 3.0, "diasanio": 237, "horam": "15:13", "fecham": "08/25/2023", "horai": "15:36", "fechai": "08/25/2023", "lugar_hech": "VIA PUBLICA", "nom_lugar_": "VIA PUBLICA", "inspeccion": "HOSPITAL SAN JUAN DE DIOS", "direcion_d": "KR 40 A 55 92", "barrio_res": "PETECUY TERCERA ETAPA", "comuna_res": 6, "levantamie": "H.SAN JUAN DE DIOS", "estado_civ": "UNION LIBRE", "escolarida": "SECUNDARIA", "tipo_viole": "DELINCUENCIA", "categoria_": "HOMICIDIOS ASOCIADOS A PROBLEMAS CON EL PATRIMONIO", "categori_1": null, "subcategor": "HOMICIDIO POR HURTARLE", "tipo_agres": "SIN DATO", "jornada": "TARDE", "fec_especi": null, "x": -76.529898965179996, "y": 3.4476479824199999, "feminicidi": "N", "procedimie": "N", "poblacion_": "N", "clasificac": "'00000000", "barrioplan": "El Calvario", "estratopla": 3.0, "semanaexce": 34.0, "semanalund": 35.0, "semanacons": 1600.0, "semanaco_1": 1600.0, "finsemanac": 1600.0, "multiples": "SIMPLE", "agresor_en": "NO APLICA", "genero": null, "orientacio": "POR ESTABLECER", "manera_mue": "VIOLENTA HOMICIDA", "nacionalid": null, "sector": null, "otra_nacio": null, "ancestro": "SIN INFORMACIÓN", "licor": 0, "drogas": 0, "bandas": 0, "pandillas": 0, "habitantes": 0, "barras": 0, "lgtbi": 0, "com_hecho": "Comuna 3", "comparendo": "S", "antecedent": "SIN DATOS", "anotacione": "SIN DATOS", "movil": "POR HURTARLE", "sicariato": "N", "desc_habca": "NO APLICA", "desc_droga": "NO APLICA", "Id": 0, "area": 136572.15568900001 }, "geometry": { "type": "Point", "coordinates": [ -76.529898965179996, 3.44764798242 ] } },
{ "type": "Feature", "properties": { "no": 50959, "semana": 36, "identifica": 76440, "spoa": "23-08746", "spoa_compl": "760016000193202000000", "direccion": "KR 10 CL 13", "barrio": "EL CALVARIO", "comuna": "3", "idcombar": 310.0, "cuadrante": "E3", "tipo_de_ar": "CORTOPUNZANTE", "tipo_ident": "CEDULA DE CIUDADANIA", "ocupacion": "OFICIOS VARIOS", "sexo": "M", "edad": 32, "horah": "11:30", "fechao": 2023, "fechah": "09/09/2023", "diasem": "SABADO", "jornadarh8": "09:00-11:59", "est28xrang": 4, "fh8": "MAÑANA", "est32xdian": 2.0, "diasanio": 252, "horam": "11:55", "fecham": "10/09/2023", "horai": "12:20", "fechai": "10/09/2023", "lugar_hech": "VIA PUBLICA", "nom_lugar_": "VIA PUBLICA", "inspeccion": "CLINICA COLOMBIA", "direcion_d": "DG 26 H 23-48 BARRIO MARROQUI 2 ETAPA", "barrio_res": "SIN DATO", "comuna_res": 99, "levantamie": "C.COLOMBIA", "estado_civ": "SIN ESTABLECER", "escolarida": "SIN ESTABLECER", "tipo_viole": "CONVIVENCIA", "categoria_": "HOMICIDIOS POR RIÑAS", "categori_1": null, "subcategor": "HOMICIDIO POR RIÑA CON PRESENCIA DE CONSUMO DE SUSTANCIAS PSICOACTIVOS EN LOS HECHOS", "tipo_agres": "SIN DATO", "jornada": "MAÑANA", "fec_especi": null, "x": -76.529898965179996, "y": 3.4476479824199999, "feminicidi": "N", "procedimie": "N", "poblacion_": "N", "clasificac": "'00000100", "barrioplan": "El Calvario", "estratopla": 3.0, "semanaexce": 36.0, "semanalund": 37.0, "semanacons": 1602.0, "semanaco_1": 1602.0, "finsemanac": 1602.0, "multiples": "SIMPLE", "agresor_en": "NO APLICA", "genero": null, "orientacio": "POR ESTABLECER", "manera_mue": "VIOLENTA HOMICIDA", "nacionalid": null, "sector": null, "otra_nacio": null, "ancestro": "SIN INFORMACIÓN", "licor": 0, "drogas": 0, "bandas": 0, "pandillas": 0, "habitantes": 0, "barras": 0, "lgtbi": 0, "com_hecho": "Comuna 3", "comparendo": "S", "antecedent": "SIN DATOS", "anotacione": "SIN DATOS", "movil": "RIÑA", "sicariato": "N", "desc_habca": "VICTIMA Y AGRESOR", "desc_droga": "VÍCTIMA CONSUMIDOR", "Id": 0, "area": 136572.15568900001 }, "geometry": { "type": "Point", "coordinates": [ -76.529898965179996, 3.44764798242 ] } },
{ "type": "Feature", "properties": { "no": 50972, "semana": 37, "identifica": 76340, "spoa": "23-08929", "spoa_compl": "760016000193202000000", "direccion": "KR 11 CL 11", "barrio": "EL CALVARIO", "comuna": "3", "idcombar": 310.0, "cuadrante": "E3", "tipo_de_ar": "ARMA DE FUEGO", "tipo_ident": "CEDULA DE CIUDADANIA", "ocupacion": "COTERO", "sexo": "M", "edad": 42, "horah": "12:45", "fechao": 2023, "fechah": "09/14/2023", "diasem": "JUEVES", "jornadarh8": "12:00-14:59", "est28xrang": 5, "fh8": "TARDE", "est32xdian": 3.0, "diasanio": 257, "horam": "13:10", "fecham": "09/14/2023", "horai": "13:35", "fechai": "09/14/2023", "lugar_hech": "VIA PUBLICA", "nom_lugar_": "VIA PUBLICA", "inspeccion": "HOSPITAL SAN JUAN DE DIOS", "direcion_d": "K39 CL 54", "barrio_res": "SIN BARRIO", "comuna_res": 0, "levantamie": "H.SAN JUAN DE DIOS", "estado_civ": "UNION LIBRE", "escolarida": "PRIMARIA", "tipo_viole": "DELINCUENCIA", "categoria_": "HOMICIDIOS POR VENGANZA CON Y SIN ANTECEDENTES DE ATENTADOS Y AMENAZAS", "categori_1": null, "subcategor": "HOMICIDIO ATRIBUIDO A VENGANZA CON ANTECEDENTES PREVIOS DE ATENTADOS, AMENAZAS O DISPUTAS", "tipo_agres": "SIN DATO", "jornada": "TARDE", "fec_especi": null, "x": -76.53122353453, "y": 3.4463337103199998, "feminicidi": "N", "procedimie": "N", "poblacion_": "N", "clasificac": "'00000000", "barrioplan": "El Calvario", "estratopla": 3.0, "semanaexce": 37.0, "semanalund": 38.0, "semanacons": 1603.0, "semanaco_1": 1603.0, "finsemanac": null, "multiples": "SIMPLE", "agresor_en": "NO APLICA", "genero": null, "orientacio": "POR ESTABLECER", "manera_mue": "VIOLENTA HOMICIDA", "nacionalid": null, "sector": null, "otra_nacio": null, "ancestro": "SIN INFORMACIÓN", "licor": 0, "drogas": 0, "bandas": 0, "pandillas": 0, "habitantes": 0, "barras": 0, "lgtbi": 0, "com_hecho": "Comuna 3", "comparendo": "N", "antecedent": "SIN DATOS", "anotacione": "SIN DATOS", "movil": "VENGANZAS CON ANTECEDENTES", "sicariato": "N", "desc_habca": "NO APLICA", "desc_droga": "NO APLICA", "Id": 0, "area": 136572.15568900001 }, "geometry": { "type": "Point", "coordinates": [ -76.53122353453, 3.44633371032 ] } },
{ "type": "Feature", "properties": { "no": 50987, "semana": 38, "identifica": 76361, "spoa": "23-09134", "spoa_compl": "760016000193202000000", "direccion": "KR 14 CL 11", "barrio": "SAN JUAN BOSCO", "comuna": "3", "idcombar": 306.0, "cuadrante": "E3", "tipo_de_ar": "ARMA DE FUEGO", "tipo_ident": "CEDULA DE CIUDADANIA", "ocupacion": "OFICIOS VARIOS", "sexo": "M", "edad": 27, "horah": "21:06", "fechao": 2023, "fechah": "09/19/2023", "diasem": "MARTES", "jornadarh8": "21:00-23:59", "est28xrang": 8, "fh8": "NOCHE", "est32xdian": 6.0, "diasanio": 262, "horam": "21:31", "fecham": "09/19/2023", "horai": "21:56", "fechai": "09/19/2023", "lugar_hech": "VIA PUBLICA", "nom_lugar_": "VIA PUBLICA", "inspeccion": "HOSPITAL SAN JUAN DE DIOS", "direcion_d": "7 DE AGOSTO", "barrio_res": "SIN DATO", "comuna_res": 99, "levantamie": "H.SAN JUAN DE DIOS", "estado_civ": "SIN ESTABLECER", "escolarida": "SIN ESTABLECER", "tipo_viole": "DELINCUENCIA", "categoria_": "HOMICIDIOS POR VENGANZA CON Y SIN ANTECEDENTES DE ATENTADOS Y AMENAZAS", "categori_1": null, "subcategor": "HOMICIDIO ATRIBUIDO A VENGANZA SIN CONTEXTO NI ATECEDENTES DE NINGUN TIPO", "tipo_agres": "SIN DATO", "jornada": "NOCHE", "fec_especi": null, "x": -76.530741551299997, "y": 3.4433967508199999, "feminicidi": "N", "procedimie": "N", "poblacion_": "N", "clasificac": "'10000000", "barrioplan": "San Juan Bosco", "estratopla": 3.0, "semanaexce": 38.0, "semanalund": 39.0, "semanacons": 1604.0, "semanaco_1": 1604.0, "finsemanac": null, "multiples": "SIMPLE", "agresor_en": "NO APLICA", "genero": null, "orientacio": "POR ESTABLECER", "manera_mue": "VIOLENTA HOMICIDA", "nacionalid": null, "sector": null, "otra_nacio": null, "ancestro": "SIN INFORMACIÓN", "licor": 0, "drogas": 0, "bandas": 0, "pandillas": 0, "habitantes": 0, "barras": 0, "lgtbi": 0, "com_hecho": "Comuna 3", "comparendo": "S", "antecedent": "SIN DATOS", "anotacione": "SIN DATOS", "movil": "VENGANZAS SIN ANTECEDENTES", "sicariato": "N", "desc_habca": "NO APLICA", "desc_droga": "VÍCTIMA CONSUMIDOR", "Id": 0, "area": 136572.15568900001 }, "geometry": { "type": "Point", "coordinates": [ -76.530741551299997, 3.44339675082 ] } },
{ "type": "Feature", "properties": { "no": 51939, "semana": 39, "identifica": 77748, "spoa": "24-31818", "spoa_compl": "760016000193202000000", "direccion": "CL 15 KR 12", "barrio": "SAN PASCUAL", "comuna": "3", "idcombar": 309.0, "cuadrante": "E3", "tipo_de_ar": "ARMA DE FUEGO", "tipo_ident": "CEDULA DE CIUDADANIA", "ocupacion": "OFICIOS VARIOS", "sexo": "M", "edad": 29, "horah": "22:43", "fechao": 2024, "fechah": "09/24/2024", "diasem": "MARTES", "jornadarh8": "21:00-23:59", "est28xrang": 8, "fh8": "NOCHE", "est32xdian": 6.0, "diasanio": 268, "horam": "23:08", "fecham": "09/24/2024", "horai": "23:33", "fechai": "09/24/2024", "lugar_hech": "VEHICULOS", "nom_lugar_": "VEHICULOS", "inspeccion": "L.HECHOS", "direcion_d": "K39 CL 54", "barrio_res": "SIN DATO", "comuna_res": 99, "levantamie": "L.HECHOS", "estado_civ": "UNION LIBRE", "escolarida": "SECUNDARIA", "tipo_viole": "DELINCUENCIA", "categoria_": "HOMICIDIOS POR VENGANZA CON Y SIN ANTECEDENTES DE ATENTADOS Y AMENAZAS", "categori_1": null, "subcategor": "HOMICIDIO ATRIBUIDO A VENGANZA CON ANTECEDENTES PREVIOS DE ATENTADOS, AMENAZAS O DISPUTAS", "tipo_agres": "SIN DATO", "jornada": "NOCHE", "fec_especi": null, "x": -76.527067915100005, "y": 3.4458602223699999, "feminicidi": "N", "procedimie": "N", "poblacion_": "N", "clasificac": "'00000001", "barrioplan": "San Pascual", "estratopla": 1.0, "semanaexce": 39.0, "semanalund": 39.0, "semanacons": 1657.0, "semanaco_1": 1657.0, "finsemanac": null, "multiples": "SIMPLE", "agresor_en": "NO APLICA", "genero": null, "orientacio": "POR ESTABLECER", "manera_mue": "VIOLENTA HOMICIDA", "nacionalid": null, "sector": null, "otra_nacio": null, "ancestro": "SIN INFORMACIÓN", "licor": 0, "drogas": 0, "bandas": 0, "pandillas": 0, "habitantes": 0, "barras": 0, "lgtbi": 0, "com_hecho": "Comuna 3", "comparendo": "S", "antecedent": "SIN DATOS", "anotacione": "SIN DATOS", "movil": "VENGANZAS CON ANTECEDENTES", "sicariato": "N", "desc_habca": "NO APLICA", "desc_droga": "NO APLICA", "Id": 0, "area": 136572.15568900001 }, "geometry": { "type": "Point", "coordinates": [ -76.527067915100005, 3.44586022237 ] } },
{ "type": "Feature", "properties": { "no": 51032, "semana": 40, "identifica": 76420, "spoa": "23-09715", "spoa_compl": "760016000193202000000", "direccion": "KR.15 CL.10", "barrio": "SAN JUAN BOSCO", "comuna": "3", "idcombar": 306.0, "cuadrante": "E3", "tipo_de_ar": "CORTOPUNZANTE", "tipo_ident": "CEDULA DE CIUDADANIA", "ocupacion": "SIN OCUPACION", "sexo": "M", "edad": 35, "horah": "19:53", "fechao": 2023, "fechah": "10/05/2023", "diasem": "JUEVES", "jornadarh8": "18:00-20:59", "est28xrang": 7, "fh8": "NOCHE", "est32xdian": 5.0, "diasanio": 278, "horam": "20:18", "fecham": "10/05/2023", "horai": "20:43", "fechai": "10/05/2023", "lugar_hech": "VIA PUBLICA", "nom_lugar_": "VIA PUBLICA", "inspeccion": "HOSPITAL UNIVERSITARIO DEL VALLE", "direcion_d": "K39 CL 54", "barrio_res": "SIN DATO", "comuna_res": 99, "levantamie": "H.U.V", "estado_civ": "SIN ESTABLECER", "escolarida": "SIN ESTABLECER", "tipo_viole": "DELINCUENCIA", "categoria_": "HOMICIDIOS ASOCIADOS A PROBLEMAS CON EL PATRIMONIO", "categori_1": null, "subcategor": "HOMICIDIO POR HURTAR CUALQUIER MODALIDAD DE HURTO", "tipo_agres": "SIN DATO", "jornada": "NOCHE", "fec_especi": null, "x": -76.531918047999994, "y": 3.442555165, "feminicidi": "N", "procedimie": "N", "poblacion_": "N", "clasificac": "'00000000", "barrioplan": "San Juan Bosco", "estratopla": 3.0, "semanaexce": 40.0, "semanalund": 41.0, "semanacons": 1606.0, "semanaco_1": 1606.0, "finsemanac": null, "multiples": "SIMPLE", "agresor_en": "NO APLICA", "genero": null, "orientacio": "POR ESTABLECER", "manera_mue": "VIOLENTA HOMICIDA", "nacionalid": null, "sector": null, "otra_nacio": null, "ancestro": "SIN INFORMACIÓN", "licor": 0, "drogas": 0, "bandas": 0, "pandillas": 0, "habitantes": 0, "barras": 0, "lgtbi": 0, "com_hecho": "Comuna 3", "comparendo": "N", "antecedent": "SIN DATOS", "anotacione": "SIN DATOS", "movil": "POR HURTAR", "sicariato": "N", "desc_habca": "NO APLICA", "desc_droga": "NO APLICA", "Id": 0, "area": 136572.15568900001 }, "geometry": { "type": "Point", "coordinates": [ -76.531918048, 3.442555165 ] } },
{ "type": "Feature", "properties": { "no": 52997, "semana": 41, "identifica": 79178, "spoa": "25-33296", "spoa_compl": "760016000193202000000", "direccion": "KR 15 CL 40 38", "barrio": "EL CALVARIO", "comuna": "3", "idcombar": 310.0, "cuadrante": "3.0", "tipo_de_ar": "ARMA DE FUEGO", "tipo_ident": "CEDULA DE CIUDADANIA", "ocupacion": "RECICLADOR", "sexo": "M", "edad": 35, "horah": "13:40", "fechao": 2025, "fechah": "10/10/2025", "diasem": "VIERNES", "jornadarh8": "12:00-14:59", "est28xrang": 5, "fh8": "TARDE", "est32xdian": 3.0, "diasanio": 283, "horam": "14:05", "fecham": "10/10/2025", "horai": "14:30", "fechai": "10/10/2025", "lugar_hech": "VIA PUBLICA", "nom_lugar_": "VIA PUBLICA", "inspeccion": "L.HECHOS", "direcion_d": "Calle 11 Carrera 4", "barrio_res": "SIN DATO", "comuna_res": 99, "levantamie": "L.HECHOS", "estado_civ": "SIN ESTABLECER", "escolarida": "SIN ESTABLECER", "tipo_viole": "DELINCUENCIA", "categoria_": "HOMICIDIOS POR AJUSTES DE CUENTAS DELINCUENCIALES ENTRE GRUPOS/BANDAS ORGANIZADAS", "categori_1": null, "subcategor": "HOMICIDIO ASOCIADO A DISPUTAS ENTRE ORGANIZACIONES DE NARCOTRAFICO RIVALES (ESTRUCTURAS DE CARTELES) O ENTRE BANDAS DELINCUENCIALES RIVALES DEDICADAS A DIVERSOS DELITOS", "tipo_agres": "SIN DATO", "jornada": "TARDE", "fec_especi": null, "x": -76.528955427279996, "y": 3.4477487279800001, "feminicidi": "N", "procedimie": "N", "poblacion_": "N", "clasificac": "'00001000", "barrioplan": "El Calvario", "estratopla": 3.0, "semanaexce": 41.0, "semanalund": 41.0, "semanacons": 1711.0, "semanaco_1": 1711.0, "finsemanac": 1711.0, "multiples": "SIMPLE", "agresor_en": "NO APLICA", "genero": null, "orientacio": "POR ESTABLECER", "manera_mue": "VIOLENTA HOMICIDA", "nacionalid": null, "sector": null, "otra_nacio": null, "ancestro": "SIN INFORMACIÓN", "licor": 0, "drogas": 0, "bandas": 0, "pandillas": 0, "habitantes": 0, "barras": 0, "lgtbi": 0, "com_hecho": "Comuna 3", "comparendo": "S", "antecedent": "NO", "anotacione": "SIN DATOS", "movil": "POR TESTIGO", "sicariato": "S", "desc_habca": "NO APLICA", "desc_droga": "NO APLICA", "Id": 0, "area": 136572.15568900001 }, "geometry": { "type": "Point", "coordinates": [ -76.528955427279996, 3.44774872798 ] } },
{ "type": "Feature", "properties": { "no": 51104, "semana": 44, "identifica": 76539, "spoa": "23-30588", "spoa_compl": "760016000193202000000", "direccion": "KR 10 CL 13", "barrio": "EL CALVARIO", "comuna": "3", "idcombar": 310.0, "cuadrante": "E3", "tipo_de_ar": "ARMA DE FUEGO", "tipo_ident": "CEDULA DE CIUDADANIA", "ocupacion": "OFICIOS VARIOS", "sexo": "M", "edad": 25, "horah": "19:47", "fechao": 2023, "fechah": "11/04/2023", "diasem": "SABADO", "jornadarh8": "18:00-20:59", "est28xrang": 7, "fh8": "NOCHE", "est32xdian": 5.0, "diasanio": 308, "horam": "20:12", "fecham": "11/04/2023", "horai": "20:37", "fechai": "11/04/2023", "lugar_hech": "VIA PUBLICA", "nom_lugar_": "VIA PUBLICA", "inspeccion": "HOSPITAL SAN JUAN DE DIOS", "direcion_d": "CAMPO ALEGRE AV32OESTE 13-06", "barrio_res": "SIN DATO", "comuna_res": 99, "levantamie": "H.SAN JUAN DE DIOS", "estado_civ": "SIN ESTABLECER", "escolarida": "SIN ESTABLECER", "tipo_viole": "DELINCUENCIA", "categoria_": "HOMICIDIOS ASOCIADOS A PROBLEMAS CON EL PATRIMONIO", "categori_1": null, "subcategor": "HOMICIDIO POR HURTARLE", "tipo_agres": "SIN DATO", "jornada": "NOCHE", "fec_especi": null, "x": -76.52989896519999, "y": 3.4476479824199999, "feminicidi": "N", "procedimie": "N", "poblacion_": "N", "clasificac": "'00000000", "barrioplan": "El Calvario", "estratopla": 3.0, "semanaexce": 44.0, "semanalund": 45.0, "semanacons": 1610.0, "semanaco_1": 1610.0, "finsemanac": 1610.0, "multiples": "SIMPLE", "agresor_en": "NO APLICA", "genero": null, "orientacio": "POR ESTABLECER", "manera_mue": "VIOLENTA HOMICIDA", "nacionalid": null, "sector": null, "otra_nacio": null, "ancestro": "SIN INFORMACIÓN", "licor": 0, "drogas": 0, "bandas": 0, "pandillas": 0, "habitantes": 0, "barras": 0, "lgtbi": 0, "com_hecho": "Comuna 3", "comparendo": "S", "antecedent": "SIN DATOS", "anotacione": "SIN DATOS", "movil": "POR HURTARLE", "sicariato": "N", "desc_habca": "NO APLICA", "desc_droga": "NO APLICA", "Id": 0, "area": 136572.15568900001 }, "geometry": { "type": "Point", "coordinates": [ -76.52989896519999, 3.44764798242 ] } },
{ "type": "Feature", "properties": { "no": 51111, "semana": 45, "identifica": 76551, "spoa": "23-30635", "spoa_compl": "760016000193202000000", "direccion": "CL 14 KR 14", "barrio": "SAN PASCUAL", "comuna": "3", "idcombar": 309.0, "cuadrante": "E3", "tipo_de_ar": "ARMA DE FUEGO", "tipo_ident": "CEDULA DE CIUDADANIA", "ocupacion": "OFICIOS VARIOS", "sexo": "M", "edad": 20, "horah": "20:33", "fechao": 2023, "fechah": "11/06/2023", "diasem": "LUNES", "jornadarh8": "18:00-20:59", "est28xrang": 7, "fh8": "NOCHE", "est32xdian": 5.0, "diasanio": 310, "horam": "20:58", "fecham": "11/06/2023", "horai": "21:23", "fechai": "11/06/2023", "lugar_hech": "VIA PUBLICA", "nom_lugar_": "VIA PUBLICA", "inspeccion": "HOSPITAL SAN JUAN DE DIOS", "direcion_d": "0", "barrio_res": "SIN DATO", "comuna_res": 99, "levantamie": "H.SAN JUAN DE DIOS", "estado_civ": "SIN ESTABLECER", "escolarida": "SIN ESTABLECER", "tipo_viole": "DELINCUENCIA", "categoria_": "TRÁFICO ESTUPEFACIENTES EN MENORES CANTIDADES (TEMC)", "categori_1": null, "subcategor": "HOMICIDIO ASOCIADO A DISPUTAS ENTRE REDES DE TRAFICO DE ESTUPEFACIENTES EN MENORES CANTIDADES (TEMC)", "tipo_agres": "SIN DATO", "jornada": "NOCHE", "fec_especi": null, "x": -76.526860489000001, "y": 3.44333568, "feminicidi": "N", "procedimie": "N", "poblacion_": "N", "clasificac": "'10000001", "barrioplan": "San Pascual", "estratopla": 1.0, "semanaexce": 45.0, "semanalund": 46.0, "semanacons": 1611.0, "semanaco_1": 1611.0, "finsemanac": null, "multiples": "SIMPLE", "agresor_en": "NO APLICA", "genero": null, "orientacio": "POR ESTABLECER", "manera_mue": "VIOLENTA HOMICIDA", "nacionalid": null, "sector": null, "otra_nacio": null, "ancestro": "SIN INFORMACIÓN", "licor": 0, "drogas": 0, "bandas": 0, "pandillas": 0, "habitantes": 0, "barras": 0, "lgtbi": 0, "com_hecho": "Comuna 3", "comparendo": "S", "antecedent": "SIN DATOS", "anotacione": "SIN DATOS", "movil": "POR TESTIGO", "sicariato": "N", "desc_habca": "NO APLICA", "desc_droga": "VÍCTIMA EXPENDEDOR", "Id": 0, "area": 136572.15568900001 }, "geometry": { "type": "Point", "coordinates": [ -76.526860489, 3.44333568 ] } },
{ "type": "Feature", "properties": { "no": 53094, "semana": 46, "identifica": 79318, "spoa": "25-34664", "spoa_compl": "760016000193202000000", "direccion": "KR 10 CL 11", "barrio": "EL CALVARIO", "comuna": "3", "idcombar": 310.0, "cuadrante": "3.0", "tipo_de_ar": "ARMA DE FUEGO", "tipo_ident": "CEDULA DE CIUDADANIA", "ocupacion": "SIN OCUPACION", "sexo": "M", "edad": 37, "horah": "20:33", "fechao": 2025, "fechah": "11/10/2025", "diasem": "LUNES", "jornadarh8": "18:00-20:59", "est28xrang": 7, "fh8": "NOCHE", "est32xdian": 5.0, "diasanio": 314, "horam": "20:58", "fecham": "11/10/2025", "horai": "21:23", "fechai": "11/10/2025", "lugar_hech": "VIA PUBLICA", "nom_lugar_": "VIA PUBLICA", "inspeccion": "L.HECHOS", "direcion_d": "K39 CL 54", "barrio_res": "SIN DATO", "comuna_res": 99, "levantamie": "L.HECHOS", "estado_civ": "UNION LIBRE", "escolarida": "SECUNDARIA", "tipo_viole": "DELINCUENCIA", "categoria_": "TRÁFICO ESTUPEFACIENTES EN MENORES CANTIDADES (TEMC)", "categori_1": null, "subcategor": "HOMICIDIO ASOCIADO A DISPUTAS ENTRE REDES DE TRAFICO DE ESTUPEFACIENTES EN MENORES CANTIDADES (TEMC)", "tipo_agres": "SIN DATO", "jornada": "NOCHE", "fec_especi": null, "x": -76.531469634499999, "y": 3.44721613852, "feminicidi": "N", "procedimie": "N", "poblacion_": "N", "clasificac": "'10000000", "barrioplan": "El Calvario", "estratopla": 3.0, "semanaexce": 46.0, "semanalund": 46.0, "semanacons": 1716.0, "semanaco_1": 1716.0, "finsemanac": null, "multiples": "SIMPLE", "agresor_en": "NO APLICA", "genero": null, "orientacio": "POR ESTABLECER", "manera_mue": "VIOLENTA HOMICIDA", "nacionalid": null, "sector": null, "otra_nacio": null, "ancestro": "SIN INFORMACIÓN", "licor": 0, "drogas": 0, "bandas": 0, "pandillas": 0, "habitantes": 0, "barras": 0, "lgtbi": 0, "com_hecho": "Comuna 3", "comparendo": "S", "antecedent": "NO", "anotacione": "SIN DATOS", "movil": "POR TESTIGO", "sicariato": "N", "desc_habca": "NO APLICA", "desc_droga": "VÍCTIMA EXPENDEDOR Y CONSUMIDOR", "Id": 0, "area": 136572.15568900001 }, "geometry": { "type": "Point", "coordinates": [ -76.531469634499999, 3.44721613852 ] } },
{ "type": "Feature", "properties": { "no": 52096, "semana": 47, "identifica": 77943, "spoa": "24-34683", "spoa_compl": "760016000193202000000", "direccion": "CL 125 KR 28 C3", "barrio": "EL CALVARIO", "comuna": "3", "idcombar": 310.0, "cuadrante": "E21", "tipo_de_ar": "ARMA DE FUEGO", "tipo_ident": "CEDULA DE CIUDADANIA", "ocupacion": "EMPLEADO", "sexo": "M", "edad": 39, "horah": "13:10", "fechao": 2024, "fechah": "11/22/2024", "diasem": "VIERNES", "jornadarh8": "12:00-14:59", "est28xrang": 5, "fh8": "TARDE", "est32xdian": 3.0, "diasanio": 327, "horam": "13:35", "fecham": "11/22/2024", "horai": "14:00", "fechai": "11/22/2024", "lugar_hech": "LAVADERO DE CARRO", "nom_lugar_": "OTROS ESCENARIOS", "inspeccion": "L.HECHOS", "direcion_d": "NO APORTA", "barrio_res": "SIN DATO", "comuna_res": 99, "levantamie": "L.HECHOS", "estado_civ": "SOLTERO", "escolarida": "SECUNDARIA", "tipo_viole": "DELINCUENCIA", "categoria_": "HOMICIDIOS POR VENGANZA CON Y SIN ANTECEDENTES DE ATENTADOS Y AMENAZAS", "categori_1": null, "subcategor": "HOMICIDIO ATRIBUIDO A VENGANZA SIN CONTEXTO NI ATECEDENTES DE NINGUN TIPO", "tipo_agres": "SIN DATO", "jornada": "TARDE", "fec_especi": null, "x": -76.528072224200002, "y": 3.4477976959799999, "feminicidi": "N", "procedimie": "N", "poblacion_": "N", "clasificac": "'00000000", "barrioplan": "El Calvario", "estratopla": 3.0, "semanaexce": 47.0, "semanalund": 47.0, "semanacons": 1665.0, "semanaco_1": 1665.0, "finsemanac": 1665.0, "multiples": "SIMPLE", "agresor_en": "NO APLICA", "genero": null, "orientacio": "POR ESTABLECER", "manera_mue": "VIOLENTA HOMICIDA", "nacionalid": null, "sector": null, "otra_nacio": null, "ancestro": "SIN INFORMACIÓN", "licor": 0, "drogas": 0, "bandas": 0, "pandillas": 0, "habitantes": 0, "barras": 0, "lgtbi": 0, "com_hecho": "Comuna 3", "comparendo": "S", "antecedent": "SIN DATOS", "anotacione": "SIN DATOS", "movil": "VENGANZAS SIN ANTECEDENTES", "sicariato": "N", "desc_habca": "NO APLICA", "desc_droga": "NO APLICA", "Id": 0, "area": 136572.15568900001 }, "geometry": { "type": "Point", "coordinates": [ -76.528072224200002, 3.44779769598 ] } }
]
}
