{
"type": "FeatureCollection",
"name": "BD_SINIESTROS_2023_2026_COMUNA_BARRIO_84_poligono_Barrio_Obrero",
"crs": { "type": "name", "properties": { "name": "urn:ogc:def:crs:OGC:1.3:CRS84" } },
"features": [
{ "type": "Feature", "properties": { "ID": 7741.0, "X": 1061866.2276000001, "Y": 872686.6479, "Municipio": "Cali", "Codigo": "<Null>", "Fecha": "2023-10-15 00:00:00", "horah": "<Null>", "hora": 0.0, "semana": 42.0, "mes": 10.0, "Año": 2023.0, "dia_sem": 7.0, "Tipo_Confi": "Lesiones", "direccion": "Calle 22 Con Carrera 14", "Clase_acci": "Choque", "Tipo_Choqu": null, "placas": "KRD38F, JIK07F", "No_Vehicul": "2", "Tipo_de_Ve": "MOTOCICLETA,MOTOCICLETA", "Ipat": 1629407.0, "Spoa": 83169.0, "SEXO": null, "EDAD": "0", "CONDICION": null, "TIPO_DE_AC": null, "VEHICULOS1": null, "VEHICULOS2": null, "comuna": 9.0, "nombre": "Comuna 9", "id_barrio": 910.0, "barrio": "Barrio Obrero", "Unnamed__0": null, "Unnamed__1": null, "Unnamed__2": null, "Unnamed__3": null, "Unnamed__4": null, "Id": 0, "area": 136572.15568900001 }, "geometry": { "type": "Point", "coordinates": [ -76.520763694306766, 3.444711211818944 ] } },
{ "type": "Feature", "properties": { "ID": 7779.0, "X": 1062089.2087099999, "Y": 872702.37484399998, "Municipio": "Cali", "Codigo": "<Null>", "Fecha": "2023-11-28 00:00:00", "horah": "<Null>", "hora": 0.0, "semana": 48.0, "mes": 11.0, "Año": 2023.0, "dia_sem": 2.0, "Tipo_Confi": "Lesiones", "direccion": "CALLE 23   CARRERA 15", "Clase_acci": "CHOQUE", "Tipo_Choqu": null, "placas": "TCQ50E,CWQ952", "No_Vehicul": "2", "Tipo_de_Ve": "MOTOCICLETA,AUTOMOVIL", "Ipat": 1629962.0, "Spoa": 83648.0, "SEXO": null, "EDAD": "0", "CONDICION": null, "TIPO_DE_AC": null, "VEHICULOS1": null, "VEHICULOS2": null, "comuna": 9.0, "nombre": "Comuna 9", "id_barrio": 910.0, "barrio": "Barrio Obrero", "Unnamed__0": null, "Unnamed__1": null, "Unnamed__2": null, "Unnamed__3": null, "Unnamed__4": null, "Id": 0, "area": 136572.15568900001 }, "geometry": { "type": "Point", "coordinates": [ -76.518757032331123, 3.444852250098068 ] } },
{ "type": "Feature", "properties": { "ID": 7801.0, "X": 1061776.5074, "Y": 872716.5481, "Municipio": "CALI", "Codigo": "AI028177", "Fecha": "2025-09-19 00:00:00", "horah": "14:35:00", "hora": 14.0, "semana": 37.0, "mes": 9.0, "Año": 2025.0, "dia_sem": 5.0, "Tipo_Confi": "Lesiones", "direccion": "CALLE 21 CARRERA 13", "Clase_acci": "ATROPELLO", "Tipo_Choqu": null, "placas": "ODF86H", "No_Vehicul": "1", "Tipo_de_Ve": "MOTOCICLETA", "Ipat": 1720691.0, "Spoa": 82932.0, "SEXO": null, "EDAD": null, "CONDICION": null, "TIPO_DE_AC": null, "VEHICULOS1": null, "VEHICULOS2": null, "comuna": 9.0, "nombre": "Comuna 9", "id_barrio": 909.0, "barrio": "Sucre", "Unnamed__0": null, "Unnamed__1": null, "Unnamed__2": null, "Unnamed__3": null, "Unnamed__4": null, "Id": 0, "area": 136572.15568900001 }, "geometry": { "type": "Point", "coordinates": [ -76.521570918450251, 3.444982070853519 ] } },
{ "type": "Feature", "properties": { "ID": 7917.0, "X": 1061764.5373, "Y": 872798.2391, "Municipio": "Cali", "Codigo": "<Null>", "Fecha": "2023-02-11 00:00:00", "horah": "<Null>", "hora": 0.0, "semana": 6.0, "mes": 2.0, "Año": 2023.0, "dia_sem": 6.0, "Tipo_Confi": "Lesiones", "direccion": "Calle 21 Carrera 12", "Clase_acci": "Choque", "Tipo_Choqu": null, "placas": "FQZ15F", "No_Vehicul": "1", "Tipo_de_Ve": "MOTOCICLETA", "Ipat": 1524771.0, "Spoa": 80389.0, "SEXO": null, "EDAD": "0", "CONDICION": null, "TIPO_DE_AC": null, "VEHICULOS1": null, "VEHICULOS2": null, "comuna": 9.0, "nombre": "Comuna 9", "id_barrio": 909.0, "barrio": "Sucre", "Unnamed__0": null, "Unnamed__1": null, "Unnamed__2": null, "Unnamed__3": null, "Unnamed__4": null, "Id": 0, "area": 136572.15568900001 }, "geometry": { "type": "Point", "coordinates": [ -76.521678207350988, 3.44572086064338 ] } },
{ "type": "Feature", "properties": { "ID": 7918.0, "X": 1061764.5373, "Y": 872798.2391, "Municipio": "Cali", "Codigo": "<Null>", "Fecha": "2023-06-10 00:00:00", "horah": "<Null>", "hora": 0.0, "semana": 23.0, "mes": 6.0, "Año": 2023.0, "dia_sem": 6.0, "Tipo_Confi": "Lesiones", "direccion": "Calle 21 Con Carrera 12", "Clase_acci": "Choque", "Tipo_Choqu": null, "placas": "PRI42G, CPE708", "No_Vehicul": "2", "Tipo_de_Ve": "AUTOMOVIL,MOTOCICLETA", "Ipat": 1527075.0, "Spoa": 81710.0, "SEXO": null, "EDAD": "0", "CONDICION": null, "TIPO_DE_AC": null, "VEHICULOS1": null, "VEHICULOS2": null, "comuna": 9.0, "nombre": "Comuna 9", "id_barrio": 909.0, "barrio": "Sucre", "Unnamed__0": null, "Unnamed__1": null, "Unnamed__2": null, "Unnamed__3": null, "Unnamed__4": null, "Id": 0, "area": 136572.15568900001 }, "geometry": { "type": "Point", "coordinates": [ -76.521678207350988, 3.44572086064338 ] } },
{ "type": "Feature", "properties": { "ID": 7919.0, "X": 1061764.5373, "Y": 872798.2391, "Municipio": "Cali", "Codigo": "<Null>", "Fecha": "2023-10-18 00:00:00", "horah": "<Null>", "hora": 0.0, "semana": 42.0, "mes": 10.0, "Año": 2023.0, "dia_sem": 3.0, "Tipo_Confi": "Lesiones", "direccion": "Calle 21 Con Carrera 12", "Clase_acci": "Atropello", "Tipo_Choqu": null, "placas": "PEATON, UQN71D", "No_Vehicul": "2", "Tipo_de_Ve": "MOTOCICLETA", "Ipat": 1522442.0, "Spoa": 83204.0, "SEXO": null, "EDAD": "0", "CONDICION": null, "TIPO_DE_AC": null, "VEHICULOS1": null, "VEHICULOS2": null, "comuna": 9.0, "nombre": "Comuna 9", "id_barrio": 909.0, "barrio": "Sucre", "Unnamed__0": null, "Unnamed__1": null, "Unnamed__2": null, "Unnamed__3": null, "Unnamed__4": null, "Id": 0, "area": 136572.15568900001 }, "geometry": { "type": "Point", "coordinates": [ -76.521678207350988, 3.44572086064338 ] } },
{ "type": "Feature", "properties": { "ID": 7920.0, "X": 1061781.2, "Y": 872800.3, "Municipio": "CALI", "Codigo": "AI032726", "Fecha": "2025-12-19 00:00:00", "horah": "19:44:00", "hora": 19.0, "semana": 50.0, "mes": 12.0, "Año": 2025.0, "dia_sem": 5.0, "Tipo_Confi": "Lesiones", "direccion": "CALLE 21   CARRERA 12", "Clase_acci": "CHOQUE", "Tipo_Choqu": "VEHICULO", "placas": "BXE36F, NWZ10E, WAB60G", "No_Vehicul": "3", "Tipo_de_Ve": "MOTOCICLETA,MOTOCICLETA,MOTOCICLETA", "Ipat": 1721713.0, "Spoa": 83951.0, "SEXO": null, "EDAD": null, "CONDICION": null, "TIPO_DE_AC": null, "VEHICULOS1": null, "VEHICULOS2": null, "comuna": 9.0, "nombre": "Comuna 9", "id_barrio": 910.0, "barrio": "Barrio Obrero", "Unnamed__0": null, "Unnamed__1": null, "Unnamed__2": null, "Unnamed__3": null, "Unnamed__4": null, "Id": 0, "area": 136572.15568900001 }, "geometry": { "type": "Point", "coordinates": [ -76.521528250781472, 3.445739409364215 ] } },
{ "type": "Feature", "properties": { "ID": 7921.0, "X": 1061769.6051, "Y": 872802.1763000001, "Municipio": "CALI", "Codigo": "AI014798", "Fecha": "2024-12-01 00:00:00", "horah": "04:58:00", "hora": 4.0, "semana": 49.0, "mes": 12.0, "Año": 2024.0, "dia_sem": 7.0, "Tipo_Confi": "Lesiones", "direccion": "CALLE 21  , CARRERA 12", "Clase_acci": "CHOQUE", "Tipo_Choqu": "OBJETO FIJO", "placas": "ICT474", "No_Vehicul": "1", "Tipo_de_Ve": "AUTOMOVIL", "Ipat": 1634503.0, "Spoa": 83773.0, "SEXO": null, "EDAD": "0", "CONDICION": null, "TIPO_DE_AC": null, "VEHICULOS1": null, "VEHICULOS2": null, "comuna": 9.0, "nombre": "Comuna 9", "id_barrio": 909.0, "barrio": "Sucre", "Unnamed__0": null, "Unnamed__1": null, "Unnamed__2": null, "Unnamed__3": null, "Unnamed__4": null, "Id": 0, "area": 136572.15568900001 }, "geometry": { "type": "Point", "coordinates": [ -76.52163258213092, 3.445756437777526 ] } },
{ "type": "Feature", "properties": { "ID": 7924.0, "X": 1061769.0084, "Y": 872801.8798, "Municipio": "CALI", "Codigo": "AI006208", "Fecha": "2024-04-24 00:00:00", "horah": "30/12/1899 7:57:16 a. m.", "hora": 7.0, "semana": 17.0, "mes": 4.0, "Año": 2024.0, "dia_sem": 3.0, "Tipo_Confi": "Lesiones", "direccion": "CARRERA 12  , CALLE 21", "Clase_acci": "CHOQUE", "Tipo_Choqu": "VEHICULO", "placas": "byf88f,vcs794", "No_Vehicul": "2", "Tipo_de_Ve": "MOTOCICLETA,AUTOMOVIL", "Ipat": 1631726.0, "Spoa": 81256.0, "SEXO": null, "EDAD": "0", "CONDICION": null, "TIPO_DE_AC": null, "VEHICULOS1": null, "VEHICULOS2": null, "comuna": 9.0, "nombre": "Comuna 9", "id_barrio": 909.0, "barrio": "Sucre", "Unnamed__0": null, "Unnamed__1": null, "Unnamed__2": null, "Unnamed__3": null, "Unnamed__4": null, "Id": 0, "area": 136572.15568900001 }, "geometry": { "type": "Point", "coordinates": [ -76.521637953322852, 3.445753759692863 ] } },
{ "type": "Feature", "properties": { "ID": 7925.0, "X": 1061768.1554, "Y": 872803.6374, "Municipio": "CALI", "Codigo": "AI006924", "Fecha": "2024-05-12 00:00:00", "horah": "06:52:00", "hora": 6.0, "semana": 19.0, "mes": 5.0, "Año": 2024.0, "dia_sem": 1.0, "Tipo_Confi": "Lesiones", "direccion": "CALLE 21  , CARRERA 12", "Clase_acci": "CHOQUE", "Tipo_Choqu": "VEHICULO", "placas": "VQV02G,HMU17A", "No_Vehicul": "2", "Tipo_de_Ve": "MOTOCICLETA,MOTOCICLETA", "Ipat": 1631969.0, "Spoa": 81443.0, "SEXO": null, "EDAD": "0", "CONDICION": null, "TIPO_DE_AC": null, "VEHICULOS1": null, "VEHICULOS2": null, "comuna": 9.0, "nombre": "Comuna 9", "id_barrio": 909.0, "barrio": "Sucre", "Unnamed__0": null, "Unnamed__1": null, "Unnamed__2": null, "Unnamed__3": null, "Unnamed__4": null, "Id": 0, "area": 136572.15568900001 }, "geometry": { "type": "Point", "coordinates": [ -76.521645620150792, 3.445769658059196 ] } },
{ "type": "Feature", "properties": { "ID": 8013.0, "X": 1062027.5, "Y": 872879.9, "Municipio": "CALI", "Codigo": "AI020394", "Fecha": "2025-04-06 00:00:00", "horah": "15:15:00", "hora": 15.0, "semana": 14.0, "mes": 4.0, "Año": 2025.0, "dia_sem": 7.0, "Tipo_Confi": "Lesiones", "direccion": "CALLE 23 , CARRERA 12", "Clase_acci": "CHOQUE", "Tipo_Choqu": "VEHICULO", "placas": "FMU58G, MHQ453", "No_Vehicul": "2", "Tipo_de_Ve": "AUTOMOVIL,AUTOMOVIL", "Ipat": 1636205.0, "Spoa": 81070.0, "SEXO": null, "EDAD": null, "CONDICION": null, "TIPO_DE_AC": null, "VEHICULOS1": null, "VEHICULOS2": null, "comuna": 9.0, "nombre": "Comuna 9", "id_barrio": 910.0, "barrio": "Barrio Obrero", "Unnamed__0": null, "Unnamed__1": null, "Unnamed__2": null, "Unnamed__3": null, "Unnamed__4": null, "Id": 0, "area": 136572.15568900001 }, "geometry": { "type": "Point", "coordinates": [ -76.519311405850686, 3.446457925331686 ] } },
{ "type": "Feature", "properties": { "ID": 8078.0, "X": 1062096.86607, "Y": 872912.58719400002, "Municipio": "Cali", "Codigo": "<Null>", "Fecha": "2023-03-30 00:00:00", "horah": "<Null>", "hora": 0.0, "semana": 13.0, "mes": 3.0, "Año": 2023.0, "dia_sem": 4.0, "Tipo_Confi": "Daños", "direccion": "Calle 24 Con Carrera 12", "Clase_acci": "Choque", "Tipo_Choqu": null, "placas": "MVR32B, VCR172", "No_Vehicul": "2", "Tipo_de_Ve": "AUTOMOVIL,MOTOCICLETA", "Ipat": 1525920.0, "Spoa": 0.0, "SEXO": null, "EDAD": "0", "CONDICION": null, "TIPO_DE_AC": null, "VEHICULOS1": null, "VEHICULOS2": null, "comuna": 9.0, "nombre": "Comuna 9", "id_barrio": 910.0, "barrio": "Barrio Obrero", "Unnamed__0": null, "Unnamed__1": null, "Unnamed__2": null, "Unnamed__3": null, "Unnamed__4": null, "Id": 0, "area": 136572.15568900001 }, "geometry": { "type": "Point", "coordinates": [ -76.518687015749535, 3.446753145862904 ] } },
{ "type": "Feature", "properties": { "ID": 8087.0, "X": 1062125.3361899999, "Y": 872917.57354300003, "Municipio": "Cali", "Codigo": "<Null>", "Fecha": "2023-01-11 00:00:00", "horah": "<Null>", "hora": 0.0, "semana": 2.0, "mes": 1.0, "Año": 2023.0, "dia_sem": 3.0, "Tipo_Confi": "Daños", "direccion": "Calle 25 Con Carrera 12", "Clase_acci": "Choque", "Tipo_Choqu": null, "placas": "DAZ595", "No_Vehicul": "1", "Tipo_de_Ve": "AUTOMOVIL", "Ipat": 1525034.0, "Spoa": 0.0, "SEXO": null, "EDAD": "0", "CONDICION": null, "TIPO_DE_AC": null, "VEHICULOS1": null, "VEHICULOS2": null, "comuna": 9.0, "nombre": "Comuna 9", "id_barrio": 910.0, "barrio": "Barrio Obrero", "Unnamed__0": null, "Unnamed__1": null, "Unnamed__2": null, "Unnamed__3": null, "Unnamed__4": null, "Id": 0, "area": 136572.15568900001 }, "geometry": { "type": "Point", "coordinates": [ -76.518430789891937, 3.44679808607965 ] } },
{ "type": "Feature", "properties": { "ID": 8114.0, "X": 1062083.8774000001, "Y": 872988.5461, "Municipio": "Cali", "Codigo": "AI002280", "Fecha": "2024-01-25 00:00:00", "horah": "5:01:11 p. m.", "hora": 17.0, "semana": 4.0, "mes": 1.0, "Año": 2024.0, "dia_sem": 4.0, "Tipo_Confi": "Lesiones", "direccion": "CALLE 24 CARRERA 11 D", "Clase_acci": "CHOQUE", "Tipo_Choqu": "VEHICULO", "placas": "FAS357,ENS654", "No_Vehicul": "2", "Tipo_de_Ve": "AUTOMOVIL,AUTOMOVIL", "Ipat": 1630357.0, "Spoa": 80229.0, "SEXO": null, "EDAD": "0", "CONDICION": null, "TIPO_DE_AC": null, "VEHICULOS1": null, "VEHICULOS2": null, "comuna": 9.0, "nombre": "Comuna 9", "id_barrio": 910.0, "barrio": "Barrio Obrero", "Unnamed__0": null, "Unnamed__1": null, "Unnamed__2": null, "Unnamed__3": null, "Unnamed__4": null, "Id": 0, "area": 136572.15568900001 }, "geometry": { "type": "Point", "coordinates": [ -76.518803498607099, 3.447440106077164 ] } },
{ "type": "Feature", "properties": { "ID": 8115.0, "X": 1062107.7471, "Y": 872864.5781, "Municipio": "Cali", "Codigo": "AI002378", "Fecha": "2024-01-28 00:00:00", "horah": "4:30:32 a. m.", "hora": 4.0, "semana": 5.0, "mes": 1.0, "Año": 2024.0, "dia_sem": 7.0, "Tipo_Confi": "Lesiones", "direccion": "CARRERA 13 CALLE 24", "Clase_acci": "CHOQUE", "Tipo_Choqu": "VEHICULO", "placas": "BICICLETA,TVR-56C", "No_Vehicul": "2", "Tipo_de_Ve": "BICICLETA, Motocicleta", "Ipat": 1630639.0, "Spoa": 80258.0, "SEXO": null, "EDAD": "0", "CONDICION": null, "TIPO_DE_AC": null, "VEHICULOS1": null, "VEHICULOS2": null, "comuna": 9.0, "nombre": "Comuna 9", "id_barrio": 910.0, "barrio": "Barrio Obrero", "Unnamed__0": null, "Unnamed__1": null, "Unnamed__2": null, "Unnamed__3": null, "Unnamed__4": null, "Id": 0, "area": 136572.15568900001 }, "geometry": { "type": "Point", "coordinates": [ -76.518589351902634, 3.446318945118552 ] } },
{ "type": "Feature", "properties": { "ID": 8116.0, "X": 1062120.5088, "Y": 873000.7406, "Municipio": "CALI", "Codigo": "AI003940", "Fecha": "2024-03-01 00:00:00", "horah": "00:00:00", "hora": 20.0, "semana": 9.0, "mes": 3.0, "Año": 2024.0, "dia_sem": 5.0, "Tipo_Confi": "Daños", "direccion": "CARRERA 11 d CALLE 24", "Clase_acci": "SOLO DAÃ‘OS", "Tipo_Choqu": "CHOQUE", "placas": "JZS666,TFH57F", "No_Vehicul": "2", "Tipo_de_Ve": "CAMIONETA,MOTOCICLETA", "Ipat": 1631079.0, "Spoa": 0.0, "SEXO": null, "EDAD": "0", "CONDICION": null, "TIPO_DE_AC": null, "VEHICULOS1": null, "VEHICULOS2": null, "comuna": 9.0, "nombre": "Comuna 9", "id_barrio": 910.0, "barrio": "Barrio Obrero", "Unnamed__0": null, "Unnamed__1": null, "Unnamed__2": null, "Unnamed__3": null, "Unnamed__4": null, "Id": 0, "area": 136572.15568900001 }, "geometry": { "type": "Point", "coordinates": [ -76.518473791968987, 3.447550185822608 ] } },
{ "type": "Feature", "properties": { "ID": 8118.0, "X": 1062105.2097, "Y": 872900.1075, "Municipio": "CALI", "Codigo": "AI008347", "Fecha": "2024-06-17 00:00:00", "horah": "18:21:00", "hora": 18.0, "semana": 25.0, "mes": 6.0, "Año": 2024.0, "dia_sem": 1.0, "Tipo_Confi": "Lesiones", "direccion": "CALLE 24  , CARRERA 12", "Clase_acci": "CHOQUE", "Tipo_Choqu": "VEHICULO", "placas": "EIR223, CVH636", "No_Vehicul": "2", "Tipo_de_Ve": "CAMIONETA,AUTOMOVIL", "Ipat": 1632355.0, "Spoa": 81853.0, "SEXO": null, "EDAD": "0", "CONDICION": null, "TIPO_DE_AC": null, "VEHICULOS1": null, "VEHICULOS2": null, "comuna": 9.0, "nombre": "Comuna 9", "id_barrio": 910.0, "barrio": "Barrio Obrero", "Unnamed__0": null, "Unnamed__1": null, "Unnamed__2": null, "Unnamed__3": null, "Unnamed__4": null, "Id": 0, "area": 136572.15568900001 }, "geometry": { "type": "Point", "coordinates": [ -76.518611998185577, 3.446640248574068 ] } },
{ "type": "Feature", "properties": { "ID": 8120.0, "X": 1062102.8249, "Y": 872901.292, "Municipio": "CALI", "Codigo": "AI010697", "Fecha": "2024-08-23 00:00:00", "horah": "09:51:00", "hora": 9.0, "semana": 34.0, "mes": 8.0, "Año": 2024.0, "dia_sem": 5.0, "Tipo_Confi": "Lesiones", "direccion": "CALLE 24  , CARRERA 12", "Clase_acci": "CHOQUE", "Tipo_Choqu": "VEHICULO", "placas": "ENS443, TDE21E", "No_Vehicul": "2", "Tipo_de_Ve": "AUTOMOVIL,MOTOCICLETA", "Ipat": 1633199.0, "Spoa": 82552.0, "SEXO": null, "EDAD": "0", "CONDICION": null, "TIPO_DE_AC": null, "VEHICULOS1": null, "VEHICULOS2": null, "comuna": 9.0, "nombre": "Comuna 9", "id_barrio": 910.0, "barrio": "Barrio Obrero", "Unnamed__0": null, "Unnamed__1": null, "Unnamed__2": null, "Unnamed__3": null, "Unnamed__4": null, "Id": 0, "area": 136572.15568900001 }, "geometry": { "type": "Point", "coordinates": [ -76.518633452489851, 3.446650972575737 ] } },
{ "type": "Feature", "properties": { "ID": 8139.0, "X": 1061914.9, "Y": 872953.3, "Municipio": "CALI", "Codigo": "AI022812", "Fecha": "2025-05-31 00:00:00", "horah": "06:59:00", "hora": 6.0, "semana": 21.0, "mes": 5.0, "Año": 2025.0, "dia_sem": 6.0, "Tipo_Confi": "Daños", "direccion": "CALLE 22 A CARRERA 11 D", "Clase_acci": "VOLCAMIENTO", "Tipo_Choqu": null, "placas": "VCG169, FRP805", "No_Vehicul": "2", "Tipo_de_Ve": "AUTOMOVIL,AUTOMOVIL", "Ipat": 1636780.0, "Spoa": 0.0, "SEXO": null, "EDAD": null, "CONDICION": null, "TIPO_DE_AC": null, "VEHICULOS1": null, "VEHICULOS2": null, "comuna": 9.0, "nombre": "Comuna 9", "id_barrio": 910.0, "barrio": "Barrio Obrero", "Unnamed__0": null, "Unnamed__1": null, "Unnamed__2": null, "Unnamed__3": null, "Unnamed__4": null, "Id": 0, "area": 136572.15568900001 }, "geometry": { "type": "Point", "coordinates": [ -76.520324294794094, 3.44712227266496 ] } },
{ "type": "Feature", "properties": { "ID": 8166.0, "X": 1061994.9019, "Y": 872974.7277, "Municipio": "CALI", "Codigo": "AI015076", "Fecha": "2024-12-06 00:00:00", "horah": "19:02:00", "hora": 19.0, "semana": 49.0, "mes": 12.0, "Año": 2024.0, "dia_sem": 5.0, "Tipo_Confi": "Lesiones", "direccion": "CALLE 23  , CARRERA 11 D", "Clase_acci": "CHOQUE", "Tipo_Choqu": "VEHICULO", "placas": "BXX82F, FJO101", "No_Vehicul": "2", "Tipo_de_Ve": "MOTOCICLETA,AUTOMOVIL", "Ipat": 1634565.0, "Spoa": 83851.0, "SEXO": null, "EDAD": "0", "CONDICION": null, "TIPO_DE_AC": null, "VEHICULOS1": null, "VEHICULOS2": null, "comuna": 9.0, "nombre": "Comuna 9", "id_barrio": 910.0, "barrio": "Barrio Obrero", "Unnamed__0": null, "Unnamed__1": null, "Unnamed__2": null, "Unnamed__3": null, "Unnamed__4": null, "Id": 0, "area": 136572.15568900001 }, "geometry": { "type": "Point", "coordinates": [ -76.519604252990305, 3.447315618656581 ] } },
{ "type": "Feature", "properties": { "ID": 8179.0, "X": 1062101.1, "Y": 872992.8, "Municipio": "CALI", "Codigo": "AI020503", "Fecha": "2025-04-08 00:00:00", "horah": "16:53:00", "hora": 16.0, "semana": 14.0, "mes": 4.0, "Año": 2025.0, "dia_sem": 2.0, "Tipo_Confi": "Lesiones", "direccion": "CALLE 24 , CARRERA 11 D", "Clase_acci": "CHOQUE", "Tipo_Choqu": "VEHICULO", "placas": "EFR840, RRV92C", "No_Vehicul": "2", "Tipo_de_Ve": "CAMIONETA,MOTOCICLETA", "Ipat": 1636190.0, "Spoa": 81099.0, "SEXO": null, "EDAD": null, "CONDICION": null, "TIPO_DE_AC": null, "VEHICULOS1": null, "VEHICULOS2": null, "comuna": 9.0, "nombre": "Comuna 9", "id_barrio": 910.0, "barrio": "Barrio Obrero", "Unnamed__0": null, "Unnamed__1": null, "Unnamed__2": null, "Unnamed__3": null, "Unnamed__4": null, "Id": 0, "area": 136572.15568900001 }, "geometry": { "type": "Point", "coordinates": [ -76.518648491721891, 3.447478482472762 ] } },
{ "type": "Feature", "properties": { "ID": 8225.0, "X": 1061792.6344000001, "Y": 873025.4073, "Municipio": "CALI", "Codigo": "AI006292", "Fecha": "2024-04-26 00:00:00", "horah": "30/12/1899 12:45:35 p. m.", "hora": 12.0, "semana": 17.0, "mes": 4.0, "Año": 2024.0, "dia_sem": 5.0, "Tipo_Confi": "Lesiones", "direccion": "CALLE 22  , CARRERA 11 B", "Clase_acci": "CHOQUE", "Tipo_Choqu": null, "placas": "sin placas,wxm110", "No_Vehicul": "1", "Tipo_de_Ve": "CAMION", "Ipat": 1631623.0, "Spoa": 81277.0, "SEXO": null, "EDAD": "0", "CONDICION": null, "TIPO_DE_AC": null, "VEHICULOS1": null, "VEHICULOS2": null, "comuna": 9.0, "nombre": "Comuna 9", "id_barrio": 910.0, "barrio": "Barrio Obrero", "Unnamed__0": null, "Unnamed__1": null, "Unnamed__2": null, "Unnamed__3": null, "Unnamed__4": null, "Id": 0, "area": 136572.15568900001 }, "geometry": { "type": "Point", "coordinates": [ -76.521424171859024, 3.447774980352949 ] } },
{ "type": "Feature", "properties": { "ID": 8286.0, "X": 1061705.6, "Y": 873094.0, "Municipio": null, "Codigo": "<Null>", "Fecha": "2023-05-26 00:00:00", "horah": "00:00:00", "hora": 13.0, "semana": 21.0, "mes": 5.0, "Año": 2023.0, "dia_sem": 6.0, "Tipo_Confi": "Mortal", "direccion": "CL 21 KR 11", "Clase_acci": "CHOQUE", "Tipo_Choqu": "CHOQUE", "placas": "BHB62", "No_Vehicul": "1", "Tipo_de_Ve": "BICICLETA,MOTOCICLETA", "Ipat": 0.0, "Spoa": 165202381531.0, "SEXO": "Masculino", "EDAD": "61", "CONDICION": "Ciclista", "TIPO_DE_AC": "Ciclista atropellado", "VEHICULOS1": "Bicicleta", "VEHICULOS2": "Motocicleta", "comuna": 9.0, "nombre": "Comuna 9", "id_barrio": 910.0, "barrio": "Barrio Obrero", "Unnamed__0": null, "Unnamed__1": null, "Unnamed__2": null, "Unnamed__3": null, "Unnamed__4": null, "Id": 0, "area": 136572.15568900001 }, "geometry": { "type": "Point", "coordinates": [ -76.522207026474163, 3.448395719006125 ] } },
{ "type": "Feature", "properties": { "ID": 8289.0, "X": 1061693.5324, "Y": 873095.4542, "Municipio": "CALI", "Codigo": "AI014985", "Fecha": "2024-12-05 00:00:00", "horah": "09:55:00", "hora": 9.0, "semana": 49.0, "mes": 12.0, "Año": 2024.0, "dia_sem": 4.0, "Tipo_Confi": "Lesiones", "direccion": "CALLE 21  , CARRERA 11", "Clase_acci": "CHOQUE", "Tipo_Choqu": "VEHICULO", "placas": "ROY66C, RNK419", "No_Vehicul": "2", "Tipo_de_Ve": "MOTOCICLETA,CAMIONETA", "Ipat": 1634546.0, "Spoa": 83826.0, "SEXO": null, "EDAD": "0", "CONDICION": null, "TIPO_DE_AC": null, "VEHICULOS1": null, "VEHICULOS2": null, "comuna": 9.0, "nombre": "Comuna 9", "id_barrio": 909.0, "barrio": "Sucre", "Unnamed__0": null, "Unnamed__1": null, "Unnamed__2": null, "Unnamed__3": null, "Unnamed__4": null, "Id": 0, "area": 136572.15568900001 }, "geometry": { "type": "Point", "coordinates": [ -76.522315614129838, 3.448408932859869 ] } },
{ "type": "Feature", "properties": { "ID": 8292.0, "X": 1062147.8481000001, "Y": 873099.5021, "Municipio": "Cali", "Codigo": "<Null>", "Fecha": "2023-02-08 00:00:00", "horah": "<Null>", "hora": 0.0, "semana": 6.0, "mes": 2.0, "Año": 2023.0, "dia_sem": 3.0, "Tipo_Confi": "Lesiones", "direccion": "Calle 25 Carrera 11B", "Clase_acci": "Choque", "Tipo_Choqu": null, "placas": "MKK53G, SRE066", "No_Vehicul": "2", "Tipo_de_Ve": "CAMION,MOTOCICLETA", "Ipat": 1525194.0, "Spoa": 80358.0, "SEXO": null, "EDAD": "0", "CONDICION": null, "TIPO_DE_AC": null, "VEHICULOS1": null, "VEHICULOS2": null, "comuna": 9.0, "nombre": "Comuna 9", "id_barrio": 910.0, "barrio": "Barrio Obrero", "Unnamed__0": null, "Unnamed__1": null, "Unnamed__2": null, "Unnamed__3": null, "Unnamed__4": null, "Id": 0, "area": 136572.15568900001 }, "geometry": { "type": "Point", "coordinates": [ -76.518227246595558, 3.448443134314454 ] } },
{ "type": "Feature", "properties": { "ID": 8297.0, "X": 1062148.72327, "Y": 873104.79519700003, "Municipio": "Cali", "Codigo": "<Null>", "Fecha": "2023-03-03 00:00:00", "horah": "<Null>", "hora": 0.0, "semana": 9.0, "mes": 3.0, "Año": 2023.0, "dia_sem": 5.0, "Tipo_Confi": "Lesiones", "direccion": "Calle 25 Con Carrera 11B-08", "Clase_acci": null, "Tipo_Choqu": null, "placas": "BICICLETA, DIV675 FUGA", "No_Vehicul": "2", "Tipo_de_Ve": null, "Ipat": 1525638.0, "Spoa": 80618.0, "SEXO": null, "EDAD": "0", "CONDICION": null, "TIPO_DE_AC": null, "VEHICULOS1": null, "VEHICULOS2": null, "comuna": 9.0, "nombre": "Comuna 9", "id_barrio": 910.0, "barrio": "Barrio Obrero", "Unnamed__0": null, "Unnamed__1": null, "Unnamed__2": null, "Unnamed__3": null, "Unnamed__4": null, "Id": 0, "area": 136572.15568900001 }, "geometry": { "type": "Point", "coordinates": [ -76.518219343053431, 3.448490994786284 ] } },
{ "type": "Feature", "properties": { "ID": 8303.0, "X": 1061682.48594, "Y": 873105.66882200004, "Municipio": "Cali", "Codigo": "<Null>", "Fecha": "2023-03-01 00:00:00", "horah": "<Null>", "hora": 0.0, "semana": 9.0, "mes": 3.0, "Año": 2023.0, "dia_sem": 3.0, "Tipo_Confi": "Lesiones", "direccion": "Calle 21 Con Carrera 11", "Clase_acci": null, "Tipo_Choqu": null, "placas": "BICICLETA, EYS 69 F", "No_Vehicul": "2", "Tipo_de_Ve": "AUTOMOVIL", "Ipat": 1525733.0, "Spoa": 80583.0, "SEXO": null, "EDAD": "0", "CONDICION": null, "TIPO_DE_AC": null, "VEHICULOS1": null, "VEHICULOS2": null, "comuna": 9.0, "nombre": "Comuna 9", "id_barrio": 909.0, "barrio": "Sucre", "Unnamed__0": null, "Unnamed__1": null, "Unnamed__2": null, "Unnamed__3": null, "Unnamed__4": null, "Id": 0, "area": 136572.15568900001 }, "geometry": { "type": "Point", "coordinates": [ -76.522414966697625, 3.448501361281765 ] } },
{ "type": "Feature", "properties": { "ID": 8311.0, "X": 1062149.6908, "Y": 873116.91213499999, "Municipio": "Cali", "Codigo": "<Null>", "Fecha": "2023-06-20 00:00:00", "horah": "<Null>", "hora": 0.0, "semana": 25.0, "mes": 6.0, "Año": 2023.0, "dia_sem": 2.0, "Tipo_Confi": "Lesiones", "direccion": "Calle 25 Con Carrera 11B", "Clase_acci": "Atropello", "Tipo_Choqu": null, "placas": "LIU36E, AYV07D", "No_Vehicul": "2", "Tipo_de_Ve": null, "Ipat": 1527198.0, "Spoa": 81818.0, "SEXO": null, "EDAD": "0", "CONDICION": null, "TIPO_DE_AC": null, "VEHICULOS1": null, "VEHICULOS2": null, "comuna": 9.0, "nombre": "Comuna 9", "id_barrio": 910.0, "barrio": "Barrio Obrero", "Unnamed__0": null, "Unnamed__1": null, "Unnamed__2": null, "Unnamed__3": null, "Unnamed__4": null, "Id": 0, "area": 136572.15568900001 }, "geometry": { "type": "Point", "coordinates": [ -76.518210572312526, 3.448600562300564 ] } },
{ "type": "Feature", "properties": { "ID": 8318.0, "X": 1061954.9326200001, "Y": 873121.99274899997, "Municipio": "Cali", "Codigo": "<Null>", "Fecha": "2023-03-30 00:00:00", "horah": "<Null>", "hora": 0.0, "semana": 13.0, "mes": 3.0, "Año": 2023.0, "dia_sem": 4.0, "Tipo_Confi": "Lesiones", "direccion": "CLINICA CRISTO REY", "Clase_acci": "Atropello", "Tipo_Choqu": null, "placas": "PEATON, JYC19D", "No_Vehicul": "2", "Tipo_de_Ve": "MOTOCICLETA", "Ipat": 1525838.0, "Spoa": 80913.0, "SEXO": null, "EDAD": "0", "CONDICION": null, "TIPO_DE_AC": null, "VEHICULOS1": null, "VEHICULOS2": null, "comuna": 9.0, "nombre": "Comuna 9", "id_barrio": 910.0, "barrio": "Barrio Obrero", "Unnamed__0": null, "Unnamed__1": null, "Unnamed__2": null, "Unnamed__3": null, "Unnamed__4": null, "Id": 0, "area": 136572.15568900001 }, "geometry": { "type": "Point", "coordinates": [ -76.519963156903529, 3.448647538525819 ] } },
{ "type": "Feature", "properties": { "ID": 8332.0, "X": 1061666.3481000001, "Y": 873176.055, "Municipio": "CALI", "Codigo": "AI006597", "Fecha": "2024-05-03 00:00:00", "horah": "30/12/1899 6:49:06 a. m.", "hora": 6.0, "semana": 18.0, "mes": 5.0, "Año": 2024.0, "dia_sem": 5.0, "Tipo_Confi": "Lesiones", "direccion": "CALLE 21  , CARRERA 10", "Clase_acci": "ATROPELLO", "Tipo_Choqu": null, "placas": "EQK888,PEATON", "No_Vehicul": "1", "Tipo_de_Ve": "AUTOMOVIL", "Ipat": 1630839.0, "Spoa": 81345.0, "SEXO": null, "EDAD": "0", "CONDICION": null, "TIPO_DE_AC": null, "VEHICULOS1": null, "VEHICULOS2": null, "comuna": 9.0, "nombre": "Comuna 9", "id_barrio": 909.0, "barrio": "Sucre", "Unnamed__0": null, "Unnamed__1": null, "Unnamed__2": null, "Unnamed__3": null, "Unnamed__4": null, "Id": 0, "area": 136572.15568900001 }, "geometry": { "type": "Point", "coordinates": [ -76.522559820670054, 3.449137944239184 ] } },
{ "type": "Feature", "properties": { "ID": 8333.0, "X": 1061693.532, "Y": 873093.085, "Municipio": "CALI", "Codigo": "AI007749", "Fecha": "2024-06-01 00:00:00", "horah": "21:06:00", "hora": 21.0, "semana": 22.0, "mes": 6.0, "Año": 2024.0, "dia_sem": 7.0, "Tipo_Confi": "Lesiones", "direccion": "CARRERA 11  , CALLE 21", "Clase_acci": "CHOQUE", "Tipo_Choqu": "VEHICULO", "placas": "EHA90C, UUN691", "No_Vehicul": "2", "Tipo_de_Ve": "MOTOCICLETA,AUTOMOVIL", "Ipat": 1632237.0, "Spoa": 81691.0, "SEXO": null, "EDAD": "0", "CONDICION": null, "TIPO_DE_AC": null, "VEHICULOS1": null, "VEHICULOS2": null, "comuna": 9.0, "nombre": "Comuna 9", "id_barrio": 909.0, "barrio": "Sucre", "Unnamed__0": null, "Unnamed__1": null, "Unnamed__2": null, "Unnamed__3": null, "Unnamed__4": null, "Id": 0, "area": 136572.15568900001 }, "geometry": { "type": "Point", "coordinates": [ -76.522315630156186, 3.448387508331338 ] } },
{ "type": "Feature", "properties": { "ID": 8335.0, "X": 1061666.3486, "Y": 873177.2398, "Municipio": "CALI", "Codigo": "AI013156", "Fecha": "2024-10-25 00:00:00", "horah": "10:42:00", "hora": 10.0, "semana": 43.0, "mes": 10.0, "Año": 2024.0, "dia_sem": 5.0, "Tipo_Confi": "Lesiones", "direccion": "CARRERA 10  , CALLE 21", "Clase_acci": "CHOQUE", "Tipo_Choqu": "VEHICULO", "placas": "EEO32H", "No_Vehicul": "1", "Tipo_de_Ve": "MOTOCICLETA", "Ipat": 1634024.0, "Spoa": 83339.0, "SEXO": null, "EDAD": "0", "CONDICION": null, "TIPO_DE_AC": null, "VEHICULOS1": null, "VEHICULOS2": null, "comuna": 9.0, "nombre": "Comuna 9", "id_barrio": 909.0, "barrio": "Sucre", "Unnamed__0": null, "Unnamed__1": null, "Unnamed__2": null, "Unnamed__3": null, "Unnamed__4": null, "Id": 0, "area": 136572.15568900001 }, "geometry": { "type": "Point", "coordinates": [ -76.522559809957542, 3.449148658310731 ] } },
{ "type": "Feature", "properties": { "ID": 8346.0, "X": 1061876.0, "Y": 873136.9, "Municipio": "CALI", "Codigo": "AI019451", "Fecha": "2025-03-18 00:00:00", "horah": "13:36:00", "hora": 13.0, "semana": 11.0, "mes": 3.0, "Año": 2025.0, "dia_sem": 2.0, "Tipo_Confi": "Lesiones", "direccion": "CALLE 22 A , CARRERA 11", "Clase_acci": "CHOQUE", "Tipo_Choqu": "VEHICULO", "placas": "WPX985, GSX496", "No_Vehicul": "2", "Tipo_de_Ve": "CAMIONETA,AUTOMOVIL", "Ipat": 1635914.0, "Spoa": 80849.0, "SEXO": null, "EDAD": null, "CONDICION": null, "TIPO_DE_AC": null, "VEHICULOS1": null, "VEHICULOS2": null, "comuna": 9.0, "nombre": "Comuna 9", "id_barrio": 910.0, "barrio": "Barrio Obrero", "Unnamed__0": null, "Unnamed__1": null, "Unnamed__2": null, "Unnamed__3": null, "Unnamed__4": null, "Id": 0, "area": 136572.15568900001 }, "geometry": { "type": "Point", "coordinates": [ -76.520673386210461, 3.448782761410996 ] } },
{ "type": "Feature", "properties": { "ID": 8352.0, "X": 1061690.9, "Y": 873143.0, "Municipio": "CALI", "Codigo": "AI017818", "Fecha": "2025-02-11 00:00:00", "horah": "11:11:00", "hora": 11.0, "semana": 6.0, "mes": 2.0, "Año": 2025.0, "dia_sem": 2.0, "Tipo_Confi": "Lesiones", "direccion": "CALLE 21  , CARRERA 10 A", "Clase_acci": "ATROPELLO", "Tipo_Choqu": null, "placas": "PLB06C", "No_Vehicul": "1", "Tipo_de_Ve": "MOTOCICLETA", "Ipat": 1635260.0, "Spoa": 80420.0, "SEXO": null, "EDAD": null, "CONDICION": null, "TIPO_DE_AC": null, "VEHICULOS1": null, "VEHICULOS2": null, "comuna": 9.0, "nombre": "Comuna 9", "id_barrio": 910.0, "barrio": "Barrio Obrero", "Unnamed__0": null, "Unnamed__1": null, "Unnamed__2": null, "Unnamed__3": null, "Unnamed__4": null, "Id": 0, "area": 136572.15568900001 }, "geometry": { "type": "Point", "coordinates": [ -76.522339053478888, 3.448838900494422 ] } },
{ "type": "Feature", "properties": { "ID": 8354.0, "X": 1061778.8, "Y": 873144.1, "Municipio": null, "Codigo": "<Null>", "Fecha": "2023-11-18 00:00:00", "horah": "00:00:00", "hora": 17.0, "semana": 46.0, "mes": 11.0, "Año": 2023.0, "dia_sem": 7.0, "Tipo_Confi": "Mortal", "direccion": "KR 11 CL 22", "Clase_acci": "ATROPELLO", "Tipo_Choqu": null, "placas": "WMX614", "No_Vehicul": "1", "Tipo_de_Ve": "PEATÓN,", "Ipat": 0.0, "Spoa": 193202331092.0, "SEXO": "Masculino", "EDAD": "72", "CONDICION": "Peatón", "TIPO_DE_AC": "Peatón atropellado", "VEHICULOS1": "Peatón", "VEHICULOS2": null, "comuna": 9.0, "nombre": "Comuna 9", "id_barrio": 910.0, "barrio": "Barrio Obrero", "Unnamed__0": null, "Unnamed__1": null, "Unnamed__2": null, "Unnamed__3": null, "Unnamed__4": null, "Id": 0, "area": 136572.15568900001 }, "geometry": { "type": "Point", "coordinates": [ -76.521548042919846, 3.448848384052495 ] } },
{ "type": "Feature", "properties": { "ID": 8367.0, "X": 1061948.8023000001, "Y": 873150.8182, "Municipio": "Cali", "Codigo": "<Null>", "Fecha": "2023-03-18 00:00:00", "horah": "<Null>", "hora": 0.0, "semana": 11.0, "mes": 3.0, "Año": 2023.0, "dia_sem": 6.0, "Tipo_Confi": "Lesiones", "direccion": "Calle 23 Con Carrera 11", "Clase_acci": null, "Tipo_Choqu": null, "placas": "ICX193, KPW05G", "No_Vehicul": "2", "Tipo_de_Ve": "AUTOMOVIL,MOTOCICLETA", "Ipat": 1525745.0, "Spoa": 80771.0, "SEXO": null, "EDAD": "0", "CONDICION": null, "TIPO_DE_AC": null, "VEHICULOS1": null, "VEHICULOS2": null, "comuna": 9.0, "nombre": "Comuna 9", "id_barrio": 910.0, "barrio": "Barrio Obrero", "Unnamed__0": null, "Unnamed__1": null, "Unnamed__2": null, "Unnamed__3": null, "Unnamed__4": null, "Id": 0, "area": 136572.15568900001 }, "geometry": { "type": "Point", "coordinates": [ -76.520018171277371, 3.4489082376606 ] } },
{ "type": "Feature", "properties": { "ID": 8368.0, "X": 1061948.8023000001, "Y": 873150.8182, "Municipio": "Cali", "Codigo": "<Null>", "Fecha": "2023-09-24 00:00:00", "horah": "<Null>", "hora": 0.0, "semana": 39.0, "mes": 9.0, "Año": 2023.0, "dia_sem": 7.0, "Tipo_Confi": "Lesiones", "direccion": "Calle 23 Con Carrera 11", "Clase_acci": "Choque", "Tipo_Choqu": null, "placas": "IQY87E, HEZ701", "No_Vehicul": "2", "Tipo_de_Ve": "AUTOMOVIL,MOTOCICLETA", "Ipat": 1528325.0, "Spoa": 82909.0, "SEXO": null, "EDAD": "0", "CONDICION": null, "TIPO_DE_AC": null, "VEHICULOS1": null, "VEHICULOS2": null, "comuna": 9.0, "nombre": "Comuna 9", "id_barrio": 910.0, "barrio": "Barrio Obrero", "Unnamed__0": null, "Unnamed__1": null, "Unnamed__2": null, "Unnamed__3": null, "Unnamed__4": null, "Id": 0, "area": 136572.15568900001 }, "geometry": { "type": "Point", "coordinates": [ -76.520018171277371, 3.4489082376606 ] } },
{ "type": "Feature", "properties": { "ID": 8380.0, "X": 1061968.6, "Y": 873157.6, "Municipio": "CALI", "Codigo": "<Null>", "Fecha": "2023-01-12 00:00:00", "horah": "00:00:00", "hora": 6.0, "semana": 2.0, "mes": 1.0, "Año": 2023.0, "dia_sem": 5.0, "Tipo_Confi": "Mortal", "direccion": "CL 23 KR 11", "Clase_acci": "ATROPELLO", "Tipo_Choqu": null, "placas": "PLX90C", "No_Vehicul": "1", "Tipo_de_Ve": "PEATÓN,MOTOCICLETA", "Ipat": 0.0, "Spoa": 193202380010.0, "SEXO": "Masculino", "EDAD": "72", "CONDICION": "Peatón", "TIPO_DE_AC": "Peatón atropellado", "VEHICULOS1": "Peatón", "VEHICULOS2": "Motocicleta", "comuna": 9.0, "nombre": "Comuna 9", "id_barrio": 910.0, "barrio": "Barrio Obrero", "Unnamed__0": null, "Unnamed__1": null, "Unnamed__2": null, "Unnamed__3": null, "Unnamed__4": null, "Id": 0, "area": 136572.15568900001 }, "geometry": { "type": "Point", "coordinates": [ -76.519839977736197, 3.448969460222651 ] } },
{ "type": "Feature", "properties": { "ID": 8406.0, "X": 1061666.3486, "Y": 873177.2398, "Municipio": "CALI", "Codigo": "AI016367", "Fecha": "2025-01-06 00:00:00", "horah": "14:30:00", "hora": 14.0, "semana": 1.0, "mes": 1.0, "Año": 2025.0, "dia_sem": 1.0, "Tipo_Confi": "Lesiones", "direccion": "CALLE 21  , CARRERA 10", "Clase_acci": "CHOQUE", "Tipo_Choqu": "VEHICULO", "placas": "WLT88, VJC784", "No_Vehicul": "2", "Tipo_de_Ve": "MOTOCICLETA,AUTOMOVIL", "Ipat": 1635018.0, "Spoa": 80043.0, "SEXO": null, "EDAD": null, "CONDICION": null, "TIPO_DE_AC": null, "VEHICULOS1": null, "VEHICULOS2": null, "comuna": 9.0, "nombre": "Comuna 9", "id_barrio": 909.0, "barrio": "Sucre", "Unnamed__0": null, "Unnamed__1": null, "Unnamed__2": null, "Unnamed__3": null, "Unnamed__4": null, "Id": 0, "area": 136572.15568900001 }, "geometry": { "type": "Point", "coordinates": [ -76.522559809957542, 3.449148658310731 ] } },
{ "type": "Feature", "properties": { "ID": 8407.0, "X": 1061666.3486, "Y": 873177.2398, "Municipio": "CALI", "Codigo": "AI015042", "Fecha": "2024-12-06 00:00:00", "horah": "09:25:00", "hora": 9.0, "semana": 49.0, "mes": 12.0, "Año": 2024.0, "dia_sem": 5.0, "Tipo_Confi": "Lesiones", "direccion": "CARRERA 10  , CALLE 21", "Clase_acci": "CHOQUE", "Tipo_Choqu": "VEHICULO", "placas": "OOS23G, WMY249", "No_Vehicul": "2", "Tipo_de_Ve": "MOTOCICLETA,AUTOMOVIL", "Ipat": 1634602.0, "Spoa": 83846.0, "SEXO": null, "EDAD": "0", "CONDICION": null, "TIPO_DE_AC": null, "VEHICULOS1": null, "VEHICULOS2": null, "comuna": 9.0, "nombre": "Comuna 9", "id_barrio": 909.0, "barrio": "Sucre", "Unnamed__0": null, "Unnamed__1": null, "Unnamed__2": null, "Unnamed__3": null, "Unnamed__4": null, "Id": 0, "area": 136572.15568900001 }, "geometry": { "type": "Point", "coordinates": [ -76.522559809957542, 3.449148658310731 ] } },
{ "type": "Feature", "properties": { "ID": 8411.0, "X": 1062048.9915, "Y": 873178.9463, "Municipio": "CALI", "Codigo": "AI009372", "Fecha": "2024-07-17 00:00:00", "horah": "06:35:00", "hora": 6.0, "semana": 29.0, "mes": 7.0, "Año": 2024.0, "dia_sem": 3.0, "Tipo_Confi": "Lesiones", "direccion": "CARRERA 11  , CALLE 24", "Clase_acci": "CHOQUE", "Tipo_Choqu": "VEHICULO", "placas": "KVN199, YIB50E", "No_Vehicul": "2", "Tipo_de_Ve": "AUTOMOVIL,MOTOCICLETA", "Ipat": 1527803.0, "Spoa": 82141.0, "SEXO": null, "EDAD": "0", "CONDICION": null, "TIPO_DE_AC": null, "VEHICULOS1": null, "VEHICULOS2": null, "comuna": 9.0, "nombre": "Comuna 9", "id_barrio": 910.0, "barrio": "Barrio Obrero", "Unnamed__0": null, "Unnamed__1": null, "Unnamed__2": null, "Unnamed__3": null, "Unnamed__4": null, "Id": 0, "area": 136572.15568900001 }, "geometry": { "type": "Point", "coordinates": [ -76.519116428896268, 3.449162067435651 ] } },
{ "type": "Feature", "properties": { "ID": 8420.0, "X": 1061748.423, "Y": 873186.0983, "Municipio": "Cali", "Codigo": "<Null>", "Fecha": "2023-02-26 00:00:00", "horah": "<Null>", "hora": 0.0, "semana": 9.0, "mes": 2.0, "Año": 2023.0, "dia_sem": 7.0, "Tipo_Confi": "Lesiones", "direccion": "Carrera 10 Con Calle 22", "Clase_acci": "Choque", "Tipo_Choqu": null, "placas": "moto sin pla, nfa743", "No_Vehicul": "2", "Tipo_de_Ve": "CAMPERO", "Ipat": 1525720.0, "Spoa": 80552.0, "SEXO": null, "EDAD": "0", "CONDICION": null, "TIPO_DE_AC": null, "VEHICULOS1": null, "VEHICULOS2": null, "comuna": 9.0, "nombre": "Comuna 9", "id_barrio": 910.0, "barrio": "Barrio Obrero", "Unnamed__0": null, "Unnamed__1": null, "Unnamed__2": null, "Unnamed__3": null, "Unnamed__4": null, "Id": 0, "area": 136572.15568900001 }, "geometry": { "type": "Point", "coordinates": [ -76.521821182479897, 3.449228332386627 ] } },
{ "type": "Feature", "properties": { "ID": 8421.0, "X": 1061748.423, "Y": 873186.0983, "Municipio": "Cali", "Codigo": "<Null>", "Fecha": "2023-11-25 00:00:00", "horah": "<Null>", "hora": 0.0, "semana": 47.0, "mes": 11.0, "Año": 2023.0, "dia_sem": 6.0, "Tipo_Confi": "Daños", "direccion": "Calle 22 Con Carrera 10", "Clase_acci": "Choque", "Tipo_Choqu": null, "placas": "PHX62B, DLT213", "No_Vehicul": "2", "Tipo_de_Ve": "AUTOMOVIL,MOTOCICLETA", "Ipat": 1629814.0, "Spoa": 0.0, "SEXO": null, "EDAD": "0", "CONDICION": null, "TIPO_DE_AC": null, "VEHICULOS1": null, "VEHICULOS2": null, "comuna": 9.0, "nombre": "Comuna 9", "id_barrio": 910.0, "barrio": "Barrio Obrero", "Unnamed__0": null, "Unnamed__1": null, "Unnamed__2": null, "Unnamed__3": null, "Unnamed__4": null, "Id": 0, "area": 136572.15568900001 }, "geometry": { "type": "Point", "coordinates": [ -76.521821182479897, 3.449228332386627 ] } },
{ "type": "Feature", "properties": { "ID": 8438.0, "X": 1061752.4684, "Y": 873200.0113, "Municipio": "CALI", "Codigo": "AI015543", "Fecha": "2024-12-16 00:00:00", "horah": "08:20:00", "hora": 8.0, "semana": 51.0, "mes": 12.0, "Año": 2024.0, "dia_sem": 1.0, "Tipo_Confi": "Lesiones", "direccion": "CALLE 22  , CARRERA 10", "Clase_acci": "CAIDA DE OCUPANTE", "Tipo_Choqu": null, "placas": "VCQ77", "No_Vehicul": "1", "Tipo_de_Ve": "BUS", "Ipat": 1634756.0, "Spoa": 83979.0, "SEXO": null, "EDAD": "0", "CONDICION": null, "TIPO_DE_AC": null, "VEHICULOS1": null, "VEHICULOS2": null, "comuna": 9.0, "nombre": "Comuna 9", "id_barrio": 910.0, "barrio": "Barrio Obrero", "Unnamed__0": null, "Unnamed__1": null, "Unnamed__2": null, "Unnamed__3": null, "Unnamed__4": null, "Id": 0, "area": 136572.15568900001 }, "geometry": { "type": "Point", "coordinates": [ -76.521784705183791, 3.449354125433278 ] } },
{ "type": "Feature", "properties": { "ID": 8445.0, "X": 1061669.2, "Y": 873205.5, "Municipio": "CALI", "Codigo": "AI024726", "Fecha": "2025-07-11 00:00:00", "horah": "00:51:00", "hora": 0.0, "semana": 27.0, "mes": 7.0, "Año": 2025.0, "dia_sem": 5.0, "Tipo_Confi": "Lesiones", "direccion": "CARRERA 10 CALLE 21", "Clase_acci": "ATROPELLO", "Tipo_Choqu": null, "placas": "ZOE31A", "No_Vehicul": "1", "Tipo_de_Ve": "MOTOCICLETA", "Ipat": 1719828.0, "Spoa": 82112.0, "SEXO": null, "EDAD": null, "CONDICION": null, "TIPO_DE_AC": null, "VEHICULOS1": null, "VEHICULOS2": null, "comuna": 9.0, "nombre": "Comuna 9", "id_barrio": 910.0, "barrio": "Barrio Obrero", "Unnamed__0": null, "Unnamed__1": null, "Unnamed__2": null, "Unnamed__3": null, "Unnamed__4": null, "Id": 0, "area": 136572.15568900001 }, "geometry": { "type": "Point", "coordinates": [ -76.522534002227147, 3.449404198548816 ] } },
{ "type": "Feature", "properties": { "ID": 8458.0, "X": 1061741.8111699999, "Y": 873207.87044900004, "Municipio": "Cali", "Codigo": "<Null>", "Fecha": "2023-12-07 00:00:00", "horah": "<Null>", "hora": 0.0, "semana": 49.0, "mes": 12.0, "Año": 2023.0, "dia_sem": 4.0, "Tipo_Confi": "Lesiones", "direccion": "CARRERA 10   CALLE 22", "Clase_acci": "ATROPELLO", "Tipo_Choqu": null, "placas": "DIV52F", "No_Vehicul": "1", "Tipo_de_Ve": "MOTOCICLETA", "Ipat": 1630069.0, "Spoa": 83753.0, "SEXO": null, "EDAD": "0", "CONDICION": null, "TIPO_DE_AC": null, "VEHICULOS1": null, "VEHICULOS2": null, "comuna": 9.0, "nombre": "Comuna 9", "id_barrio": 910.0, "barrio": "Barrio Obrero", "Unnamed__0": null, "Unnamed__1": null, "Unnamed__2": null, "Unnamed__3": null, "Unnamed__4": null, "Id": 0, "area": 136572.15568900001 }, "geometry": { "type": "Point", "coordinates": [ -76.52188056749246, 3.44942525146666 ] } },
{ "type": "Feature", "properties": { "ID": 8488.0, "X": 1061939.7748, "Y": 873241.1072, "Municipio": "Cali", "Codigo": "AI0001845", "Fecha": "2024-01-14 00:00:00", "horah": "8:21:44 p. m.", "hora": 20.0, "semana": 3.0, "mes": 1.0, "Año": 2024.0, "dia_sem": 7.0, "Tipo_Confi": "Lesiones", "direccion": "Kr 10 Cl 23", "Clase_acci": "ATROPELLO", "Tipo_Choqu": null, "placas": "WMW894", "No_Vehicul": "1", "Tipo_de_Ve": "AUTOMOVIL", "Ipat": 1630533.0, "Spoa": 80114.0, "SEXO": null, "EDAD": "0", "CONDICION": null, "TIPO_DE_AC": null, "VEHICULOS1": null, "VEHICULOS2": null, "comuna": 9.0, "nombre": "Comuna 9", "id_barrio": 910.0, "barrio": "Barrio Obrero", "Unnamed__0": null, "Unnamed__1": null, "Unnamed__2": null, "Unnamed__3": null, "Unnamed__4": null, "Id": 0, "area": 136572.15568900001 }, "geometry": { "type": "Point", "coordinates": [ -76.520098933381803, 3.449724763021326 ] } },
{ "type": "Feature", "properties": { "ID": 8489.0, "X": 1061942.4183, "Y": 873236.6071, "Municipio": "Cali", "Codigo": "AI002547", "Fecha": "2024-01-31 00:00:00", "horah": "1:54:42 p. m.", "hora": 13.0, "semana": 5.0, "mes": 1.0, "Año": 2024.0, "dia_sem": 3.0, "Tipo_Confi": "Lesiones", "direccion": "CARRERA 10 CALLE 23", "Clase_acci": "CHOQUE", "Tipo_Choqu": "VEHICULO", "placas": "VCP001,VVS48F", "No_Vehicul": "2", "Tipo_de_Ve": "AUTOMOVIL,MOTOCICLETA", "Ipat": 1527335.0, "Spoa": 80303.0, "SEXO": null, "EDAD": "0", "CONDICION": null, "TIPO_DE_AC": null, "VEHICULOS1": null, "VEHICULOS2": null, "comuna": 9.0, "nombre": "Comuna 9", "id_barrio": 910.0, "barrio": "Barrio Obrero", "Unnamed__0": null, "Unnamed__1": null, "Unnamed__2": null, "Unnamed__3": null, "Unnamed__4": null, "Id": 0, "area": 136572.15568900001 }, "geometry": { "type": "Point", "coordinates": [ -76.520075168438851, 3.449684054914373 ] } },
{ "type": "Feature", "properties": { "ID": 8490.0, "X": 1061883.7864000001, "Y": 873229.673, "Municipio": "Cali", "Codigo": "AI004638", "Fecha": "2024-03-17 00:00:00", "horah": "00:00:00", "hora": 1.0, "semana": 12.0, "mes": 3.0, "Año": 2024.0, "dia_sem": 7.0, "Tipo_Confi": "Lesiones", "direccion": "CARRERA 10 22 A", "Clase_acci": "CON HERIDOS", "Tipo_Choqu": "CON HERIDOS", "placas": "KAX11D", "No_Vehicul": "1", "Tipo_de_Ve": "MOTOCICLETA", "Ipat": 1631212.0, "Spoa": 80812.0, "SEXO": null, "EDAD": "0", "CONDICION": null, "TIPO_DE_AC": null, "VEHICULOS1": null, "VEHICULOS2": null, "comuna": 9.0, "nombre": "Comuna 9", "id_barrio": 910.0, "barrio": "Barrio Obrero", "Unnamed__0": null, "Unnamed__1": null, "Unnamed__2": null, "Unnamed__3": null, "Unnamed__4": null, "Id": 0, "area": 136572.15568900001 }, "geometry": { "type": "Point", "coordinates": [ -76.520602828842314, 3.449621660545262 ] } },
{ "type": "Feature", "properties": { "ID": 8491.0, "X": 1061937.288, "Y": 873251.3986, "Municipio": "CALI", "Codigo": "AI005552", "Fecha": "2024-04-08 00:00:00", "horah": "30/12/1899 5:41:21 p. m.", "hora": 17.0, "semana": 15.0, "mes": 4.0, "Año": 2024.0, "dia_sem": 1.0, "Tipo_Confi": "Lesiones", "direccion": "CARRERA 10  , CALLE 23", "Clase_acci": "CHOQUE", "Tipo_Choqu": null, "placas": "NBG421", "No_Vehicul": "1", "Tipo_de_Ve": "CAMPERO", "Ipat": 1631492.0, "Spoa": 81078.0, "SEXO": null, "EDAD": "0", "CONDICION": null, "TIPO_DE_AC": null, "VEHICULOS1": null, "VEHICULOS2": null, "comuna": 9.0, "nombre": "Comuna 9", "id_barrio": 910.0, "barrio": "Barrio Obrero", "Unnamed__0": null, "Unnamed__1": null, "Unnamed__2": null, "Unnamed__3": null, "Unnamed__4": null, "Id": 0, "area": 136572.15568900001 }, "geometry": { "type": "Point", "coordinates": [ -76.52012125768681, 3.449817840648866 ] } },
{ "type": "Feature", "properties": { "ID": 8492.0, "X": 1061936.0958, "Y": 873251.3986, "Municipio": "CALI", "Codigo": "AI008194", "Fecha": "2024-06-14 00:00:00", "horah": "07:22:00", "hora": 7.0, "semana": 24.0, "mes": 6.0, "Año": 2024.0, "dia_sem": 5.0, "Tipo_Confi": "Lesiones", "direccion": "CALLE 23  , CARRERA 10", "Clase_acci": "CHOQUE", "Tipo_Choqu": "VEHICULO", "placas": "KUC76C, OKM44D", "No_Vehicul": "2", "Tipo_de_Ve": "MOTOCICLETA,MOTOCICLETA", "Ipat": 1632376.0, "Spoa": 81805.0, "SEXO": null, "EDAD": "0", "CONDICION": null, "TIPO_DE_AC": null, "VEHICULOS1": null, "VEHICULOS2": null, "comuna": 9.0, "nombre": "Comuna 9", "id_barrio": 910.0, "barrio": "Barrio Obrero", "Unnamed__0": null, "Unnamed__1": null, "Unnamed__2": null, "Unnamed__3": null, "Unnamed__4": null, "Id": 0, "area": 136572.15568900001 }, "geometry": { "type": "Point", "coordinates": [ -76.520131986202998, 3.449817846960091 ] } },
{ "type": "Feature", "properties": { "ID": 8523.0, "X": 1061927.81024, "Y": 873250.23396800004, "Municipio": "Cali", "Codigo": "<Null>", "Fecha": "2023-04-02 00:00:00", "horah": "<Null>", "hora": 0.0, "semana": 14.0, "mes": 4.0, "Año": 2023.0, "dia_sem": 7.0, "Tipo_Confi": "Lesiones", "direccion": "CAI OBRERO", "Clase_acci": "Atropello", "Tipo_Choqu": null, "placas": "GPU92C", "No_Vehicul": "1", "Tipo_de_Ve": "MOTOCICLETA", "Ipat": 1526158.0, "Spoa": 80951.0, "SEXO": null, "EDAD": "0", "CONDICION": null, "TIPO_DE_AC": null, "VEHICULOS1": null, "VEHICULOS2": null, "comuna": 9.0, "nombre": "Comuna 9", "id_barrio": 910.0, "barrio": "Barrio Obrero", "Unnamed__0": null, "Unnamed__1": null, "Unnamed__2": null, "Unnamed__3": null, "Unnamed__4": null, "Id": 0, "area": 136572.15568900001 }, "geometry": { "type": "Point", "coordinates": [ -76.520206553455608, 3.449807359126682 ] } },
{ "type": "Feature", "properties": { "ID": 8524.0, "X": 1061925.9030899999, "Y": 873250.44911100005, "Municipio": "Cali", "Codigo": "<Null>", "Fecha": "2023-02-27 00:00:00", "horah": "<Null>", "hora": 0.0, "semana": 9.0, "mes": 2.0, "Año": 2023.0, "dia_sem": 1.0, "Tipo_Confi": "Lesiones", "direccion": "Calle 23 Con Carrera 10", "Clase_acci": "Volcamiento", "Tipo_Choqu": null, "placas": "WDM42F", "No_Vehicul": "1", "Tipo_de_Ve": "MOTOCICLETA", "Ipat": 1525322.0, "Spoa": 80568.0, "SEXO": null, "EDAD": "0", "CONDICION": null, "TIPO_DE_AC": null, "VEHICULOS1": null, "VEHICULOS2": null, "comuna": 9.0, "nombre": "Comuna 9", "id_barrio": 910.0, "barrio": "Barrio Obrero", "Unnamed__0": null, "Unnamed__1": null, "Unnamed__2": null, "Unnamed__3": null, "Unnamed__4": null, "Id": 0, "area": 136572.15568900001 }, "geometry": { "type": "Point", "coordinates": [ -76.520223714618794, 3.449809314745283 ] } },
{ "type": "Feature", "properties": { "ID": 8525.0, "X": 1061927.0525400001, "Y": 873250.50640900002, "Municipio": "Cali", "Codigo": "<Null>", "Fecha": "2023-07-05 00:00:00", "horah": "<Null>", "hora": 0.0, "semana": 27.0, "mes": 7.0, "Año": 2023.0, "dia_sem": 3.0, "Tipo_Confi": "Lesiones", "direccion": "Kr 10 Calle 23", "Clase_acci": "Choque", "Tipo_Choqu": null, "placas": "bicicleta, igv41d", "No_Vehicul": "2", "Tipo_de_Ve": "MOTOCICLETA", "Ipat": 1527370.0, "Spoa": 81975.0, "SEXO": null, "EDAD": "0", "CONDICION": null, "TIPO_DE_AC": null, "VEHICULOS1": null, "VEHICULOS2": null, "comuna": 9.0, "nombre": "Comuna 9", "id_barrio": 910.0, "barrio": "Barrio Obrero", "Unnamed__0": null, "Unnamed__1": null, "Unnamed__2": null, "Unnamed__3": null, "Unnamed__4": null, "Id": 0, "area": 136572.15568900001 }, "geometry": { "type": "Point", "coordinates": [ -76.520213370504706, 3.449809826803493 ] } },
{ "type": "Feature", "properties": { "ID": 8527.0, "X": 1061927.5817, "Y": 873251.67057800002, "Municipio": "Cali", "Codigo": "<Null>", "Fecha": "2023-08-11 00:00:00", "horah": "<Null>", "hora": 0.0, "semana": 32.0, "mes": 8.0, "Año": 2023.0, "dia_sem": 5.0, "Tipo_Confi": "Lesiones", "direccion": "Calle 23 Con Kr 10", "Clase_acci": "Choque", "Tipo_Choqu": null, "placas": "VSE091, NIW41G, YHJ71E", "No_Vehicul": "3", "Tipo_de_Ve": "CAMPERO,MOTOCICLETA,MOTOCICLETA", "Ipat": 1527793.0, "Spoa": 82389.0, "SEXO": null, "EDAD": "0", "CONDICION": null, "TIPO_DE_AC": null, "VEHICULOS1": null, "VEHICULOS2": null, "comuna": 9.0, "nombre": "Comuna 9", "id_barrio": 910.0, "barrio": "Barrio Obrero", "Unnamed__0": null, "Unnamed__1": null, "Unnamed__2": null, "Unnamed__3": null, "Unnamed__4": null, "Id": 0, "area": 136572.15568900001 }, "geometry": { "type": "Point", "coordinates": [ -76.520208602502578, 3.449820351507616 ] } },
{ "type": "Feature", "properties": { "ID": 8542.0, "X": 1061729.2404, "Y": 873306.0281, "Municipio": "CALI", "Codigo": "AI005152", "Fecha": "2024-03-30 00:00:00", "horah": "30/12/1899 1:30:58 p. m.", "hora": 13.0, "semana": 13.0, "mes": 3.0, "Año": 2024.0, "dia_sem": 6.0, "Tipo_Confi": "Daños", "direccion": "CARRERA 9 bis  , CALLE 22", "Clase_acci": "CHOQUE", "Tipo_Choqu": null, "placas": "vct163 ,fnj37d", "No_Vehicul": "2", "Tipo_de_Ve": "AUTOMOVIL,MOTOCICLETA", "Ipat": 1631332.0, "Spoa": 0.0, "SEXO": null, "EDAD": "0", "CONDICION": null, "TIPO_DE_AC": null, "VEHICULOS1": null, "VEHICULOS2": null, "comuna": 9.0, "nombre": "Comuna 9", "id_barrio": 910.0, "barrio": "Barrio Obrero", "Unnamed__0": null, "Unnamed__1": null, "Unnamed__2": null, "Unnamed__3": null, "Unnamed__4": null, "Id": 0, "area": 136572.15568900001 }, "geometry": { "type": "Point", "coordinates": [ -76.52199317550425, 3.450312951345547 ] } },
{ "type": "Feature", "properties": { "ID": 8543.0, "X": 1061726.8559000001, "Y": 873303.6592, "Municipio": "CALI", "Codigo": "AI009226", "Fecha": "2024-07-12 00:00:00", "horah": "16:03:00", "hora": 16.0, "semana": 28.0, "mes": 7.0, "Año": 2024.0, "dia_sem": 5.0, "Tipo_Confi": "Daños", "direccion": "CARRERA 9  , CALLE 22", "Clase_acci": "CHOQUE", "Tipo_Choqu": "VEHICULO", "placas": "KUK824", "No_Vehicul": "1", "Tipo_de_Ve": "TRACTOCAMION", "Ipat": 1632606.0, "Spoa": 0.0, "SEXO": null, "EDAD": "0", "CONDICION": null, "TIPO_DE_AC": null, "VEHICULOS1": null, "VEHICULOS2": null, "comuna": 9.0, "nombre": "Comuna 9", "id_barrio": 910.0, "barrio": "Barrio Obrero", "Unnamed__0": null, "Unnamed__1": null, "Unnamed__2": null, "Unnamed__3": null, "Unnamed__4": null, "Id": 0, "area": 136572.15568900001 }, "geometry": { "type": "Point", "coordinates": [ -76.522014645893321, 3.450291542112005 ] } },
{ "type": "Feature", "properties": { "ID": 8544.0, "X": 1061752.1269, "Y": 873214.8413, "Municipio": "CALI", "Codigo": "A001631397", "Fecha": "2024-03-27 00:00:00", "horah": "30/12/1899 12:40:00 p. m.", "hora": 12.0, "semana": 13.0, "mes": 3.0, "Año": 2024.0, "dia_sem": 3.0, "Tipo_Confi": "Mortal", "direccion": "Cr 1O Cl 22 y 23", "Clase_acci": "Colisión con objeto móvil", "Tipo_Choqu": null, "placas": "EQM415,MKL51G", "No_Vehicul": "2", "Tipo_de_Ve": "Motocicleta", "Ipat": 0.0, "Spoa": 193202403244.0, "SEXO": "Masculino", "EDAD": "25", "CONDICION": "Motociclista", "TIPO_DE_AC": "Colisión con objeto móvil", "VEHICULOS1": "Motocicleta", "VEHICULOS2": "Bus", "comuna": 9.0, "nombre": "Comuna 9", "id_barrio": 910.0, "barrio": "Barrio Obrero", "Unnamed__0": null, "Unnamed__1": null, "Unnamed__2": null, "Unnamed__3": null, "Unnamed__4": null, "Id": 0, "area": 136572.15568900001 }, "geometry": { "type": "Point", "coordinates": [ -76.521787700432867, 3.449488234003141 ] } },
{ "type": "Feature", "properties": { "ID": 8554.0, "X": 1061940.3, "Y": 873266.1, "Municipio": "CALI", "Codigo": "AI025723", "Fecha": "2025-07-31 00:00:00", "horah": "09:08:00", "hora": 9.0, "semana": 30.0, "mes": 7.0, "Año": 2025.0, "dia_sem": 4.0, "Tipo_Confi": "Lesiones", "direccion": "CARRERA 10 CALLE 23", "Clase_acci": "CHOQUE", "Tipo_Choqu": "VEHICULO", "placas": "SFG88E, KMM706", "No_Vehicul": "2", "Tipo_de_Ve": "MOTOCICLETA,AUTOMOVIL", "Ipat": 1720007.0, "Spoa": 82362.0, "SEXO": null, "EDAD": null, "CONDICION": null, "TIPO_DE_AC": null, "VEHICULOS1": null, "VEHICULOS2": null, "comuna": 9.0, "nombre": "Comuna 9", "id_barrio": 910.0, "barrio": "Barrio Obrero", "Unnamed__0": null, "Unnamed__1": null, "Unnamed__2": null, "Unnamed__3": null, "Unnamed__4": null, "Id": 0, "area": 136572.15568900001 }, "geometry": { "type": "Point", "coordinates": [ -76.520094075477459, 3.44995076850966 ] } },
{ "type": "Feature", "properties": { "ID": 8558.0, "X": 1062115.507, "Y": 873270.9254, "Municipio": "Cali", "Codigo": "<Null>", "Fecha": "2023-11-05 00:00:00", "horah": "<Null>", "hora": 0.0, "semana": 45.0, "mes": 11.0, "Año": 2023.0, "dia_sem": 7.0, "Tipo_Confi": "Lesiones", "direccion": "Carrera 10 Con Calle 25", "Clase_acci": "Choque", "Tipo_Choqu": null, "placas": "VAG660, IVL117", "No_Vehicul": "2", "Tipo_de_Ve": "AUTOMOVIL,CAMPERO", "Ipat": 1629586.0, "Spoa": 83404.0, "SEXO": null, "EDAD": "0", "CONDICION": null, "TIPO_DE_AC": null, "VEHICULOS1": null, "VEHICULOS2": null, "comuna": 9.0, "nombre": "Comuna 9", "id_barrio": 910.0, "barrio": "Barrio Obrero", "Unnamed__0": null, "Unnamed__1": null, "Unnamed__2": null, "Unnamed__3": null, "Unnamed__4": null, "Id": 0, "area": 136572.15568900001 }, "geometry": { "type": "Point", "coordinates": [ -76.51851737565778, 3.449993475371501 ] } },
{ "type": "Feature", "properties": { "ID": 8572.0, "X": 1062038.5, "Y": 873277.3, "Municipio": "CALI", "Codigo": "AI028470", "Fecha": "2025-09-25 00:00:00", "horah": "11:49:00", "hora": 11.0, "semana": 38.0, "mes": 9.0, "Año": 2025.0, "dia_sem": 4.0, "Tipo_Confi": "Lesiones", "direccion": "CALLE 24 CARRERA 10", "Clase_acci": "CHOQUE", "Tipo_Choqu": "VEHICULO", "placas": "BIC00, VCS648", "No_Vehicul": "2", "Tipo_de_Ve": "BICICLETA,AUTOMOVIL", "Ipat": 1720637.0, "Spoa": 83000.0, "SEXO": null, "EDAD": null, "CONDICION": null, "TIPO_DE_AC": null, "VEHICULOS1": null, "VEHICULOS2": null, "comuna": 9.0, "nombre": "Comuna 9", "id_barrio": 910.0, "barrio": "Barrio Obrero", "Unnamed__0": null, "Unnamed__1": null, "Unnamed__2": null, "Unnamed__3": null, "Unnamed__4": null, "Id": 0, "area": 136572.15568900001 }, "geometry": { "type": "Point", "coordinates": [ -76.519210322071743, 3.450051529057628 ] } },
{ "type": "Feature", "properties": { "ID": 8584.0, "X": 1062040.0, "Y": 873286.8, "Municipio": "CALI", "Codigo": "AI031435", "Fecha": "2025-11-24 00:00:00", "horah": "14:16:00", "hora": 14.0, "semana": 47.0, "mes": 11.0, "Año": 2025.0, "dia_sem": 1.0, "Tipo_Confi": "Lesiones", "direccion": "CARRERA 10 CALLE 24", "Clase_acci": "ATROPELLO", "Tipo_Choqu": null, "placas": "NNX731", "No_Vehicul": "1", "Tipo_de_Ve": "AUTOMOVIL", "Ipat": 1721410.0, "Spoa": 83649.0, "SEXO": null, "EDAD": null, "CONDICION": null, "TIPO_DE_AC": null, "VEHICULOS1": null, "VEHICULOS2": null, "comuna": 9.0, "nombre": "Comuna 9", "id_barrio": 910.0, "barrio": "Barrio Obrero", "Unnamed__0": null, "Unnamed__1": null, "Unnamed__2": null, "Unnamed__3": null, "Unnamed__4": null, "Id": 0, "area": 136572.15568900001 }, "geometry": { "type": "Point", "coordinates": [ -76.51919677355238, 3.450137428973218 ] } },
{ "type": "Feature", "properties": { "ID": 8641.0, "X": 1061718.1137699999, "Y": 873316.75246800005, "Municipio": "Cali", "Codigo": "<Null>", "Fecha": "2023-03-31 00:00:00", "horah": "<Null>", "hora": 0.0, "semana": 13.0, "mes": 3.0, "Año": 2023.0, "dia_sem": 5.0, "Tipo_Confi": "Daños", "direccion": "Carrera 9 Con Calle 22", "Clase_acci": "Choque", "Tipo_Choqu": null, "placas": "IIK66A, HYL260, MAG183, FWN457", "No_Vehicul": "4", "Tipo_de_Ve": "AUTOMOVIL,AUTOMOVIL,CAMIONETA,MOTOCICLETA", "Ipat": 1525644.0, "Spoa": 0.0, "SEXO": null, "EDAD": "0", "CONDICION": null, "TIPO_DE_AC": null, "VEHICULOS1": null, "VEHICULOS2": null, "comuna": 9.0, "nombre": "Comuna 9", "id_barrio": 910.0, "barrio": "Barrio Obrero", "Unnamed__0": null, "Unnamed__1": null, "Unnamed__2": null, "Unnamed__3": null, "Unnamed__4": null, "Id": 0, "area": 136572.15568900001 }, "geometry": { "type": "Point", "coordinates": [ -76.522093246971622, 3.450409989849096 ] } },
{ "type": "Feature", "properties": { "ID": 8666.0, "X": 1061815.883, "Y": 873319.5873, "Municipio": "Cali", "Codigo": "<Null>", "Fecha": "2023-12-08 00:00:00", "horah": "<Null>", "hora": 0.0, "semana": 49.0, "mes": 12.0, "Año": 2023.0, "dia_sem": 5.0, "Tipo_Confi": "Daños", "direccion": "CALLE 22 a  CARRERA 9", "Clase_acci": "CHOQUE", "Tipo_Choqu": null, "placas": "dek307,wha75c", "No_Vehicul": "2", "Tipo_de_Ve": "AUTOMOVIL,MOTOCICLETA", "Ipat": 1630136.0, "Spoa": 0.0, "SEXO": null, "EDAD": "0", "CONDICION": null, "TIPO_DE_AC": null, "VEHICULOS1": null, "VEHICULOS2": null, "comuna": 9.0, "nombre": "Comuna 9", "id_barrio": 910.0, "barrio": "Barrio Obrero", "Unnamed__0": null, "Unnamed__1": null, "Unnamed__2": null, "Unnamed__3": null, "Unnamed__4": null, "Id": 0, "area": 136572.15568900001 }, "geometry": { "type": "Point", "coordinates": [ -76.521213413503574, 3.450435108817858 ] } },
{ "type": "Feature", "properties": { "ID": 8715.0, "X": 1061909.9044000001, "Y": 873339.1627, "Municipio": "Cali", "Codigo": "<Null>", "Fecha": "2023-01-29 00:00:00", "horah": "<Null>", "hora": 0.0, "semana": 5.0, "mes": 1.0, "Año": 2023.0, "dia_sem": 7.0, "Tipo_Confi": "Lesiones", "direccion": "Calle 23 Con Carrera 9", "Clase_acci": "Choque", "Tipo_Choqu": null, "placas": "LAN95D, CMM549", "No_Vehicul": "2", "Tipo_de_Ve": "AUTOMOVIL,MOTOCICLETA", "Ipat": 1524577.0, "Spoa": 80253.0, "SEXO": null, "EDAD": "0", "CONDICION": null, "TIPO_DE_AC": null, "VEHICULOS1": null, "VEHICULOS2": null, "comuna": 9.0, "nombre": "Comuna 9", "id_barrio": 910.0, "barrio": "Barrio Obrero", "Unnamed__0": null, "Unnamed__1": null, "Unnamed__2": null, "Unnamed__3": null, "Unnamed__4": null, "Id": 0, "area": 136572.15568900001 }, "geometry": { "type": "Point", "coordinates": [ -76.520367218409319, 3.450611630672746 ] } },
{ "type": "Feature", "properties": { "ID": 8731.0, "X": 1061927.2, "Y": 873343.9, "Municipio": "CALI", "Codigo": "AI024041", "Fecha": "2025-06-25 00:00:00", "horah": "17:34:00", "hora": 17.0, "semana": 25.0, "mes": 6.0, "Año": 2025.0, "dia_sem": 3.0, "Tipo_Confi": "Lesiones", "direccion": "CALLE 23 CARRERA 9", "Clase_acci": "CHOQUE", "Tipo_Choqu": "VEHICULO", "placas": "URT20F, PON142", "No_Vehicul": "2", "Tipo_de_Ve": "MOTOCICLETA,AUTOMOVIL", "Ipat": 1719614.0, "Spoa": 81934.0, "SEXO": null, "EDAD": null, "CONDICION": null, "TIPO_DE_AC": null, "VEHICULOS1": null, "VEHICULOS2": null, "comuna": 9.0, "nombre": "Comuna 9", "id_barrio": 910.0, "barrio": "Barrio Obrero", "Unnamed__0": null, "Unnamed__1": null, "Unnamed__2": null, "Unnamed__3": null, "Unnamed__4": null, "Id": 0, "area": 136572.15568900001 }, "geometry": { "type": "Point", "coordinates": [ -76.520211551542474, 3.450654378216348 ] } },
{ "type": "Feature", "properties": { "ID": 8732.0, "X": 1061927.2, "Y": 873343.9, "Municipio": "CALI", "Codigo": "AI025865", "Fecha": "2025-08-02 00:00:00", "horah": "22:25:00", "hora": 22.0, "semana": 30.0, "mes": 8.0, "Año": 2025.0, "dia_sem": 6.0, "Tipo_Confi": "Lesiones", "direccion": "CALLE 23 CARRERA 9", "Clase_acci": "CHOQUE", "Tipo_Choqu": "VEHICULO", "placas": "COM585, XNF75E", "No_Vehicul": "2", "Tipo_de_Ve": "AUTOMOVIL,MOTOCICLETA", "Ipat": 1720095.0, "Spoa": 82397.0, "SEXO": null, "EDAD": null, "CONDICION": null, "TIPO_DE_AC": null, "VEHICULOS1": null, "VEHICULOS2": null, "comuna": 9.0, "nombre": "Comuna 9", "id_barrio": 910.0, "barrio": "Barrio Obrero", "Unnamed__0": null, "Unnamed__1": null, "Unnamed__2": null, "Unnamed__3": null, "Unnamed__4": null, "Id": 0, "area": 136572.15568900001 }, "geometry": { "type": "Point", "coordinates": [ -76.520211551542474, 3.450654378216348 ] } },
{ "type": "Feature", "properties": { "ID": 8781.0, "X": 1062020.2, "Y": 873364.2, "Municipio": "CALI", "Codigo": "AI028703", "Fecha": "2025-09-30 00:00:00", "horah": "12:44:00", "hora": 12.0, "semana": 39.0, "mes": 9.0, "Año": 2025.0, "dia_sem": 2.0, "Tipo_Confi": "Lesiones", "direccion": "CALLE 24 CARRERA 9", "Clase_acci": "CHOQUE", "Tipo_Choqu": "VEHICULO", "placas": "JOY193, CPU52F", "No_Vehicul": "2", "Tipo_de_Ve": "AUTOMOVIL,MOTOCICLETA", "Ipat": 1720578.0, "Spoa": 83049.0, "SEXO": null, "EDAD": null, "CONDICION": null, "TIPO_DE_AC": null, "VEHICULOS1": null, "VEHICULOS2": null, "comuna": 9.0, "nombre": "Comuna 9", "id_barrio": 910.0, "barrio": "Barrio Obrero", "Unnamed__0": null, "Unnamed__1": null, "Unnamed__2": null, "Unnamed__3": null, "Unnamed__4": null, "Id": 0, "area": 136572.15568900001 }, "geometry": { "type": "Point", "coordinates": [ -76.51937454389234, 3.450837457039516 ] } },
{ "type": "Feature", "properties": { "ID": 8816.0, "X": 1061617.2762, "Y": 873375.7634000001, "Municipio": "CALI", "Codigo": "<Null>", "Fecha": "2023-01-10 00:00:00", "horah": "00:00:00", "hora": 7.0, "semana": 2.0, "mes": 1.0, "Año": 2023.0, "dia_sem": 3.0, "Tipo_Confi": "Mortal", "direccion": "CL 21 KR 8A 58", "Clase_acci": "ATROPELLO", "Tipo_Choqu": null, "placas": "THQ360", "No_Vehicul": "1", "Tipo_de_Ve": "PEATÓN,CAMIÓN", "Ipat": 0.0, "Spoa": 193202300202.0, "SEXO": "Masculino", "EDAD": "70", "CONDICION": "Peatón", "TIPO_DE_AC": "Peatón atropellado", "VEHICULOS1": "Peatón", "VEHICULOS2": "Camión", "comuna": 9.0, "nombre": "Comuna 9", "id_barrio": 909.0, "barrio": "Sucre", "Unnamed__0": null, "Unnamed__1": null, "Unnamed__2": null, "Unnamed__3": null, "Unnamed__4": null, "Id": 0, "area": 136572.15568900001 }, "geometry": { "type": "Point", "coordinates": [ -76.523000368107319, 3.450944153716242 ] } },
{ "type": "Feature", "properties": { "ID": 8820.0, "X": 1061997.1087499999, "Y": 873377.22673300002, "Municipio": "Cali", "Codigo": "<Null>", "Fecha": "2023-03-07 00:00:00", "horah": "<Null>", "hora": 0.0, "semana": 10.0, "mes": 3.0, "Año": 2023.0, "dia_sem": 2.0, "Tipo_Confi": "Lesiones", "direccion": "Carrera 9 Con Calle 24", "Clase_acci": null, "Tipo_Choqu": null, "placas": "PPD61D, OYR042", "No_Vehicul": "2", "Tipo_de_Ve": "CAMPERO,MOTOCICLETA", "Ipat": 1525864.0, "Spoa": 80662.0, "SEXO": null, "EDAD": "0", "CONDICION": null, "TIPO_DE_AC": null, "VEHICULOS1": null, "VEHICULOS2": null, "comuna": 9.0, "nombre": "Comuna 9", "id_barrio": 910.0, "barrio": "Barrio Obrero", "Unnamed__0": null, "Unnamed__1": null, "Unnamed__2": null, "Unnamed__3": null, "Unnamed__4": null, "Id": 0, "area": 136572.15568900001 }, "geometry": { "type": "Point", "coordinates": [ -76.519582271761649, 3.450955379345641 ] } },
{ "type": "Feature", "properties": { "ID": 8824.0, "X": 1061996.95, "Y": 873377.98873400001, "Municipio": null, "Codigo": "<Null>", "Fecha": "2023-08-30 00:00:00", "horah": "<Null>", "hora": 0.0, "semana": 35.0, "mes": 8.0, "Año": 2023.0, "dia_sem": 3.0, "Tipo_Confi": "Lesiones", "direccion": "Calle 24 Con Carrera 9", "Clase_acci": "Choque", "Tipo_Choqu": null, "placas": "COM807, FST21E", "No_Vehicul": "2", "Tipo_de_Ve": "AUTOMOVIL,MOTOCICLETA", "Ipat": 1527947.0, "Spoa": 82587.0, "SEXO": null, "EDAD": "0", "CONDICION": null, "TIPO_DE_AC": null, "VEHICULOS1": null, "VEHICULOS2": null, "comuna": 9.0, "nombre": "Comuna 9", "id_barrio": 910.0, "barrio": "Barrio Obrero", "Unnamed__0": null, "Unnamed__1": null, "Unnamed__2": null, "Unnamed__3": null, "Unnamed__4": null, "Id": 0, "area": 136572.15568900001 }, "geometry": { "type": "Point", "coordinates": [ -76.519583696322812, 3.450962270911963 ] } },
{ "type": "Feature", "properties": { "ID": 8855.0, "X": 1061701.9683000001, "Y": 873393.4654, "Municipio": "Cali", "Codigo": "<Null>", "Fecha": "2023-05-01 00:00:00", "horah": "<Null>", "hora": 0.0, "semana": 18.0, "mes": 5.0, "Año": 2023.0, "dia_sem": 1.0, "Tipo_Confi": "Lesiones", "direccion": "Calle 22 Con Carrera 8A", "Clase_acci": null, "Tipo_Choqu": null, "placas": "IGU225, ENX68C", "No_Vehicul": "2", "Tipo_de_Ve": "AUTOMOVIL,MOTOCICLETA", "Ipat": 1526535.0, "Spoa": 81269.0, "SEXO": null, "EDAD": "0", "CONDICION": null, "TIPO_DE_AC": null, "VEHICULOS1": null, "VEHICULOS2": null, "comuna": 9.0, "nombre": "Comuna 9", "id_barrio": 910.0, "barrio": "Barrio Obrero", "Unnamed__0": null, "Unnamed__1": null, "Unnamed__2": null, "Unnamed__3": null, "Unnamed__4": null, "Id": 0, "area": 136572.15568900001 }, "geometry": { "type": "Point", "coordinates": [ -76.522238136253662, 3.451103785327987 ] } },
{ "type": "Feature", "properties": { "ID": 8874.0, "X": 1061909.9264, "Y": 873339.2178, "Municipio": "Cali", "Codigo": "AI0002000", "Fecha": "2024-01-18 00:00:00", "horah": "5:00:02 p. m.", "hora": 17.0, "semana": 3.0, "mes": 1.0, "Año": 2024.0, "dia_sem": 4.0, "Tipo_Confi": "Lesiones", "direccion": "CARRERA 9 CALLE 23", "Clase_acci": "CHOQUE", "Tipo_Choqu": "VEHICULO", "placas": "GST054,HEY53G", "No_Vehicul": "2", "Tipo_de_Ve": "AUTOMOVIL,MOTOCICLETA", "Ipat": 1630164.0, "Spoa": 80159.0, "SEXO": null, "EDAD": "0", "CONDICION": null, "TIPO_DE_AC": null, "VEHICULOS1": null, "VEHICULOS2": null, "comuna": 9.0, "nombre": "Comuna 9", "id_barrio": 910.0, "barrio": "Barrio Obrero", "Unnamed__0": null, "Unnamed__1": null, "Unnamed__2": null, "Unnamed__3": null, "Unnamed__4": null, "Id": 0, "area": 136572.15568900001 }, "geometry": { "type": "Point", "coordinates": [ -76.520367020142643, 3.450612128822047 ] } },
{ "type": "Feature", "properties": { "ID": 8875.0, "X": 1062002.7635, "Y": 873359.8344000001, "Municipio": "Cali", "Codigo": "AI003618", "Fecha": "2024-02-23 00:00:00", "horah": "2:54:00 p. m.", "hora": 14.0, "semana": 8.0, "mes": 2.0, "Año": 2024.0, "dia_sem": 5.0, "Tipo_Confi": "Lesiones", "direccion": "CARRERA 9 CALLE 24", "Clase_acci": null, "Tipo_Choqu": null, "placas": "FDU36C,EQL943", "No_Vehicul": "0", "Tipo_de_Ve": null, "Ipat": 1630872.0, "Spoa": 80567.0, "SEXO": null, "EDAD": "0", "CONDICION": null, "TIPO_DE_AC": null, "VEHICULOS1": null, "VEHICULOS2": null, "comuna": 9.0, "nombre": "Comuna 9", "id_barrio": 910.0, "barrio": "Barrio Obrero", "Unnamed__0": null, "Unnamed__1": null, "Unnamed__2": null, "Unnamed__3": null, "Unnamed__4": null, "Id": 0, "area": 136572.15568900001 }, "geometry": { "type": "Point", "coordinates": [ -76.519531476794199, 3.450798071650079 ] } },
{ "type": "Feature", "properties": { "ID": 8876.0, "X": 1061986.2657000001, "Y": 873456.3586, "Municipio": "CALI", "Codigo": "AI004875", "Fecha": "2024-03-22 00:00:00", "horah": "30/12/1899 1:04:08 p. m.", "hora": 13.0, "semana": 12.0, "mes": 3.0, "Año": 2024.0, "dia_sem": 5.0, "Tipo_Confi": "Lesiones", "direccion": "CARRERA 8 a , CALLE 24", "Clase_acci": "CHOQUE", "Tipo_Choqu": "VEHICULO", "placas": "KIC712,WGF08C,ZEK56D", "No_Vehicul": "3", "Tipo_de_Ve": "AUTOMOVIL,MOTOCICLETA,MOTOCICLETA", "Ipat": 1631272.0, "Spoa": 80872.0, "SEXO": null, "EDAD": "0", "CONDICION": null, "TIPO_DE_AC": null, "VEHICULOS1": null, "VEHICULOS2": null, "comuna": 9.0, "nombre": "Comuna 9", "id_barrio": 910.0, "barrio": "Barrio Obrero", "Unnamed__0": null, "Unnamed__1": null, "Unnamed__2": null, "Unnamed__3": null, "Unnamed__4": null, "Id": 0, "area": 136572.15568900001 }, "geometry": { "type": "Point", "coordinates": [ -76.519679430261192, 3.451671021081792 ] } },
{ "type": "Feature", "properties": { "ID": 8877.0, "X": 1061986.5638, "Y": 873458.7275, "Municipio": "CALI", "Codigo": "AI006181", "Fecha": "2024-04-23 00:00:00", "horah": "30/12/1899 4:55:49 p. m.", "hora": 16.0, "semana": 17.0, "mes": 4.0, "Año": 2024.0, "dia_sem": 2.0, "Tipo_Confi": "Lesiones", "direccion": "CARRERA 8 A , CALLE 24", "Clase_acci": "CHOQUE", "Tipo_Choqu": "VEHICULO", "placas": "rqv29c ,gvr864", "No_Vehicul": "2", "Tipo_de_Ve": "MOTOCICLETA,AUTOMOVIL", "Ipat": 1631307.0, "Spoa": 81250.0, "SEXO": null, "EDAD": "0", "CONDICION": null, "TIPO_DE_AC": null, "VEHICULOS1": null, "VEHICULOS2": null, "comuna": 9.0, "nombre": "Comuna 9", "id_barrio": 910.0, "barrio": "Barrio Obrero", "Unnamed__0": null, "Unnamed__1": null, "Unnamed__2": null, "Unnamed__3": null, "Unnamed__4": null, "Id": 0, "area": 136572.15568900001 }, "geometry": { "type": "Point", "coordinates": [ -76.519676735181037, 3.451692441308232 ] } },
{ "type": "Feature", "properties": { "ID": 8930.0, "X": 1061615.5163, "Y": 873375.5577, "Municipio": "CALI", "Codigo": "AI010007", "Fecha": "2024-08-03 00:00:00", "horah": "06:53:00", "hora": 6.0, "semana": 31.0, "mes": 8.0, "Año": 2024.0, "dia_sem": 6.0, "Tipo_Confi": "Daños", "direccion": "CARRERA 8 A , CALLE 21", "Clase_acci": "CHOQUE", "Tipo_Choqu": "VEHICULO", "placas": "MKV713", "No_Vehicul": "1", "Tipo_de_Ve": "AUTOMOVIL", "Ipat": 1632943.0, "Spoa": 0.0, "SEXO": null, "EDAD": "0", "CONDICION": null, "TIPO_DE_AC": null, "VEHICULOS1": null, "VEHICULOS2": null, "comuna": 9.0, "nombre": "Comuna 9", "id_barrio": 909.0, "barrio": "Sucre", "Unnamed__0": null, "Unnamed__1": null, "Unnamed__2": null, "Unnamed__3": null, "Unnamed__4": null, "Id": 0, "area": 136572.15568900001 }, "geometry": { "type": "Point", "coordinates": [ -76.523016206416941, 3.450942302854955 ] } },
{ "type": "Feature", "properties": { "ID": 8931.0, "X": 1061616.8106, "Y": 873458.6935000001, "Municipio": "CALI", "Codigo": "AI010879", "Fecha": "2024-08-28 00:00:00", "horah": "23:13:00", "hora": 23.0, "semana": 35.0, "mes": 8.0, "Año": 2024.0, "dia_sem": 3.0, "Tipo_Confi": "Lesiones", "direccion": "CARRERA 8  , CALLE 21", "Clase_acci": "CHOQUE", "Tipo_Choqu": "VEHICULO", "placas": "DED45D, ISU329", "No_Vehicul": "2", "Tipo_de_Ve": "MOTOCICLETA,AUTOMOVIL", "Ipat": 1633268.0, "Spoa": 82621.0, "SEXO": null, "EDAD": "0", "CONDICION": null, "TIPO_DE_AC": null, "VEHICULOS1": null, "VEHICULOS2": null, "comuna": 9.0, "nombre": "Comuna 9", "id_barrio": 909.0, "barrio": "Sucre", "Unnamed__0": null, "Unnamed__1": null, "Unnamed__2": null, "Unnamed__3": null, "Unnamed__4": null, "Id": 0, "area": 136572.15568900001 }, "geometry": { "type": "Point", "coordinates": [ -76.523004123203449, 3.451694088031019 ] } },
{ "type": "Feature", "properties": { "ID": 8933.0, "X": 1061614.4263, "Y": 873459.8784, "Municipio": "CALI", "Codigo": "AI011543", "Fecha": "2024-09-12 00:00:00", "horah": "20:20:00", "hora": 20.0, "semana": 37.0, "mes": 9.0, "Año": 2024.0, "dia_sem": 4.0, "Tipo_Confi": "Lesiones", "direccion": "CARRERA 8  , CALLE 21", "Clase_acci": "CHOQUE", "Tipo_Choqu": "VEHICULO", "placas": "QQW12F, QNP97E", "No_Vehicul": "2", "Tipo_de_Ve": "MOTOCICLETA,MOTOCICLETA", "Ipat": 1633540.0, "Spoa": 82849.0, "SEXO": null, "EDAD": "0", "CONDICION": null, "TIPO_DE_AC": null, "VEHICULOS1": null, "VEHICULOS2": null, "comuna": 9.0, "nombre": "Comuna 9", "id_barrio": 909.0, "barrio": "Sucre", "Unnamed__0": null, "Unnamed__1": null, "Unnamed__2": null, "Unnamed__3": null, "Unnamed__4": null, "Id": 0, "area": 136572.15568900001 }, "geometry": { "type": "Point", "coordinates": [ -76.523025573175588, 3.451704815573095 ] } },
{ "type": "Feature", "properties": { "ID": 8934.0, "X": 1061614.4263, "Y": 873459.8784, "Municipio": "CALI", "Codigo": "AI011845", "Fecha": "2024-09-20 00:00:00", "horah": "01:56:00", "hora": 1.0, "semana": 38.0, "mes": 9.0, "Año": 2024.0, "dia_sem": 5.0, "Tipo_Confi": "Lesiones", "direccion": "CARRERA 8  , CALLE 21", "Clase_acci": "CHOQUE", "Tipo_Choqu": "VEHICULO", "placas": "GYN191, NEJ301", "No_Vehicul": "2", "Tipo_de_Ve": "AUTOMOVIL,VOLQUETA", "Ipat": 1633594.0, "Spoa": 82954.0, "SEXO": null, "EDAD": "0", "CONDICION": null, "TIPO_DE_AC": null, "VEHICULOS1": null, "VEHICULOS2": null, "comuna": 9.0, "nombre": "Comuna 9", "id_barrio": 909.0, "barrio": "Sucre", "Unnamed__0": null, "Unnamed__1": null, "Unnamed__2": null, "Unnamed__3": null, "Unnamed__4": null, "Id": 0, "area": 136572.15568900001 }, "geometry": { "type": "Point", "coordinates": [ -76.523025573175588, 3.451704815573095 ] } },
{ "type": "Feature", "properties": { "ID": 8935.0, "X": 1061614.4263, "Y": 873459.8784, "Municipio": "CALI", "Codigo": "AI013787", "Fecha": "2024-11-08 00:00:00", "horah": "15:11:00", "hora": 15.0, "semana": 45.0, "mes": 11.0, "Año": 2024.0, "dia_sem": 5.0, "Tipo_Confi": "Lesiones", "direccion": "CARRERA 8  , CALLE 21", "Clase_acci": "ATROPELLO", "Tipo_Choqu": null, "placas": "XJG55F", "No_Vehicul": "1", "Tipo_de_Ve": "MOTOCICLETA", "Ipat": 1634234.0, "Spoa": 83517.0, "SEXO": null, "EDAD": "0", "CONDICION": null, "TIPO_DE_AC": null, "VEHICULOS1": null, "VEHICULOS2": null, "comuna": 9.0, "nombre": "Comuna 9", "id_barrio": 909.0, "barrio": "Sucre", "Unnamed__0": null, "Unnamed__1": null, "Unnamed__2": null, "Unnamed__3": null, "Unnamed__4": null, "Id": 0, "area": 136572.15568900001 }, "geometry": { "type": "Point", "coordinates": [ -76.523025573175588, 3.451704815573095 ] } },
{ "type": "Feature", "properties": { "ID": 9001.0, "X": 1061609.0584, "Y": 873449.6483, "Municipio": "Cali", "Codigo": "<Null>", "Fecha": "2023-02-15 00:00:00", "horah": "<Null>", "hora": 0.0, "semana": 7.0, "mes": 2.0, "Año": 2023.0, "dia_sem": 3.0, "Tipo_Confi": "Lesiones", "direccion": "Carrera 8 Con Calle 21", "Clase_acci": "Choque", "Tipo_Choqu": null, "placas": "WMV897, SHB26B", "No_Vehicul": "2", "Tipo_de_Ve": "AUTOMOVIL,MOTOCICLETA", "Ipat": 1525165.0, "Spoa": 80425.0, "SEXO": null, "EDAD": "0", "CONDICION": null, "TIPO_DE_AC": null, "VEHICULOS1": null, "VEHICULOS2": null, "comuna": 9.0, "nombre": "Comuna 9", "id_barrio": 909.0, "barrio": "Sucre", "Unnamed__0": null, "Unnamed__1": null, "Unnamed__2": null, "Unnamed__3": null, "Unnamed__4": null, "Id": 0, "area": 136572.15568900001 }, "geometry": { "type": "Point", "coordinates": [ -76.523073932250341, 3.451612333681942 ] } },
{ "type": "Feature", "properties": { "ID": 9002.0, "X": 1061609.0584, "Y": 873449.6483, "Municipio": "Cali", "Codigo": "<Null>", "Fecha": "2023-05-05 00:00:00", "horah": "<Null>", "hora": 0.0, "semana": 18.0, "mes": 5.0, "Año": 2023.0, "dia_sem": 5.0, "Tipo_Confi": "Lesiones", "direccion": "Calle 21 Con Carrera 8", "Clase_acci": "Volcamiento", "Tipo_Choqu": null, "placas": "HMJ91A, VCU215", "No_Vehicul": "2", "Tipo_de_Ve": "AUTOMOVIL,MOTOCICLETA", "Ipat": 1526562.0, "Spoa": 81303.0, "SEXO": null, "EDAD": "0", "CONDICION": null, "TIPO_DE_AC": null, "VEHICULOS1": null, "VEHICULOS2": null, "comuna": 9.0, "nombre": "Comuna 9", "id_barrio": 909.0, "barrio": "Sucre", "Unnamed__0": null, "Unnamed__1": null, "Unnamed__2": null, "Unnamed__3": null, "Unnamed__4": null, "Id": 0, "area": 136572.15568900001 }, "geometry": { "type": "Point", "coordinates": [ -76.523073932250341, 3.451612333681942 ] } },
{ "type": "Feature", "properties": { "ID": 9003.0, "X": 1061609.0584, "Y": 873449.6483, "Municipio": "Cali", "Codigo": "<Null>", "Fecha": "2023-09-18 00:00:00", "horah": "<Null>", "hora": 0.0, "semana": 38.0, "mes": 9.0, "Año": 2023.0, "dia_sem": 1.0, "Tipo_Confi": "Daños", "direccion": "Calle 21 Con Carrera 8", "Clase_acci": "Choque", "Tipo_Choqu": null, "placas": "GNT670", "No_Vehicul": "1", "Tipo_de_Ve": "TRACTO/CAMION", "Ipat": 1527570.0, "Spoa": 0.0, "SEXO": null, "EDAD": "0", "CONDICION": null, "TIPO_DE_AC": null, "VEHICULOS1": null, "VEHICULOS2": null, "comuna": 9.0, "nombre": "Comuna 9", "id_barrio": 909.0, "barrio": "Sucre", "Unnamed__0": null, "Unnamed__1": null, "Unnamed__2": null, "Unnamed__3": null, "Unnamed__4": null, "Id": 0, "area": 136572.15568900001 }, "geometry": { "type": "Point", "coordinates": [ -76.523073932250341, 3.451612333681942 ] } },
{ "type": "Feature", "properties": { "ID": 9026.0, "X": 1061627.2, "Y": 873457.6, "Municipio": "CALI", "Codigo": "AI029257", "Fecha": "2025-10-11 00:00:00", "horah": "04:05:00", "hora": 4.0, "semana": 40.0, "mes": 10.0, "Año": 2025.0, "dia_sem": 6.0, "Tipo_Confi": "Daños", "direccion": "CALLE 21 CARRERA 8", "Clase_acci": "CHOQUE", "Tipo_Choqu": "VEHICULO", "placas": "FZY433, KLR982", "No_Vehicul": "2", "Tipo_de_Ve": "MOTOCICLETA,AUTOMOVIL", "Ipat": 1720659.0, "Spoa": 0.0, "SEXO": null, "EDAD": null, "CONDICION": null, "TIPO_DE_AC": null, "VEHICULOS1": null, "VEHICULOS2": null, "comuna": 9.0, "nombre": "Comuna 9", "id_barrio": 910.0, "barrio": "Barrio Obrero", "Unnamed__0": null, "Unnamed__1": null, "Unnamed__2": null, "Unnamed__3": null, "Unnamed__4": null, "Id": 0, "area": 136572.15568900001 }, "geometry": { "type": "Point", "coordinates": [ -76.522910635297677, 3.451684144827706 ] } },
{ "type": "Feature", "properties": { "ID": 9030.0, "X": 1061614.4263, "Y": 873459.8784, "Municipio": "CALI", "Codigo": "AI014156", "Fecha": "2024-11-17 00:00:00", "horah": "21:31:00", "hora": 21.0, "semana": 47.0, "mes": 11.0, "Año": 2024.0, "dia_sem": 7.0, "Tipo_Confi": "Lesiones", "direccion": "CALLE 21  , CARRERA 8", "Clase_acci": "CHOQUE", "Tipo_Choqu": "VEHICULO", "placas": "VCK874, KSA89F", "No_Vehicul": "2", "Tipo_de_Ve": "AUTOMOVIL,MOTOCICLETA", "Ipat": 1634342.0, "Spoa": 83608.0, "SEXO": null, "EDAD": "0", "CONDICION": null, "TIPO_DE_AC": null, "VEHICULOS1": null, "VEHICULOS2": null, "comuna": 9.0, "nombre": "Comuna 9", "id_barrio": 909.0, "barrio": "Sucre", "Unnamed__0": null, "Unnamed__1": null, "Unnamed__2": null, "Unnamed__3": null, "Unnamed__4": null, "Id": 0, "area": 136572.15568900001 }, "geometry": { "type": "Point", "coordinates": [ -76.523025573175588, 3.451704815573095 ] } },
{ "type": "Feature", "properties": { "ID": 9031.0, "X": 1061614.4263, "Y": 873459.8784, "Municipio": "CALI", "Codigo": "AI015005", "Fecha": "2024-12-05 00:00:00", "horah": "18:17:00", "hora": 18.0, "semana": 49.0, "mes": 12.0, "Año": 2024.0, "dia_sem": 4.0, "Tipo_Confi": "Lesiones", "direccion": "CARRERA 8  , CALLE 21", "Clase_acci": "CHOQUE", "Tipo_Choqu": "VEHICULO", "placas": "ESX572, MUW60D", "No_Vehicul": "2", "Tipo_de_Ve": "CAMIONETA,MOTOCICLETA", "Ipat": 1634330.0, "Spoa": 83832.0, "SEXO": null, "EDAD": "0", "CONDICION": null, "TIPO_DE_AC": null, "VEHICULOS1": null, "VEHICULOS2": null, "comuna": 9.0, "nombre": "Comuna 9", "id_barrio": 909.0, "barrio": "Sucre", "Unnamed__0": null, "Unnamed__1": null, "Unnamed__2": null, "Unnamed__3": null, "Unnamed__4": null, "Id": 0, "area": 136572.15568900001 }, "geometry": { "type": "Point", "coordinates": [ -76.523025573175588, 3.451704815573095 ] } },
{ "type": "Feature", "properties": { "ID": 9048.0, "X": 1061976.58556, "Y": 873470.15809000004, "Municipio": "Cali", "Codigo": "<Null>", "Fecha": "2023-03-15 00:00:00", "horah": "<Null>", "hora": 0.0, "semana": 11.0, "mes": 3.0, "Año": 2023.0, "dia_sem": 3.0, "Tipo_Confi": "Lesiones", "direccion": "Calle 24 Con Carrera 8A", "Clase_acci": "Choque", "Tipo_Choqu": null, "placas": "jvu81g, jfw704", "No_Vehicul": "2", "Tipo_de_Ve": "CAMIONETA,MOTOCICLETA", "Ipat": 1525614.0, "Spoa": 80741.0, "SEXO": null, "EDAD": "0", "CONDICION": null, "TIPO_DE_AC": null, "VEHICULOS1": null, "VEHICULOS2": null, "comuna": 9.0, "nombre": "Comuna 9", "id_barrio": 910.0, "barrio": "Barrio Obrero", "Unnamed__0": null, "Unnamed__1": null, "Unnamed__2": null, "Unnamed__3": null, "Unnamed__4": null, "Id": 0, "area": 136572.15568900001 }, "geometry": { "type": "Point", "coordinates": [ -76.519766468476774, 3.451795860271443 ] } },
{ "type": "Feature", "properties": { "ID": 9071.0, "X": 1061996.6, "Y": 873485.8, "Municipio": "CALI", "Codigo": "AI019550", "Fecha": "2025-03-19 00:00:00", "horah": "22:55:00", "hora": 22.0, "semana": 11.0, "mes": 3.0, "Año": 2025.0, "dia_sem": 3.0, "Tipo_Confi": "Lesiones", "direccion": "CARRERA 8 A , CALLE 24", "Clase_acci": "VOLCAMIENTO", "Tipo_Choqu": null, "placas": "VCQ629, QEG03D", "No_Vehicul": "2", "Tipo_de_Ve": "AUTOMOVIL,MOTOCICLETA", "Ipat": 1635940.0, "Spoa": 80879.0, "SEXO": null, "EDAD": null, "CONDICION": null, "TIPO_DE_AC": null, "VEHICULOS1": null, "VEHICULOS2": null, "comuna": 9.0, "nombre": "Comuna 9", "id_barrio": 910.0, "barrio": "Barrio Obrero", "Unnamed__0": null, "Unnamed__1": null, "Unnamed__2": null, "Unnamed__3": null, "Unnamed__4": null, "Id": 0, "area": 136572.15568900001 }, "geometry": { "type": "Point", "coordinates": [ -76.519586277180309, 3.451937202932352 ] } },
{ "type": "Feature", "properties": { "ID": 9087.0, "X": 1061731.753, "Y": 873500.2124, "Municipio": "CALI", "Codigo": "AI012346", "Fecha": "2024-10-03 00:00:00", "horah": "06:19:00", "hora": 6.0, "semana": 40.0, "mes": 10.0, "Año": 2024.0, "dia_sem": 4.0, "Tipo_Confi": "Lesiones", "direccion": "CALLE 22  , CARRERA 8", "Clase_acci": "VOLCAMIENTO", "Tipo_Choqu": null, "placas": "ACJ82E", "No_Vehicul": "1", "Tipo_de_Ve": "MOTOCICLETA", "Ipat": 1633651.0, "Spoa": 83104.0, "SEXO": null, "EDAD": "0", "CONDICION": null, "TIPO_DE_AC": null, "VEHICULOS1": null, "VEHICULOS2": null, "comuna": 9.0, "nombre": "Comuna 9", "id_barrio": 910.0, "barrio": "Barrio Obrero", "Unnamed__0": null, "Unnamed__1": null, "Unnamed__2": null, "Unnamed__3": null, "Unnamed__4": null, "Id": 0, "area": 136572.15568900001 }, "geometry": { "type": "Point", "coordinates": [ -76.521969544805515, 3.452068934623779 ] } },
{ "type": "Feature", "properties": { "ID": 9130.0, "X": 1061735.8, "Y": 873513.2, "Municipio": "CALI", "Codigo": "AI026548", "Fecha": "2025-08-18 00:00:00", "horah": "04:21:00", "hora": 4.0, "semana": 33.0, "mes": 8.0, "Año": 2025.0, "dia_sem": 1.0, "Tipo_Confi": "Daños", "direccion": "CARRERA 8 CALLE 22", "Clase_acci": "CHOQUE", "Tipo_Choqu": "VEHICULO", "placas": "MLD71F, JJZ70F", "No_Vehicul": "2", "Tipo_de_Ve": "MOTOCICLETA,MOTOCICLETA", "Ipat": 1720316.0, "Spoa": 0.0, "SEXO": null, "EDAD": null, "CONDICION": null, "TIPO_DE_AC": null, "VEHICULOS1": null, "VEHICULOS2": null, "comuna": 3.0, "nombre": "Comuna 3", "id_barrio": 312.0, "barrio": "San Nicolás", "Unnamed__0": null, "Unnamed__1": null, "Unnamed__2": null, "Unnamed__3": null, "Unnamed__4": null, "Id": 0, "area": 136572.15568900001 }, "geometry": { "type": "Point", "coordinates": [ -76.52193305782383, 3.452186359311415 ] } },
{ "type": "Feature", "properties": { "ID": 9182.0, "X": 1061866.5613, "Y": 873527.2861, "Municipio": "Cali", "Codigo": "<Null>", "Fecha": "2023-08-04 00:00:00", "horah": "<Null>", "hora": 0.0, "semana": 31.0, "mes": 8.0, "Año": 2023.0, "dia_sem": 5.0, "Tipo_Confi": "Daños", "direccion": "Calle 23 Con Carrera 8", "Clase_acci": null, "Tipo_Choqu": null, "placas": "KUY31B, ONK451", "No_Vehicul": "2", "Tipo_de_Ve": "CAMIONETA,MOTOCICLETA", "Ipat": 1527692.0, "Spoa": 0.0, "SEXO": null, "EDAD": "0", "CONDICION": null, "TIPO_DE_AC": null, "VEHICULOS1": null, "VEHICULOS2": null, "comuna": 9.0, "nombre": "Comuna 9", "id_barrio": 910.0, "barrio": "Barrio Obrero", "Unnamed__0": null, "Unnamed__1": null, "Unnamed__2": null, "Unnamed__3": null, "Unnamed__4": null, "Id": 0, "area": 136572.15568900001 }, "geometry": { "type": "Point", "coordinates": [ -76.520756269602117, 3.452313047827889 ] } },
{ "type": "Feature", "properties": { "ID": 9183.0, "X": 1061866.5613, "Y": 873527.2861, "Municipio": "Cali", "Codigo": "<Null>", "Fecha": "2023-09-23 00:00:00", "horah": "<Null>", "hora": 0.0, "semana": 38.0, "mes": 9.0, "Año": 2023.0, "dia_sem": 6.0, "Tipo_Confi": "Lesiones", "direccion": "Calle 23 Con Carrera 8", "Clase_acci": "Choque", "Tipo_Choqu": null, "placas": "TXG95F, NOZ05F", "No_Vehicul": "2", "Tipo_de_Ve": "MOTOCICLETA,MOTOCICLETA", "Ipat": 1525266.0, "Spoa": 82898.0, "SEXO": null, "EDAD": "0", "CONDICION": null, "TIPO_DE_AC": null, "VEHICULOS1": null, "VEHICULOS2": null, "comuna": 9.0, "nombre": "Comuna 9", "id_barrio": 910.0, "barrio": "Barrio Obrero", "Unnamed__0": null, "Unnamed__1": null, "Unnamed__2": null, "Unnamed__3": null, "Unnamed__4": null, "Id": 0, "area": 136572.15568900001 }, "geometry": { "type": "Point", "coordinates": [ -76.520756269602117, 3.452313047827889 ] } },
{ "type": "Feature", "properties": { "ID": 9187.0, "X": 1061884.9, "Y": 873530.1, "Municipio": "CALI", "Codigo": "AI029720", "Fecha": "2025-10-20 00:00:00", "horah": "14:07:00", "hora": 14.0, "semana": 42.0, "mes": 10.0, "Año": 2025.0, "dia_sem": 1.0, "Tipo_Confi": "Lesiones", "direccion": "CALLE 23 CARRERA 8", "Clase_acci": "ATROPELLO", "Tipo_Choqu": null, "placas": "MMK09G", "No_Vehicul": "1", "Tipo_de_Ve": "MOTOCICLETA", "Ipat": 1721011.0, "Spoa": 83265.0, "SEXO": null, "EDAD": null, "CONDICION": null, "TIPO_DE_AC": null, "VEHICULOS1": null, "VEHICULOS2": null, "comuna": 9.0, "nombre": "Comuna 9", "id_barrio": 910.0, "barrio": "Barrio Obrero", "Unnamed__0": null, "Unnamed__1": null, "Unnamed__2": null, "Unnamed__3": null, "Unnamed__4": null, "Id": 0, "area": 136572.15568900001 }, "geometry": { "type": "Point", "coordinates": [ -76.520591225782184, 3.452338396688391 ] } },
{ "type": "Feature", "properties": { "ID": 9210.0, "X": 1061708.0474, "Y": 873398.7519, "Municipio": "CALI", "Codigo": "AI013518", "Fecha": "2024-11-02 00:00:00", "horah": "08:32:00", "hora": 8.0, "semana": 44.0, "mes": 11.0, "Año": 2024.0, "dia_sem": 6.0, "Tipo_Confi": "Lesiones", "direccion": "AVENIDA 5  OCCIDENTE, CALLE 22  OCCIDENTE", "Clase_acci": "ATROPELLO", "Tipo_Choqu": null, "placas": "GUO50B", "No_Vehicul": "1", "Tipo_de_Ve": "MOTOCICLETA", "Ipat": 1633911.0, "Spoa": 83434.0, "SEXO": null, "EDAD": "0", "CONDICION": null, "TIPO_DE_AC": null, "VEHICULOS1": null, "VEHICULOS2": null, "comuna": 1.0, "nombre": "Comuna 1", "id_barrio": 101.0, "barrio": "Terron Colorado", "Unnamed__0": null, "Unnamed__1": null, "Unnamed__2": null, "Unnamed__3": null, "Unnamed__4": null, "Id": 0, "area": 136572.15568900001 }, "geometry": { "type": "Point", "coordinates": [ -76.522183403049908, 3.451151558747303 ] } },
{ "type": "Feature", "properties": { "ID": 9225.0, "X": 1061964.8057, "Y": 873550.4006000001, "Municipio": "Cali", "Codigo": "<Null>", "Fecha": "2023-05-25 00:00:00", "horah": "<Null>", "hora": 0.0, "semana": 21.0, "mes": 5.0, "Año": 2023.0, "dia_sem": 4.0, "Tipo_Confi": "Lesiones", "direccion": "Calle 24 Con Carrera 8", "Clase_acci": null, "Tipo_Choqu": null, "placas": "WDO29F, WAB261", "No_Vehicul": "2", "Tipo_de_Ve": "CAMPERO,MOTOCICLETA", "Ipat": 1526795.0, "Spoa": 81510.0, "SEXO": null, "EDAD": "0", "CONDICION": null, "TIPO_DE_AC": null, "VEHICULOS1": null, "VEHICULOS2": null, "comuna": 9.0, "nombre": "Comuna 9", "id_barrio": 910.0, "barrio": "Barrio Obrero", "Unnamed__0": null, "Unnamed__1": null, "Unnamed__2": null, "Unnamed__3": null, "Unnamed__4": null, "Id": 0, "area": 136572.15568900001 }, "geometry": { "type": "Point", "coordinates": [ -76.519872051547551, 3.452521550449518 ] } },
{ "type": "Feature", "properties": { "ID": 9226.0, "X": 1061968.9844, "Y": 873551.0642, "Municipio": "CALI", "Codigo": "AI015940", "Fecha": "2024-12-24 00:00:00", "horah": "04:39:00", "hora": 4.0, "semana": 52.0, "mes": 12.0, "Año": 2024.0, "dia_sem": 2.0, "Tipo_Confi": "Lesiones", "direccion": "CARRERA 8  , CALLE 24", "Clase_acci": "CHOQUE", "Tipo_Choqu": "VEHICULO", "placas": "VCZ097, ESZ191", "No_Vehicul": "2", "Tipo_de_Ve": "AUTOMOVIL,CAMIONETA", "Ipat": 1634913.0, "Spoa": 84067.0, "SEXO": null, "EDAD": "0", "CONDICION": null, "TIPO_DE_AC": null, "VEHICULOS1": null, "VEHICULOS2": null, "comuna": 9.0, "nombre": "Comuna 9", "id_barrio": 910.0, "barrio": "Barrio Obrero", "Unnamed__0": null, "Unnamed__1": null, "Unnamed__2": null, "Unnamed__3": null, "Unnamed__4": null, "Id": 0, "area": 136572.15568900001 }, "geometry": { "type": "Point", "coordinates": [ -76.519834444142433, 3.452527529191444 ] } },
{ "type": "Feature", "properties": { "ID": 9264.0, "X": 1061972.3, "Y": 873567.4, "Municipio": "CALI", "Codigo": "AI021286", "Fecha": "2025-04-28 00:00:00", "horah": "08:16:00", "hora": 8.0, "semana": 17.0, "mes": 4.0, "Año": 2025.0, "dia_sem": 1.0, "Tipo_Confi": "Lesiones", "direccion": "CARRERA 8 CALLE 24", "Clase_acci": "CHOQUE", "Tipo_Choqu": "VEHICULO", "placas": "TZN284, TFZ92G", "No_Vehicul": "2", "Tipo_de_Ve": "AUTOMOVIL,MOTOCICLETA", "Ipat": 1636406.0, "Spoa": 81292.0, "SEXO": null, "EDAD": null, "CONDICION": null, "TIPO_DE_AC": null, "VEHICULOS1": null, "VEHICULOS2": null, "comuna": 3.0, "nombre": "Comuna 3", "id_barrio": 312.0, "barrio": "San Nicolás", "Unnamed__0": null, "Unnamed__1": null, "Unnamed__2": null, "Unnamed__3": null, "Unnamed__4": null, "Id": 0, "area": 136572.15568900001 }, "geometry": { "type": "Point", "coordinates": [ -76.519804521053587, 3.452675235179519 ] } },
{ "type": "Feature", "properties": { "ID": 9270.0, "X": 1062052.9367, "Y": 873570.4185, "Municipio": "Cali", "Codigo": "<Null>", "Fecha": "2023-07-30 00:00:00", "horah": "<Null>", "hora": 0.0, "semana": 31.0, "mes": 7.0, "Año": 2023.0, "dia_sem": 7.0, "Tipo_Confi": "Lesiones", "direccion": "Carrera 8 Con Calle 25", "Clase_acci": "Choque", "Tipo_Choqu": null, "placas": "BICICLETA, FJR112", "No_Vehicul": "2", "Tipo_de_Ve": "AUTOMOVIL", "Ipat": 1527660.0, "Spoa": 85252.0, "SEXO": null, "EDAD": "0", "CONDICION": null, "TIPO_DE_AC": null, "VEHICULOS1": null, "VEHICULOS2": null, "comuna": 9.0, "nombre": "Comuna 9", "id_barrio": 910.0, "barrio": "Barrio Obrero", "Unnamed__0": null, "Unnamed__1": null, "Unnamed__2": null, "Unnamed__3": null, "Unnamed__4": null, "Id": 0, "area": 136572.15568900001 }, "geometry": { "type": "Point", "coordinates": [ -76.51907885955994, 3.452702103523388 ] } },
{ "type": "Feature", "properties": { "ID": 9271.0, "X": 1062052.9367, "Y": 873570.4185, "Municipio": null, "Codigo": "<Null>", "Fecha": "2023-08-28 00:00:00", "horah": "<Null>", "hora": 0.0, "semana": 35.0, "mes": 8.0, "Año": 2023.0, "dia_sem": 1.0, "Tipo_Confi": "Lesiones", "direccion": "Calle 25 Con Carrera 8", "Clase_acci": "Choque", "Tipo_Choqu": null, "placas": "TZN306, PSN77G", "No_Vehicul": "2", "Tipo_de_Ve": "CAMIONETA,MOTOCICLETA", "Ipat": 1527941.0, "Spoa": 82561.0, "SEXO": null, "EDAD": "0", "CONDICION": null, "TIPO_DE_AC": null, "VEHICULOS1": null, "VEHICULOS2": null, "comuna": 9.0, "nombre": "Comuna 9", "id_barrio": 910.0, "barrio": "Barrio Obrero", "Unnamed__0": null, "Unnamed__1": null, "Unnamed__2": null, "Unnamed__3": null, "Unnamed__4": null, "Id": 0, "area": 136572.15568900001 }, "geometry": { "type": "Point", "coordinates": [ -76.51907885955994, 3.452702103523388 ] } },
{ "type": "Feature", "properties": { "ID": 13716.0, "X": 1061896.0, "Y": 873045.2, "Municipio": "CALI", "Codigo": "AI038154", "Fecha": "2026-04-15 00:00:00", "horah": "10:38:00", "hora": 10.0, "semana": 16.0, "mes": 4.0, "Año": 2026.0, "dia_sem": 4.0, "Tipo_Confi": "Lesiones", "direccion": "CALLE 22 A CARRERA 11 B", "Clase_acci": "ATROPELLO", "Tipo_Choqu": null, "placas": "XCU67H", "No_Vehicul": "1", "Tipo_de_Ve": "MOTOCICLETA,PEATÓN", "Ipat": 1797821.0, "Spoa": 81109.0, "SEXO": null, "EDAD": null, "CONDICION": null, "TIPO_DE_AC": null, "VEHICULOS1": null, "VEHICULOS2": null, "comuna": 9.0, "nombre": "Comuna 9", "id_barrio": 910.0, "barrio": "Barrio Obrero", "Unnamed__0": null, "Unnamed__1": null, "Unnamed__2": null, "Unnamed__3": null, "Unnamed__4": null, "Id": 0, "area": 136572.15568900001 }, "geometry": { "type": "Point", "coordinates": [ -76.520493890481831, 3.447953418422142 ] } },
{ "type": "Feature", "properties": { "ID": 13736.0, "X": 1061680.7, "Y": 873178.3, "Municipio": "CALI", "Codigo": "AI037326", "Fecha": "2026-03-27 00:00:00", "horah": "07:31:00", "hora": 7.0, "semana": 12.0, "mes": 3.0, "Año": 2026.0, "dia_sem": 6.0, "Tipo_Confi": "Lesiones", "direccion": "CALLE 21 CARRERA 10", "Clase_acci": "CHOQUE", "Tipo_Choqu": "VEHICULO", "placas": "CAT466", "No_Vehicul": "1", "Tipo_de_Ve": "AUTOMOVIL", "Ipat": 1797610.0, "Spoa": 80923.0, "SEXO": null, "EDAD": null, "CONDICION": null, "TIPO_DE_AC": null, "VEHICULOS1": null, "VEHICULOS2": null, "comuna": 9.0, "nombre": "Comuna 9", "id_barrio": 910.0, "barrio": "Barrio Obrero", "Unnamed__0": null, "Unnamed__1": null, "Unnamed__2": null, "Unnamed__3": null, "Unnamed__4": null, "Id": 0, "area": 136572.15568900001 }, "geometry": { "type": "Point", "coordinates": [ -76.522430657289036, 3.449158169999126 ] } },
{ "type": "Feature", "properties": { "ID": 13737.0, "X": 1061680.7, "Y": 873178.3, "Municipio": "CALI", "Codigo": null, "Fecha": "2026-05-10 00:00:00", "horah": "07:45:00", "hora": 7.0, "semana": 20.0, "mes": 5.0, "Año": 2026.0, "dia_sem": 1.0, "Tipo_Confi": "Mortal", "direccion": "CL 21 KR 10", "Clase_acci": "ATROPELLO", "Tipo_Choqu": null, "placas": "DOH14H", "No_Vehicul": "1", "Tipo_de_Ve": "MOTOCICLETA,PEATÓN", "Ipat": 0.0, "Spoa": 193202606308.0, "SEXO": "Masculino", "EDAD": "69", "CONDICION": "Peatón", "TIPO_DE_AC": "Peatón atropellado", "VEHICULOS1": "Peatón", "VEHICULOS2": "Motocicleta", "comuna": 9.0, "nombre": "Comuna 9", "id_barrio": 910.0, "barrio": "Barrio Obrero", "Unnamed__0": null, "Unnamed__1": null, "Unnamed__2": null, "Unnamed__3": null, "Unnamed__4": null, "Id": 0, "area": 136572.15568900001 }, "geometry": { "type": "Point", "coordinates": [ -76.522430657289036, 3.449158169999126 ] } },
{ "type": "Feature", "properties": { "ID": 13738.0, "X": 1061680.7, "Y": 873178.3, "Municipio": "CALI", "Codigo": "AI039533", "Fecha": "2026-05-10 00:00:00", "horah": "07:47:00", "hora": 7.0, "semana": 19.0, "mes": 5.0, "Año": 2026.0, "dia_sem": 1.0, "Tipo_Confi": "Lesiones", "direccion": "CALLE 21 CARRERA 10", "Clase_acci": "ATROPELLO", "Tipo_Choqu": null, "placas": "DOH14H", "No_Vehicul": "1", "Tipo_de_Ve": "MOTOCICLETA,PEATÓN", "Ipat": 1798148.0, "Spoa": 81410.0, "SEXO": null, "EDAD": null, "CONDICION": null, "TIPO_DE_AC": null, "VEHICULOS1": null, "VEHICULOS2": null, "comuna": 9.0, "nombre": "Comuna 9", "id_barrio": 910.0, "barrio": "Barrio Obrero", "Unnamed__0": null, "Unnamed__1": null, "Unnamed__2": null, "Unnamed__3": null, "Unnamed__4": null, "Id": 0, "area": 136572.15568900001 }, "geometry": { "type": "Point", "coordinates": [ -76.522430657289036, 3.449158169999126 ] } },
{ "type": "Feature", "properties": { "ID": 13750.0, "X": 1061940.3, "Y": 873266.1, "Municipio": "CALI", "Codigo": "AI036174", "Fecha": "2026-03-05 00:00:00", "horah": "17:17:00", "hora": 17.0, "semana": 9.0, "mes": 3.0, "Año": 2026.0, "dia_sem": 5.0, "Tipo_Confi": "Lesiones", "direccion": "CARRERA 10 CALLE 23", "Clase_acci": "ATROPELLO", "Tipo_Choqu": null, "placas": "VWK79F", "No_Vehicul": "1", "Tipo_de_Ve": "MOTOCICLETA,PEATÓN", "Ipat": 1797265.0, "Spoa": 80658.0, "SEXO": null, "EDAD": null, "CONDICION": null, "TIPO_DE_AC": null, "VEHICULOS1": null, "VEHICULOS2": null, "comuna": 9.0, "nombre": "Comuna 9", "id_barrio": 910.0, "barrio": "Barrio Obrero", "Unnamed__0": null, "Unnamed__1": null, "Unnamed__2": null, "Unnamed__3": null, "Unnamed__4": null, "Id": 0, "area": 136572.15568900001 }, "geometry": { "type": "Point", "coordinates": [ -76.520094075477459, 3.44995076850966 ] } },
{ "type": "Feature", "properties": { "ID": 13760.0, "X": 1061741.3, "Y": 873303.5, "Municipio": "CALI", "Codigo": "AI037340", "Fecha": "2026-03-27 00:00:00", "horah": "13:22:00", "hora": 13.0, "semana": 12.0, "mes": 3.0, "Año": 2026.0, "dia_sem": 6.0, "Tipo_Confi": "Daños", "direccion": "CALLE 22 CARRERA 9", "Clase_acci": "CHOQUE", "Tipo_Choqu": "OBJETO FIJO", "placas": "SNM037", "No_Vehicul": "1", "Tipo_de_Ve": "CAMION", "Ipat": 1797567.0, "Spoa": 0.0, "SEXO": null, "EDAD": null, "CONDICION": null, "TIPO_DE_AC": null, "VEHICULOS1": null, "VEHICULOS2": null, "comuna": 9.0, "nombre": "Comuna 9", "id_barrio": 910.0, "barrio": "Barrio Obrero", "Unnamed__0": null, "Unnamed__1": null, "Unnamed__2": null, "Unnamed__3": null, "Unnamed__4": null, "Id": 0, "area": 136572.15568900001 }, "geometry": { "type": "Point", "coordinates": [ -76.521884665278819, 3.450290026252345 ] } }
]
}
